{"version": 0.6, "generator": "Overpass API 0.7.62.5 1bd436f1", "osm3s": {"timestamp_osm_base": "2025-05-29T17:06:50Z", "copyright": "The data included in this document is from www.openstreetmap.org. The data is made available under ODbL."}, "elements": [{"type": "node", "id": 34132755, "lat": 32.0714067, "lon": 34.7808185}, {"type": "node", "id": 286546719, "lat": 32.0716878, "lon": 34.7799974}, {"type": "node", "id": 384604490, "lat": 32.071326, "lon": 34.7792056}, {"type": "node", "id": 384604491, "lat": 32.0706704, "lon": 34.7816314}, {"type": "node", "id": 384613392, "lat": 32.0701269, "lon": 34.7802817}, {"type": "node", "id": 387493707, "lat": 32.0719251, "lon": 34.7810438}, {"type": "node", "id": 476376316, "lat": 32.0705554, "lon": 34.7804615}, {"type": "node", "id": 476376664, "lat": 32.0709549, "lon": 34.7806291}, {"type": "node", "id": 1312216095, "lat": 32.0714561, "lon": 34.7808393, "tags": {"bicycle": "designated", "crossing": "marked", "crossing:markings": "yes", "foot": "designated", "highway": "crossing", "segregated": "yes"}}, {"type": "node", "id": 1312216144, "lat": 32.0712719, "lon": 34.7817638}, {"type": "node", "id": 1312839269, "lat": 32.0717343, "lon": 34.7800266, "tags": {"bicycle": "designated", "crossing": "marked", "crossing:markings": "yes", "foot": "designated", "highway": "crossing", "segregated": "yes"}}, {"type": "node", "id": 2249328556, "lat": 32.0714337, "lon": 34.7803113, "tags": {"amenity": "bar", "name": "\u05e4\u05d9\u05e7\u05d5\u05e7", "name:he": "\u05e4\u05d9\u05e7\u05d5\u05e7", "wheelchair": "limited"}}, {"type": "node", "id": 2473987515, "lat": 32.0711281, "lon": 34.7818485, "tags": {"highway": "traffic_signals"}}, {"type": "node", "id": 3599546658, "lat": 32.0717886, "lon": 34.7799355}, {"type": "node", "id": 3599546661, "lat": 32.0718371, "lon": 34.77987}, {"type": "node", "id": 3664366118, "lat": 32.071651, "lon": 34.7800476, "tags": {"crossing": "uncontrolled", "highway": "crossing"}}, {"type": "node", "id": 3675733236, "lat": 32.0714037, "lon": 34.7805701}, {"type": "node", "id": 3675733237, "lat": 32.0712361, "lon": 34.7804988}, {"type": "node", "id": 3675733238, "lat": 32.0711873, "lon": 34.7806588}, {"type": "node", "id": 3675733239, "lat": 32.0713549, "lon": 34.7807301}, {"type": "node", "id": 4013462834, "lat": 32.071782, "lon": 34.7799433, "tags": {"bicycle": "designated", "crossing": "marked", "crossing:markings": "yes", "foot": "designated", "highway": "crossing", "segregated": "yes"}}, {"type": "node", "id": 4013462835, "lat": 32.0717538, "lon": 34.7798936}, {"type": "node", "id": 6801850949, "lat": 32.0713054, "lon": 34.7792846, "tags": {"crossing": "uncontrolled", "crossing_ref": "zebra", "highway": "crossing"}}, {"type": "node", "id": 8478318377, "lat": 32.0716001, "lon": 34.7801719}, {"type": "node", "id": 8676344698, "lat": 32.0716907, "lon": 34.7800763}, {"type": "node", "id": 8676344699, "lat": 32.0712253, "lon": 34.7816911}, {"type": "node", "id": 9411445562, "lat": 32.0711819, "lon": 34.7816478, "tags": {"button_operated": "no", "crossing": "traffic_signals", "highway": "crossing", "traffic_signals:sound": "yes", "traffic_signals:vibration": "yes"}}, {"type": "node", "id": 9411445565, "lat": 32.0712268, "lon": 34.7816621}, {"type": "node", "id": 10186164732, "lat": 32.0712486, "lon": 34.7817469}, {"type": "node", "id": 10186164733, "lat": 32.071232, "lon": 34.7817215}, {"type": "node", "id": 12102940425, "lat": 32.0709975, "lon": 34.7802908, "tags": {"addr:city": "\u05ea\u05dc \u05d0\u05d1\u05d9\u05d1-\u05d9\u05e4\u05d5", "addr:housenumber": "14", "addr:street": "\u05d1\u05e8\u05d3\u05d9\u05e6'\u05d1\u05e1\u05e7\u05d9", "amenity": "bar", "contact:facebook": "bellboy.bar", "contact:instagram": "bellboy.tlv", "name": "Bellboy", "opening_hours": "Su-Sa 18:00+", "phone": "+972 3 728 9213", "reservation": "yes", "reservation:website": "https://tabitisrael.co.il/online-reservations/create-reservation?step=search&orgId=5ec15cb3356df600bd22b6f2", "wheelchair": "yes"}}, {"type": "way", "id": 33625502, "nodes": [384604490, 6801850949, 476376664, 384604491], "tags": {"highway": "residential", "name": "\u05d1\u05e8\u05d3\u05d9\u05e6'\u05d1\u05e1\u05e7\u05d9", "name:en": "Berdyczewski", "name:en1": "Berdichevsky", "name:en2": "Bradichevski", "name:en3": "Bradiczevski", "name:en4": "Berdichevski", "name:he": "\u05d1\u05e8\u05d3\u05d9\u05e6'\u05d1\u05e1\u05e7\u05d9", "oneway": "yes", "sidewalk": "both", "surface": "asphalt"}}, {"type": "way", "id": 40434576, "nodes": [384613392, 476376316, 476376664, 34132755, 1312216095, 387493707], "tags": {"highway": "residential", "lit": "yes", "name": "\u05d1\u05d9\u05dc\"\u05d5", "name:ar": "\u0628\u064a\u0644\u0648", "name:en": "Bilu", "name:en1": "Biloo", "name:he": "\u05d1\u05d9\u05dc\"\u05d5", "name:ru": "\u0411\u0438\u043b\u0443", "oneway": "yes", "sidewalk": "both", "surface": "asphalt"}}, {"type": "way", "id": 104815743, "nodes": [34132755, 8478318377, 3664366118, 286546719, 4013462835], "tags": {"highway": "tertiary", "lane_markings": "no", "lanes": "1", "name": "\u05de\u05e8\u05de\u05d5\u05e8\u05e7", "name:en": "Marmorek", "name:he": "\u05de\u05e8\u05de\u05d5\u05e8\u05e7", "oneway": "yes", "surface": "asphalt"}}, {"type": "way", "id": 363404545, "nodes": [3675733236, 3675733237, 3675733238, 3675733239, 3675733236], "tags": {"access": "yes", "amenity": "parking", "capacity": "33", "fee": "yes", "parking": "surface", "surface": "asphalt"}}, {"type": "way", "id": 912680019, "nodes": [2473987515, 9411445562, 34132755], "tags": {"highway": "tertiary", "lane_markings": "no", "lanes": "1", "name": "\u05de\u05e8\u05de\u05d5\u05e8\u05e7", "name:en": "Marmorek", "name:he": "\u05de\u05e8\u05de\u05d5\u05e8\u05e7", "oneway": "yes", "surface": "asphalt"}}, {"type": "way", "id": 936345122, "nodes": [3599546661, 3599546658, 4013462834, 1312839269, 8676344698, 1312216095, 9411445565, 8676344699, 10186164733, 10186164732, 1312216144], "tags": {"highway": "cycleway", "oneway": "no", "surface": "paving_stones", "width": "2"}}]}