{"version": 0.6, "generator": "Overpass API 0.7.62.5 1bd436f1", "osm3s": {"timestamp_osm_base": "2025-05-29T17:06:50Z", "copyright": "The data included in this document is from www.openstreetmap.org. The data is made available under ODbL."}, "elements": [{"type": "node", "id": 34132757, "lat": 32.0720307, "lon": 34.779401, "tags": {"highway": "traffic_signals", "traffic_signals": "signal"}}, {"type": "node", "id": 34650802, "lat": 32.0653718, "lon": 34.7769018, "tags": {"highway": "traffic_signals"}}, {"type": "node", "id": 282458079, "lat": 32.0658755, "lon": 34.7774188, "tags": {"highway": "traffic_signals"}}, {"type": "node", "id": 286546719, "lat": 32.0716878, "lon": 34.7799974}, {"type": "node", "id": 311001030, "lat": 32.0720324, "lon": 34.779107, "tags": {"highway": "traffic_signals", "traffic_signals": "signal"}}, {"type": "node", "id": 311001060, "lat": 32.0666183, "lon": 34.7776521, "tags": {"highway": "traffic_signals"}}, {"type": "node", "id": 332207109, "lat": 32.0719657, "lon": 34.7793068}, {"type": "node", "id": 345574764, "lat": 32.0705147, "lon": 34.7788346, "tags": {"bicycle": "designated", "button_operated": "yes", "crossing": "traffic_signals", "highway": "crossing", "traffic_signals:sound": "yes"}}, {"type": "node", "id": 345574807, "lat": 32.0681645, "lon": 34.7780815, "tags": {"bicycle": "designated", "button_operated": "yes", "crossing": "traffic_signals", "highway": "crossing", "traffic_signals:sound": "yes"}}, {"type": "node", "id": 345574924, "lat": 32.0666381, "lon": 34.7775638, "tags": {"bicycle": "designated", "crossing": "traffic_signals", "highway": "crossing"}}, {"type": "node", "id": 345574947, "lat": 32.0659133, "lon": 34.777264, "tags": {"bicycle": "designated", "crossing": "uncontrolled", "highway": "crossing"}}, {"type": "node", "id": 355602971, "lat": 32.072079, "lon": 34.7793201, "tags": {"bicycle": "designated", "button_operated": "no", "crossing": "traffic_signals", "foot": "designated", "highway": "crossing", "segregated": "yes", "traffic_signals:sound": "no"}}, {"type": "node", "id": 384604490, "lat": 32.071326, "lon": 34.7792056}, {"type": "node", "id": 384604872, "lat": 32.0709236, "lon": 34.7790817}, {"type": "node", "id": 384609471, "lat": 32.0695682, "lon": 34.7786294}, {"type": "node", "id": 384611311, "lat": 32.0695876, "lon": 34.7785515, "tags": {"bicycle": "designated", "crossing": "uncontrolled", "crossing:island": "no", "highway": "crossing"}}, {"type": "node", "id": 384622257, "lat": 32.0671155, "lon": 34.7778213}, {"type": "node", "id": 384622740, "lat": 32.0676472, "lon": 34.7780022}, {"type": "node", "id": 384648219, "lat": 32.0642096, "lon": 34.7756408, "tags": {"highway": "traffic_signals"}}, {"type": "node", "id": 711673453, "lat": 32.0716614, "lon": 34.7794174, "tags": {"addr:city": "\u05ea\u05dc \u05d0\u05d1\u05d9\u05d1-\u05d9\u05e4\u05d5", "addr:housenumber": "140", "addr:street": "\u05e9\u05d3\u05e8\u05d5\u05ea \u05e8\u05d5\u05d8\u05e9\u05d9\u05dc\u05d3", "amenity": "fast_food", "check_date": "2024-08-23", "contact:facebook": "TonyVespaIsrael", "cuisine": "pizza", "delivery": "yes", "name": "\u05d8\u05d5\u05e0\u05d9 \u05d5\u05d5\u05e1\u05e4\u05d4", "name:en": "Tony Vespa", "name:he": "\u05d8\u05d5\u05e0\u05d9 \u05d5\u05d5\u05e1\u05e4\u05d4", "outdoor_seating": "yes"}}, {"type": "node", "id": 1153441817, "lat": 32.0926361, "lon": 34.7764809, "tags": {"amenity": "bicycle_rental"}}, {"type": "node", "id": 1153443526, "lat": 32.0937263, "lon": 34.7836156, "tags": {"amenity": "bicycle_rental", "bicycle_rental": "docking_station", "capacity": "16"}}, {"type": "node", "id": 1153443532, "lat": 32.0917626, "lon": 34.7826511, "tags": {"amenity": "bicycle_rental"}}, {"type": "node", "id": 1156079710, "lat": 32.0971154, "lon": 34.7758772, "tags": {"amenity": "bicycle_rental"}}, {"type": "node", "id": 1156126871, "lat": 32.0988004, "lon": 34.7887333, "tags": {"amenity": "bicycle_rental", "bicycle_rental": "docking_station", "name": "\u05ea\u05dc \u05d0\u05d5\u05e4\u05df: \u05e9\"\u05d9 \u05e2\u05d2\u05e0\u05d5\u05df 59", "name:he": "\u05ea\u05dc \u05d0\u05d5\u05e4\u05df: \u05e9\"\u05d9 \u05e2\u05d2\u05e0\u05d5\u05df 59"}}, {"type": "node", "id": 1157393954, "lat": 32.0988804, "lon": 34.7812586, "tags": {"amenity": "bicycle_rental"}}, {"type": "node", "id": 1157394642, "lat": 32.1248014, "lon": 34.8023869, "tags": {"amenity": "bicycle_rental", "name": "\u05ea\u05dc \u05d0\u05d5\u05e4\u05df: \u05d0\u05d7\u05d9\u05de\u05d0\u05d9\u05e8 18 - \u05de\u05e8\u05db\u05d6 \u05e9\u05d5\u05e1\u05d8\u05e8", "name:he": "\u05ea\u05dc \u05d0\u05d5\u05e4\u05df: \u05d0\u05d7\u05d9\u05de\u05d0\u05d9\u05e8 18 - \u05de\u05e8\u05db\u05d6 \u05e9\u05d5\u05e1\u05d8\u05e8"}}, {"type": "node", "id": 1157396127, "lat": 32.1077215, "lon": 34.7981388, "tags": {"amenity": "bicycle_rental", "bicycle_rental": "shop", "capacity": "20", "name": "\u05d1\u05e8\u05d5\u05d3\u05e6\u05e7\u05d9 \u05e4\u05d9\u05e0\u05ea \u05e9\u05d3 \u05d0\u05d1\u05e0\u05e8", "name:he": "\u05d1\u05e8\u05d5\u05d3\u05e6\u05e7\u05d9 \u05e4\u05d9\u05e0\u05ea \u05e9\u05d3 \u05d0\u05d1\u05e0\u05e8", "network": "Tel-O-Fun", "payment:credit_cards": "yes", "ref": "113", "shop": "rental"}}, {"type": "node", "id": 1157396376, "lat": 32.1102109, "lon": 34.7904436, "tags": {"amenity": "bicycle_rental", "bicycle_rental": "docking_station", "name": "\u05ea\u05dc \u05d0\u05d5\u05e4\u05df: \u05e4\u05e8\u05dc\u05d5\u05e7 4", "name:he": "\u05ea\u05dc \u05d0\u05d5\u05e4\u05df: \u05e4\u05e8\u05dc\u05d5\u05e7 4"}}, {"type": "node", "id": 1157399238, "lat": 32.1200705, "lon": 34.7932689, "tags": {"amenity": "bicycle_rental", "name": "\u05ea\u05dc \u05d0\u05d5\u05e4\u05df: \u05e8\u05d5\u05d3\u05e0\u05e1\u05e7\u05d9 - \u05de\u05e8\u05db\u05d6 \u05de\u05e1\u05d7\u05e8\u05d9", "name:he": "\u05ea\u05dc \u05d0\u05d5\u05e4\u05df: \u05e8\u05d5\u05d3\u05e0\u05e1\u05e7\u05d9 - \u05de\u05e8\u05db\u05d6 \u05de\u05e1\u05d7\u05e8\u05d9"}}, {"type": "node", "id": 1157400314, "lat": 32.1018745, "lon": 34.7926013, "tags": {"amenity": "bicycle_rental", "bicycle_rental": "docking_station"}}, {"type": "node", "id": 1157401075, "lat": 32.1211891, "lon": 34.7831418, "tags": {"amenity": "bicycle_rental", "capacity": "20", "description": "\u05de\u05d3\u05e8\u05d2\u05d5\u05ea", "description:he": "\u05de\u05d3\u05e8\u05d2\u05d5\u05ea", "name": "\u05d7\u05d5\u05e3 \u05ea\u05dc \u05d1\u05e8\u05d5\u05da", "name:he": "\u05d7\u05d5\u05e3 \u05ea\u05dc \u05d1\u05e8\u05d5\u05da", "network": "Tel-O-Fun", "ref:IL:inature": "\u05d7\u05d5\u05e3 \u05ea\u05dc \u05d1\u05e8\u05d5\u05da"}}, {"type": "node", "id": 1161224266, "lat": 32.0953625, "lon": 34.7783694, "tags": {"amenity": "bicycle_rental"}}, {"type": "node", "id": 1171882556, "lat": 32.062986, "lon": 34.7703426, "tags": {"amenity": "bicycle_rental", "bicycle_rental": "docking_station", "capacity": "28", "name": "\u05e8\u05d5\u05d8\u05e9\u05d9\u05dc\u05d3 11 \u05e4\u05d9\u05e0\u05ea \u05d4\u05e8\u05e6\u05dc", "name:he": "\u05e8\u05d5\u05d8\u05e9\u05d9\u05dc\u05d3 11 \u05e4\u05d9\u05e0\u05ea \u05d4\u05e8\u05e6\u05dc", "ref": "369"}}, {"type": "node", "id": 1171883569, "lat": 32.062957, "lon": 34.7797989, "tags": {"amenity": "bicycle_rental", "bicycle_rental": "docking_station", "capacity": "28", "name": "\u05d1\u05d2\u05d9\u05df 48 \u05e4\u05d9\u05e0\u05ea \u05d4\u05e8\u05db\u05d1\u05ea", "name:en": "Begin 48 / HaRakevet", "name:he": "\u05d1\u05d2\u05d9\u05df 48 \u05e4\u05d9\u05e0\u05ea \u05d4\u05e8\u05db\u05d1\u05ea", "network": "Tel-O-Fun", "payment:credit_cards": "yes", "ref": "371", "wheelchair": "yes"}}, {"type": "node", "id": 1171885036, "lat": 32.0814217, "lon": 34.7738867, "tags": {"amenity": "bicycle_rental"}}, {"type": "node", "id": 1171885266, "lat": 32.0840563, "lon": 34.7816564, "tags": {"amenity": "bicycle_rental"}}, {"type": "node", "id": 1171886214, "lat": 32.0963, "lon": 34.7906541, "tags": {"amenity": "bicycle_rental"}}, {"type": "node", "id": 1171886311, "lat": 32.0978056, "lon": 34.7970355, "tags": {"amenity": "bicycle_rental", "name": "\u05ea\u05dc \u05d0\u05d5\u05e4\u05df: \u05e7\u05d5\u05e1\u05d5\u05d1\u05e1\u05e7\u05d9 34 - \u05d2\u05e0\u05d9 \u05d9\u05d4\u05d5\u05e9\u05d5\u05e2", "name:he": "\u05ea\u05dc \u05d0\u05d5\u05e4\u05df: \u05e7\u05d5\u05e1\u05d5\u05d1\u05e1\u05e7\u05d9 34 - \u05d2\u05e0\u05d9 \u05d9\u05d4\u05d5\u05e9\u05d5\u05e2"}}, {"type": "node", "id": 1171889386, "lat": 32.1134285, "lon": 34.8327684, "tags": {"amenity": "bicycle_rental"}}, {"type": "node", "id": 1172162547, "lat": 32.1222178, "lon": 34.8176757, "tags": {"amenity": "bicycle_rental"}}, {"type": "node", "id": 1179532546, "lat": 32.0907102, "lon": 34.7907125, "tags": {"amenity": "bicycle_rental", "check_date": "2023-06-01"}}, {"type": "node", "id": 1184017367, "lat": 32.091087, "lon": 34.7864591, "tags": {"amenity": "bicycle_rental"}}, {"type": "node", "id": 1184017987, "lat": 32.0941229, "lon": 34.7926336, "tags": {"amenity": "bicycle_rental"}}, {"type": "node", "id": 1184019738, "lat": 32.0829108, "lon": 34.7772837, "tags": {"addr:city": "\u05ea\u05dc \u05d0\u05d1\u05d9\u05d1-\u05d9\u05e4\u05d5", "addr:housenumber": "68", "addr:street": "\u05e9\u05d3\u05e8\u05d5\u05ea \u05d3\u05d5\u05d3 \u05d1\u05df \u05d2\u05d5\u05e8\u05d9\u05d5\u05df", "amenity": "bicycle_rental", "capacity": "28", "compressed_air": "yes", "name": "\u05e9\u05d3\u05e8\u05d5\u05ea \u05d1\u05df \u05d2\u05d5\u05e8\u05d9\u05d5\u05df 68", "name:en": "68 Ben Gurion Av.", "name:he": "\u05e9\u05d3\u05e8\u05d5\u05ea \u05d1\u05df \u05d2\u05d5\u05e8\u05d9\u05d5\u05df 68", "network": "Tel-O-Fun", "payment:credit_cards": "yes", "ref": "330"}}, {"type": "node", "id": 1184840368, "lat": 32.0913538, "lon": 34.7944659, "tags": {"amenity": "bicycle_rental"}}, {"type": "node", "id": 1185647914, "lat": 32.0770726, "lon": 34.7884566, "tags": {"addr:city": "\u05ea\u05dc \u05d0\u05d1\u05d9\u05d1-\u05d9\u05e4\u05d5", "addr:housenumber": "1", "addr:street": "\u05d5\u05d9\u05e6\u05de\u05df", "amenity": "bicycle_rental", "bicycle_rental": "docking_station", "capacity": "28", "name": "\u05d5\u05d9\u05e6\u05de\u05df 1 - \u05d1\u05d9\u05ea \u05d4\u05de\u05e9\u05e4\u05d8", "name:en": "1 Weizman St. - Court Justice Hall", "name:he": "\u05d5\u05d9\u05e6\u05de\u05df 1 - \u05d1\u05d9\u05ea \u05d4\u05de\u05e9\u05e4\u05d8", "network": "Tel-O-Fun", "payment:credit_cards": "yes", "ref": "345"}}, {"type": "node", "id": 1185648094, "lat": 32.0799067, "lon": 34.7853697, "tags": {"amenity": "bicycle_rental", "bicycle_rental": "docking_station", "capacity": "20", "name": "\u05d3\u05d5\u05d3 \u05d4\u05de\u05dc\u05da 30", "name:he": "\u05d3\u05d5\u05d3 \u05d4\u05de\u05dc\u05da 30", "payment:credit_cards": "yes", "ref": "332"}}, {"type": "node", "id": 1187812125, "lat": 32.0946669, "lon": 34.7726777, "tags": {"amenity": "bicycle_rental"}}, {"type": "node", "id": 1187820821, "lat": 32.0813769, "lon": 34.7706503, "tags": {"amenity": "bicycle_rental"}}, {"type": "node", "id": 1187828917, "lat": 32.0760384, "lon": 34.7712551, "tags": {"amenity": "bicycle_rental"}}, {"type": "node", "id": 1187833758, "lat": 32.0666435, "lon": 34.7662392, "tags": {"amenity": "bicycle_rental", "bicycle_rental": "docking_station", "capacity": "24"}}, {"type": "node", "id": 1189621393, "lat": 32.0559437, "lon": 34.7556465, "tags": {"addr:city": "\u05ea\u05dc \u05d0\u05d1\u05d9\u05d1-\u05d9\u05e4\u05d5", "addr:street": "\u05e8\u05e6\u05d9\u05e3 \u05d4\u05e2\u05dc\u05d9\u05d9\u05d4 \u05d4\u05e9\u05e0\u05d9\u05d9\u05d4", "amenity": "bicycle_rental", "capacity": "27", "compressed_air": "yes", "name": "\u05e8\u05e6\u05d9\u05e3 \u05d4\u05e2\u05dc\u05d9\u05d4 \u05d4\u05e9\u05e0\u05d9\u05d4 - \u05db\u05d9\u05db\u05e8 \u05d4\u05e9\u05e2\u05d5\u05df", "name:en": "The Clock Tower", "name:he": "\u05e8\u05e6\u05d9\u05e3 \u05d4\u05e2\u05dc\u05d9\u05d4 \u05d4\u05e9\u05e0\u05d9\u05d4 - \u05db\u05d9\u05db\u05e8 \u05d4\u05e9\u05e2\u05d5\u05df", "network": "Tel-O-Fun", "payment:credit_cards": "yes", "ref": "403"}}, {"type": "node", "id": 1191726832, "lat": 32.0900188, "lon": 34.7791924, "tags": {"amenity": "bicycle_rental"}}, {"type": "node", "id": 1194305940, "lat": 32.0482814, "lon": 34.7692233, "tags": {"amenity": "bicycle_rental", "name": "\u05d2\u05e0\u05d9 \u05d4\u05d8\u05d1\u05e2", "name:he": "\u05d2\u05e0\u05d9 \u05d4\u05d8\u05d1\u05e2", "ref": "406"}}, {"type": "node", "id": 1194309590, "lat": 32.112832, "lon": 34.7963909, "tags": {"amenity": "bicycle_rental", "name": "\u05ea\u05dc \u05d0\u05d5\u05e4\u05df: \u05d0\u05d9\u05d9\u05e0\u05e9\u05d8\u05d9\u05d9\u05df 41", "name:he": "\u05ea\u05dc \u05d0\u05d5\u05e4\u05df: \u05d0\u05d9\u05d9\u05e0\u05e9\u05d8\u05d9\u05d9\u05df 41"}}, {"type": "node", "id": 1195969100, "lat": 32.1176428, "lon": 34.7980352, "tags": {"amenity": "bicycle_rental"}}, {"type": "node", "id": 1195969103, "lat": 32.1256566, "lon": 34.7982488, "tags": {"amenity": "bicycle_rental", "name": "\u05ea\u05dc \u05d0\u05d5\u05e4\u05df: \u05e9\u05dc\u05de\u05d4 \u05d1\u05df \u05d9\u05d5\u05e1\u05e3 24", "name:he": "\u05ea\u05dc \u05d0\u05d5\u05e4\u05df: \u05e9\u05dc\u05de\u05d4 \u05d1\u05df \u05d9\u05d5\u05e1\u05e3 24"}}, {"type": "node", "id": 1195972066, "lat": 32.1022466, "lon": 34.7854843, "tags": {"amenity": "bicycle_rental", "bicycle_rental": "docking_station"}}, {"type": "node", "id": 1195972074, "lat": 32.1401662, "lon": 34.7909432, "tags": {"amenity": "bicycle_rental", "name": "\u05ea\u05dc \u05d0\u05d5\u05e4\u05df: \u05e1\u05d0\u05de\u05d8 \u05e9\u05de\u05e2\u05d5\u05df - \u05d7\u05d5\u05e3 \u05d4\u05e6\u05d5\u05e7 \u05d4\u05d3\u05e8\u05d5\u05de\u05d9", "name:he": "\u05ea\u05dc \u05d0\u05d5\u05e4\u05df: \u05e1\u05d0\u05de\u05d8 \u05e9\u05de\u05e2\u05d5\u05df - \u05d7\u05d5\u05e3 \u05d4\u05e6\u05d5\u05e7 \u05d4\u05d3\u05e8\u05d5\u05de\u05d9"}}, {"type": "node", "id": 1195975174, "lat": 32.1436639, "lon": 34.7922521, "tags": {"amenity": "bicycle_rental", "name": "\u05ea\u05dc \u05d0\u05d5\u05e4\u05df: \u05d7\u05d5\u05e3 \u05d4\u05e6\u05d5\u05e7 \u05d4\u05e6\u05e4\u05d5\u05e0\u05d9 - \u05de\u05dc\u05d5\u05df \u05de\u05e0\u05d3\u05e8\u05d9\u05df", "name:he": "\u05ea\u05dc \u05d0\u05d5\u05e4\u05df: \u05d7\u05d5\u05e3 \u05d4\u05e6\u05d5\u05e7 \u05d4\u05e6\u05e4\u05d5\u05e0\u05d9 - \u05de\u05dc\u05d5\u05df \u05de\u05e0\u05d3\u05e8\u05d9\u05df"}}, {"type": "node", "id": 1195981666, "lat": 32.1132273, "lon": 34.8009795, "tags": {"amenity": "bicycle_rental", "capacity": "24", "name": "\u05d0\u05d5\u05e0\u05d9\u05d1\u05e8\u05e1\u05d9\u05d8\u05d4 \u05d0\u05d9\u05d9\u05e0\u05e9\u05d8\u05d9\u05d9\u05df 78", "name:en": "Einstein 78 - University", "name:he": "\u05d0\u05d5\u05e0\u05d9\u05d1\u05e8\u05e1\u05d9\u05d8\u05d4 \u05d0\u05d9\u05d9\u05e0\u05e9\u05d8\u05d9\u05d9\u05df 78", "network": "Tel-O-Fun", "payment:credit_cards": "yes", "ref": "112"}}, {"type": "node", "id": 1195981669, "lat": 32.1153888, "lon": 34.7889254, "tags": {"amenity": "bicycle_rental"}}, {"type": "node", "id": 1195981671, "lat": 32.120687, "lon": 34.7990855, "tags": {"amenity": "bicycle_rental", "name": "\u05ea\u05dc \u05d0\u05d5\u05e4\u05df: \u05e8\u05d1 \u05d0\u05e9\u05d9 11 - \u05de\u05e8\u05db\u05d6 \u05de\u05e1\u05d7\u05e8\u05d9", "name:he": "\u05ea\u05dc \u05d0\u05d5\u05e4\u05df: \u05e8\u05d1 \u05d0\u05e9\u05d9 11 - \u05de\u05e8\u05db\u05d6 \u05de\u05e1\u05d7\u05e8\u05d9"}}, {"type": "node", "id": 1195987766, "lat": 32.1141339, "lon": 34.8187294, "tags": {"addr:housenumber": "3", "addr:street": "\u05e7\u05d4\u05d9\u05dc\u05ea \u05e7\u05d9\u05d9\u05d1", "amenity": "bicycle_rental", "capacity": "20", "name": "\u05d4\u05de\u05db\u05dc\u05dc\u05d4 \u05dc\u05d4\u05e0\u05d3\u05e1\u05d0\u05d9\u05dd", "name:en": "3 Kehillat Kiov St. \u2013 College of Practical Engineering", "name:he": "\u05d4\u05de\u05db\u05dc\u05dc\u05d4 \u05dc\u05d4\u05e0\u05d3\u05e1\u05d0\u05d9\u05dd", "network": "Tel-O-Fun", "payment:credit_cards": "yes", "ref": "207"}}, {"type": "node", "id": 1195987767, "lat": 32.1200749, "lon": 34.8211795, "tags": {"amenity": "bicycle_rental"}}, {"type": "node", "id": 1195987769, "lat": 32.1098064, "lon": 34.8187439, "tags": {"amenity": "bicycle_rental"}}, {"type": "node", "id": 1195987770, "lat": 32.1129961, "lon": 34.8250644, "tags": {"amenity": "bicycle_rental"}}, {"type": "node", "id": 1195987771, "lat": 32.1297083, "lon": 34.7922473, "tags": {"amenity": "bicycle_rental", "name": "\u05ea\u05dc \u05d0\u05d5\u05e4\u05df: \u05d2\u05e8\u05d9\u05e0\u05d1\u05e8\u05d2 26 - \u05d0\u05d6\u05d5\u05e8\u05d9 \u05d7\u05df", "name:he": "\u05ea\u05dc \u05d0\u05d5\u05e4\u05df: \u05d2\u05e8\u05d9\u05e0\u05d1\u05e8\u05d2 26 - \u05d0\u05d6\u05d5\u05e8\u05d9 \u05d7\u05df"}}, {"type": "node", "id": 1195987772, "lat": 32.1222185, "lon": 34.8255612, "tags": {"amenity": "bicycle_rental"}}, {"type": "node", "id": 1195987773, "lat": 32.1262986, "lon": 34.8274021, "tags": {"amenity": "bicycle_rental"}}, {"type": "node", "id": 1195987774, "lat": 32.1177759, "lon": 34.812811, "tags": {"amenity": "bicycle_rental"}}, {"type": "node", "id": 1195988365, "lat": 32.103398, "lon": 34.8052387, "tags": {"amenity": "bicycle_rental", "capacity": "20", "name": "\u05ea\u05d7\u05e0\u05ea \u05e8\u05db\u05d1\u05ea \u05d0\u05d5\u05e0\u05d1\u05e8\u05e1\u05d9\u05d8\u05d4", "name:he": "\u05ea\u05d7\u05e0\u05ea \u05e8\u05db\u05d1\u05ea \u05d0\u05d5\u05e0\u05d1\u05e8\u05e1\u05d9\u05d8\u05d4", "ref": "216"}}, {"type": "node", "id": 1195992975, "lat": 32.1144124, "lon": 34.8411921, "tags": {"amenity": "bicycle_rental"}}, {"type": "node", "id": 1195992977, "lat": 32.1214513, "lon": 34.8348962, "tags": {"addr:city": "\u05ea\u05dc \u05d0\u05d1\u05d9\u05d1-\u05d9\u05e4\u05d5", "addr:street": "\u05e6\u05d4\"\u05dc", "amenity": "bicycle_rental", "capacity": "20", "name": "\u05e6\u05d4\"\u05dc \u05de\u05d5\u05dc \u05d1\u05d9\u05ea 76", "name:en": "Opp. 76 Tsahal St.", "name:he": "\u05e6\u05d4\"\u05dc \u05de\u05d5\u05dc \u05d1\u05d9\u05ea 76", "network": "Tel-O-Fun", "payment:credit_cards": "yes", "ref": "205"}}, {"type": "node", "id": 1195992978, "lat": 32.1066542, "lon": 34.832662, "tags": {"amenity": "bicycle_rental"}}, {"type": "node", "id": 1195992979, "lat": 32.1177748, "lon": 34.8395071, "tags": {"amenity": "bicycle_rental"}}, {"type": "node", "id": 1195992980, "lat": 32.1118411, "lon": 34.8147202, "tags": {"amenity": "bicycle_rental"}}, {"type": "node", "id": 1195992981, "lat": 32.1096878, "lon": 34.8330342, "tags": {"amenity": "bicycle_rental"}}, {"type": "node", "id": 1195993418, "lat": 32.1044256, "lon": 34.809981, "tags": {"amenity": "bicycle_rental", "capacity": "20", "name": "\u05e8\u05d5\u05e7\u05d7 \u05de\u05e8\u05db\u05d6 \u05d4\u05d9\u05e8\u05d9\u05d3\u05d9\u05dd", "name:en": "Rokach Blvd Convention Grounds", "name:he": "\u05e8\u05d5\u05e7\u05d7 \u05de\u05e8\u05db\u05d6 \u05d4\u05d9\u05e8\u05d9\u05d3\u05d9\u05dd", "payment:credit_cards": "yes", "ref": "215"}}, {"type": "node", "id": 1195994040, "lat": 32.1068515, "lon": 34.8210706, "tags": {"amenity": "bicycle_rental"}}, {"type": "node", "id": 1195994041, "lat": 32.1089638, "lon": 34.8394214, "tags": {"amenity": "bicycle_rental", "capacity": "20", "name": "\u05d0\u05e1\u05d5\u05ea\u05d0 \u05d4\u05d1\u05e8\u05d6\u05dc 23", "name:he": "\u05d0\u05e1\u05d5\u05ea\u05d0 \u05d4\u05d1\u05e8\u05d6\u05dc 23", "payment:credit_cards": "yes", "ref": "211"}}, {"type": "node", "id": 1198440857, "lat": 32.0833582, "lon": 34.7962004, "tags": {"amenity": "bicycle_rental", "capacity": "20", "name": "\u05e8\u05db\u05d1\u05ea \u05e1\u05d1\u05d9\u05d3\u05d5\u05e8/\u05de\u05e1\u05d5\u05e3 2000", "name:en": "Savidor/Masof 2000", "name:he": "\u05e8\u05db\u05d1\u05ea \u05e1\u05d1\u05d9\u05d3\u05d5\u05e8/\u05de\u05e1\u05d5\u05e3 2000", "ref": "326"}}, {"type": "node", "id": 1198441839, "lat": 32.0837819, "lon": 34.7918886, "tags": {"addr:city": "\u05ea\u05dc \u05d0\u05d1\u05d9\u05d1-\u05d9\u05e4\u05d5", "addr:housenumber": "3", "addr:street": "\u05d4\u05dc\u05e1\u05d9\u05e0\u05e7\u05d9", "amenity": "bicycle_rental", "bicycle_rental": "docking_station", "capacity": "20", "name": "\u05d4\u05dc\u05e1\u05d9\u05e0\u05e7\u05d9 3", "name:en": "3 Helsinki St.", "name:he": "\u05d4\u05dc\u05e1\u05d9\u05e0\u05e7\u05d9 3", "network": "Tel-O-Fun", "payment:credit_cards": "yes", "ref": "325", "website": "https://www.tel-o-fun.co.il/en/"}}, {"type": "node", "id": 1198442893, "lat": 32.0869129, "lon": 34.7883956, "tags": {"amenity": "bicycle_rental"}}, {"type": "node", "id": 1198447303, "lat": 32.078283, "lon": 34.7744236, "tags": {"addr:city": "\u05ea\u05dc \u05d0\u05d1\u05d9\u05d1-\u05d9\u05e4\u05d5", "addr:housenumber": "2", "addr:street": "\u05e8\u05d9\u05d9\u05e0\u05e1", "amenity": "bicycle_rental", "capacity": "23", "name": "\u05db\u05db\u05e8 \u05d3\u05d9\u05d6\u05d9\u05e0\u05d2\u05d5\u05e3", "name:en": "2 Reiness St. - Dizengoff Square", "name:he": "\u05db\u05db\u05e8 \u05d3\u05d9\u05d6\u05d9\u05e0\u05d2\u05d5\u05e3", "network": "Tel-O-Fun", "payment:credit_cards": "yes", "ref": "343"}}, {"type": "node", "id": 1209000972, "lat": 32.0718403, "lon": 34.7794001}, {"type": "node", "id": 1209001015, "lat": 32.071804, "lon": 34.7793644}, {"type": "node", "id": 1232914383, "lat": 32.0505931, "lon": 34.7595276, "tags": {"addr:city": "\u05ea\u05dc \u05d0\u05d1\u05d9\u05d1-\u05d9\u05e4\u05d5", "addr:housenumber": "1", "addr:street": "\u05d1\u05df \u05e6\u05d1\u05d9", "amenity": "bicycle_rental", "capacity": "20", "name": "\u05e9\u05d3 \u05d9\u05e8\u05d5\u05e9\u05dc\u05d9\u05dd \u05e4\u05d9\u05e0\u05ea \u05d1\u05df \u05e6\u05d1\u05d9 1", "name:en": "Jerusalem Av./ 1 Ben Zvi Av.", "name:he": "\u05e9\u05d3 \u05d9\u05e8\u05d5\u05e9\u05dc\u05d9\u05dd \u05e4\u05d9\u05e0\u05ea \u05d1\u05df \u05e6\u05d1\u05d9 1", "network": "Tel-O-Fun", "payment:credit_cards": "yes", "ref": "420"}}, {"type": "node", "id": 1232914388, "lat": 32.0639453, "lon": 34.7618594, "tags": {"amenity": "bicycle_rental"}}, {"type": "node", "id": 1312216055, "lat": 32.0721622, "lon": 34.7793627}, {"type": "node", "id": 1312216103, "lat": 32.0718012, "lon": 34.7798462}, {"type": "node", "id": 1312216118, "lat": 32.072046, "lon": 34.7795483}, {"type": "node", "id": 1312216169, "lat": 32.0724748, "lon": 34.7797969, "tags": {"access": "yes", "alt_name": "\u05d7\u05e0\u05d9\u05d5\u05df \u05d4\u05d1\u05d9\u05de\u05d4;\u05d7\u05e0\u05d9\u05d5\u05df \u05d0\u05d7\u05d5\u05d6\u05ea \u05d4\u05d7\u05d5\u05e3", "amenity": "parking", "capacity": "997", "fee": "yes", "layer": "-1", "name": "\u05d7\u05e0\u05d9\u05d5\u05df \u05d4\u05ea\u05e8\u05d1\u05d5\u05ea", "name:en": "HaTarbut Parking", "name:he": "\u05d7\u05e0\u05d9\u05d5\u05df \u05d4\u05ea\u05e8\u05d1\u05d5\u05ea", "opening_hours": "24/7", "operator": "\u05d0\u05d7\u05d5\u05d6\u05ea \u05d4\u05d7\u05d5\u05e3", "parking": "underground", "supervised": "yes", "wheelchair": "yes"}}, {"type": "node", "id": 1312216182, "lat": 32.0724014, "lon": 34.7786683, "tags": {"crossing": "traffic_signals", "highway": "crossing"}}, {"type": "node", "id": 1312216190, "lat": 32.0717779, "lon": 34.7798952}, {"type": "node", "id": 1312216201, "lat": 32.0722353, "lon": 34.7791154}, {"type": "node", "id": 1312216205, "lat": 32.0724761, "lon": 34.7792134}, {"type": "node", "id": 1345595132, "lat": 32.0891139, "lon": 34.7738163, "tags": {"amenity": "bicycle_rental", "bicycle_rental": "docking_station"}}, {"type": "node", "id": 1345595133, "lat": 32.0731796, "lon": 34.7683118, "tags": {"amenity": "bicycle_rental", "capacity": "19", "name": "\u05d1\u05df \u05d9\u05d4\u05d5\u05d3\u05d4 1", "name:he": "\u05d1\u05df \u05d9\u05d4\u05d5\u05d3\u05d4 1"}}, {"type": "node", "id": 1365841444, "lat": 32.0694852, "lon": 34.7706999, "tags": {"amenity": "bicycle_rental", "bicycle_rental": "docking_station", "capacity": "20", "name": "\u05d0\u05dc\u05e0\u05d1\u05d9 53 \u05e9\u05d5\u05e7 \u05d4\u05db\u05e8\u05de\u05dc", "name:he": "\u05d0\u05dc\u05e0\u05d1\u05d9 53 \u05e9\u05d5\u05e7 \u05d4\u05db\u05e8\u05de\u05dc", "payment:credit_cards": "yes", "ref": "361"}}, {"type": "node", "id": 1368037329, "lat": 32.0796466, "lon": 34.7883765, "tags": {"addr:city": "\u05ea\u05dc \u05d0\u05d1\u05d9\u05d1-\u05d9\u05e4\u05d5", "addr:housenumber": "40", "addr:street": "\u05e9\u05d3\u05e8\u05d5\u05ea \u05d3\u05d5\u05d3 \u05d4\u05de\u05dc\u05da", "amenity": "bicycle_rental", "bicycle_rental": "docking_station", "capacity": "20", "name": "\u05d3\u05d5\u05d3 \u05d4\u05de\u05dc\u05da \u05e4\u05d9\u05e0\u05ea \u05d5\u05d9\u05e6\u05de\u05df", "name:he": "\u05d3\u05d5\u05d3 \u05d4\u05de\u05dc\u05da \u05e4\u05d9\u05e0\u05ea \u05d5\u05d9\u05e6\u05de\u05df", "payment:credit_cards": "yes", "ref": "387"}}, {"type": "node", "id": 1420803788, "lat": 32.0759011, "lon": 34.785232, "tags": {"amenity": "bicycle_rental", "bicycle_rental": "docking_station", "capacity": "20", "name": "\u05e9\u05d0\u05d5\u05dc \u05d4\u05de\u05dc\u05da 21 \u05e7\u05d0\u05de\u05e8\u05d9", "name:en": "21 Sauol Hamelekh- Hakameri", "name:he": "\u05e9\u05d0\u05d5\u05dc \u05d4\u05de\u05dc\u05da 21 \u05e7\u05d0\u05de\u05e8\u05d9", "network": "Tel-O-Fun", "payment:credit_cards": "yes", "ref": "342"}}, {"type": "node", "id": 1420803789, "lat": 32.0809085, "lon": 34.7801802, "tags": {"amenity": "bicycle_rental", "bicycle_rental": "docking_station", "capacity": "28", "name": "\u05db\u05d9\u05db\u05e8 \u05e8\u05d1\u05d9\u05df", "name:en": "Rabin Square", "name:he": "\u05db\u05d9\u05db\u05e8 \u05e8\u05d1\u05d9\u05df", "payment:credit_cards": "yes", "ref": "331", "source": "http://www.tel-o-fun.co.il"}}, {"type": "node", "id": 1420803790, "lat": 32.0748636, "lon": 34.7818951, "tags": {"amenity": "bicycle_rental", "bicycle_rental": "docking_station", "capacity": "20", "name": "\u05d0\u05d1\u05df \u05d2\u05d1\u05d9\u05e8\u05d5\u05dc 28", "name:he": "\u05d0\u05d1\u05df \u05d2\u05d1\u05d9\u05e8\u05d5\u05dc 28", "payment:credit_cards": "yes", "ref": "346"}}, {"type": "node", "id": 1538692937, "lat": 32.1046191, "lon": 34.7888021, "tags": {"amenity": "bicycle_rental", "capacity": "20", "name": "\u05dc\u05d5\u05d9 \u05d0\u05e9\u05db\u05d5\u05dc 26", "name:en": "26 Levi Eshkol St. - Sde Dov Airport", "name:he": "\u05dc\u05d5\u05d9 \u05d0\u05e9\u05db\u05d5\u05dc 26", "network": "Tel-O-Fun", "payment:credit_cards": "yes", "ref": "114"}}, {"type": "node", "id": 1585379914, "lat": 32.0696154, "lon": 34.7937823, "tags": {"amenity": "bicycle_rental", "capacity": "20", "name": "\u05d9\u05d2\u05d0\u05dc \u05d0\u05dc\u05d5\u05df 96", "name:en": "96 Yigal Allon St.", "name:he": "\u05d9\u05d2\u05d0\u05dc \u05d0\u05dc\u05d5\u05df 96", "network": "Tel-O-Fun", "payment:credit_cards": "yes", "ref": "503"}}, {"type": "node", "id": 1624930560, "lat": 32.0724808, "lon": 34.7791329}, {"type": "node", "id": 1624930562, "lat": 32.0725728, "lon": 34.778699}, {"type": "node", "id": 1624930569, "lat": 32.0730891, "lon": 34.7793168}, {"type": "node", "id": 1624930574, "lat": 32.0731821, "lon": 34.7788788}, {"type": "node", "id": 1672351151, "lat": 32.0704972, "lon": 34.778926, "tags": {"highway": "traffic_signals"}}, {"type": "node", "id": 1678949948, "lat": 32.0665663, "lon": 34.7821352, "tags": {"amenity": "bicycle_rental", "bicycle_rental": "docking_station", "capacity": "20", "name": "\u05d1\u05d9\u05ea \u05e8\u05d5\u05d1\u05d9\u05e0\u05e9\u05d8\u05d9\u05d9\u05df-\u05e6. \u05de\u05e2\u05e8\u05d9\u05d1", "name:en": "Begin/ Lincoln -Biet Rubinshtein", "name:he": "\u05d1\u05d9\u05ea \u05e8\u05d5\u05d1\u05d9\u05e0\u05e9\u05d8\u05d9\u05d9\u05df-\u05e6. \u05de\u05e2\u05e8\u05d9\u05d1", "network": "Tel-O-Fun", "payment:credit_cards": "yes", "ref": "363"}}, {"type": "node", "id": 1678949949, "lat": 32.0706581, "lon": 34.7827676, "tags": {"amenity": "bicycle_rental", "bicycle_rental": "docking_station", "capacity": "19", "compressed_air": "yes", "name": "\u05e9\u05e4\u05e8\u05d9\u05e0\u05e6\u05e7 1 - \u05e1\u05d9\u05e0\u05d9\u05de\u05d8\u05e7", "name:he": "\u05e9\u05e4\u05e8\u05d9\u05e0\u05e6\u05e7 1 - \u05e1\u05d9\u05e0\u05d9\u05de\u05d8\u05e7", "network": "Tel-O-Fun", "payment:credit_cards": "yes", "ref": "358", "source": "tel-o-fun.co.il", "toilets:wheelchair": "yes", "wheelchair": "yes"}}, {"type": "node", "id": 1707635659, "lat": 32.0728383, "lon": 34.7924545, "tags": {"amenity": "bicycle_rental", "bicycle_rental": "docking_station", "capacity": "24", "compressed_air": "yes", "name": "\u05e2\u05d6\u05e8\u05d9\u05d0\u05dc\u05d9-\u05d1\u05d9\u05e8\u05d9\u05d3\u05d4 \u05dc\u05d0\u05d9\u05d9\u05dc\u05d5\u05df \u05d3\u05e8\u05d5\u05dd", "name:en": "Opp. Azrieli Center - Ayalon South", "name:he": "\u05e2\u05d6\u05e8\u05d9\u05d0\u05dc\u05d9-\u05d1\u05d9\u05e8\u05d9\u05d3\u05d4 \u05dc\u05d0\u05d9\u05d9\u05dc\u05d5\u05df \u05d3\u05e8\u05d5\u05dd", "network": "Tel-O-Fun", "payment:credit_cards": "yes", "ref": "525"}}, {"type": "node", "id": 1707635660, "lat": 32.0732105, "lon": 34.7859368, "tags": {"amenity": "bicycle_rental", "bicycle_rental": "docking_station", "capacity": "28", "name": "\u05e7\u05e4\u05dc\u05df \u05e4\u05d9\u05e0\u05ea \u05d0\u05e8\u05e0\u05d9\u05d4", "name:en": "Kaplan St./ Aaranha St.", "name:he": "\u05e7\u05e4\u05dc\u05df \u05e4\u05d9\u05e0\u05ea \u05d0\u05e8\u05e0\u05d9\u05d4", "network": "Tel-O-Fun", "payment:credit_cards": "yes", "ref": "359"}}, {"type": "node", "id": 1718502840, "lat": 32.0374433, "lon": 34.7511173, "tags": {"addr:city": "\u05ea\u05dc \u05d0\u05d1\u05d9\u05d1-\u05d9\u05e4\u05d5", "addr:street": "\u05e9\u05d3\u05e8\u05d5\u05ea \u05d4\u05d1\u05e2\u05e9\"\u05d8", "amenity": "bicycle_rental", "capacity": "19", "name": "\u05e9\u05d3 \u05d4\u05d1\u05e2\u05dc \u05e9\u05dd \u05d8\u05d5\u05d1 \u05e0\u05d5\u05d4 \u05d0\u05d9\u05dc\u05df", "name:en": "HaBesht Ave. \u2013 Neve Golan", "name:he": "\u05e9\u05d3 \u05d4\u05d1\u05e2\u05dc \u05e9\u05dd \u05d8\u05d5\u05d1 \u05e0\u05d5\u05d4 \u05d0\u05d9\u05dc\u05df", "network": "Tel-O-Fun", "payment:credit_cards": "yes", "ref": "414"}}, {"type": "node", "id": 1718633205, "lat": 32.0536718, "lon": 34.7503057, "tags": {"amenity": "bicycle_rental", "capacity": "20", "name": "\u05ea\u05dc \u05d0\u05d5\u05e4\u05df - \u05e0\u05de\u05dc \u05d9\u05e4\u05d5 \u05de\u05d1\u05e0\u05d4 \u05d4\u05de\u05d2\u05d3\u05dc\u05d5\u05e8", "name:en": "Nemal Yaffo - Ha-migdalor (jaffa Port)", "name:he": "\u05ea\u05dc \u05d0\u05d5\u05e4\u05df - \u05e0\u05de\u05dc \u05d9\u05e4\u05d5 \u05de\u05d1\u05e0\u05d4 \u05d4\u05de\u05d2\u05d3\u05dc\u05d5\u05e8", "network": "Tel-O-Fun", "payment:credit_cards": "yes", "ref": "409"}}, {"type": "node", "id": 1773354948, "lat": 32.0884682, "lon": 34.7970019, "tags": {"addr:housenumber": "8", "addr:street": "\u05e0\u05d9\u05e1\u05d9\u05dd \u05d0\u05dc\u05d5\u05e0\u05d9", "amenity": "bicycle_rental", "capacity": "20", "name": "\u05d0\u05dc\u05d5\u05e0\u05d9 \u05e0\u05d9\u05e1\u05d9\u05dd 8", "name:en": "8 Nisim Aloni St.", "name:he": "\u05d0\u05dc\u05d5\u05e0\u05d9 \u05e0\u05d9\u05e1\u05d9\u05dd 8", "network": "Tel-O-Fun", "payment:credit_cards": "yes", "ref": "306"}}, {"type": "node", "id": 1803015032, "lat": 32.07188, "lon": 34.779715, "tags": {"bench": "yes", "bin": "yes", "bus": "yes", "gtfs:stop_code:IL-MOT": "25621", "gtfs:stop_id:IL-MOT": "13591", "gtfs:stop_name:IL-MOT": "\u05d4\u05d1\u05d9\u05de\u05d4/\u05e9\u05d3' \u05d1\u05df \u05e6\u05d9\u05d5\u05df", "highway": "bus_stop", "lit": "yes", "name": "\u05d4\u05d1\u05d9\u05de\u05d4/\u05e9\u05d3\u05f3 \u05d1\u05df \u05e6\u05d9\u05d5\u05df", "name:ar": "\u0647\u0628\u064a\u0645\u0627/\u062c\u0627\u062f\u0629 \u0628\u0646-\u062a\u0633\u064a\u0648\u0646", "name:en": "Habima/Ben Zion Blvd", "name:he": "\u05d4\u05d1\u05d9\u05de\u05d4/\u05e9\u05d3\u05f3 \u05d1\u05df \u05e6\u05d9\u05d5\u05df", "object:city": "\u05ea\u05dc \u05d0\u05d1\u05d9\u05d1 \u05d9\u05e4\u05d5", "object:street": "\u05de\u05e8\u05de\u05d5\u05e8\u05e7", "public_transport": "platform", "ref": "25621", "route_ref": "3;39;63;238;425;445", "shelter": "yes"}}, {"type": "node", "id": 1823251365, "lat": 32.0701232, "lon": 34.7898935, "tags": {"amenity": "bicycle_rental", "bicycle_rental": "docking_station", "capacity": "20", "name": "\u05e9\u05d3 \u05d9\u05d4\u05d5\u05d3\u05d9\u05ea 11 \u05e4\u05d9\u05e0\u05ea \u05d4\u05e0\u05e6\u05d9\u05d1", "name:en": "11 Yehudit Av./Ha-Nanatsiv St.", "name:he": "\u05e9\u05d3 \u05d9\u05d4\u05d5\u05d3\u05d9\u05ea 11 \u05e4\u05d9\u05e0\u05ea \u05d4\u05e0\u05e6\u05d9\u05d1", "network": "Tel-O-Fun", "payment:credit_cards": "yes", "ref": "360"}}, {"type": "node", "id": 1933709242, "lat": 32.0417246, "lon": 34.7732938, "tags": {"amenity": "bicycle_rental", "name": "\u05e9\u05d3\u05e8\u05d5\u05ea \u05d1\u05df \u05e6\u05d1\u05d9 91", "name:en": "91 Ben-Zvi Avenue", "name:he": "\u05e9\u05d3\u05e8\u05d5\u05ea \u05d1\u05df \u05e6\u05d1\u05d9 91", "ref": "415"}}, {"type": "node", "id": 1952893958, "lat": 32.0546193, "lon": 34.752128, "tags": {"addr:city": "\u05ea\u05dc \u05d0\u05d1\u05d9\u05d1-\u05d9\u05e4\u05d5", "addr:street": "\u05db\u05d9\u05db\u05e8 \u05e7\u05d3\u05d5\u05de\u05d9\u05dd", "amenity": "bicycle_rental", "capacity": "20", "name": "\u05db\u05d9\u05db\u05e8 \u05e7\u05d3\u05d5\u05de\u05d9\u05dd -\u05d9\u05e4\u05d5 \u05d4\u05e2\u05ea\u05d9\u05e7\u05d4", "name:en": "Kedumim Square \u2013 Old jaffa", "name:he": "\u05db\u05d9\u05db\u05e8 \u05e7\u05d3\u05d5\u05de\u05d9\u05dd -\u05d9\u05e4\u05d5 \u05d4\u05e2\u05ea\u05d9\u05e7\u05d4", "network": "Tel-O-Fun", "payment:credit_cards": "yes", "ref": "405"}}, {"type": "node", "id": 1990220064, "lat": 32.0866191, "lon": 34.7693702, "tags": {"amenity": "bicycle_rental", "description": "\u05d8\u05d9\u05d9\u05dc\u05ea \u05e6\u05de\u05d5\u05d3 \u05dc\u05de\u05e8\u05e4\u05e1\u05ea \u05e6\u05e4\u05d5\u05e0\u05d9\u05ea \u05de\u05dc\u05d5\u05df \u05e7\u05e8\u05dc\u05d8\u05d5\u05df", "name": "\u05de\u05dc\u05d5\u05df \u05e7\u05e8\u05dc\u05d8\u05d5\u05df \u05d1\u05d8\u05d9\u05d9\u05dc\u05ea", "name:he": "\u05de\u05dc\u05d5\u05df \u05e7\u05e8\u05dc\u05d8\u05d5\u05df \u05d1\u05d8\u05d9\u05d9\u05dc\u05ea", "ref": "329"}}, {"type": "node", "id": 1995998471, "lat": 32.0659271, "lon": 34.7773508}, {"type": "node", "id": 1995998478, "lat": 32.0659569, "lon": 34.7772857}, {"type": "node", "id": 1995998484, "lat": 32.0666536, "lon": 34.7775017, "tags": {"crossing": "traffic_signals", "highway": "crossing"}}, {"type": "node", "id": 1995998490, "lat": 32.0681817, "lon": 34.778005, "tags": {"button_operated": "yes", "crossing": "traffic_signals", "highway": "crossing", "traffic_signals:sound": "yes", "traffic_signals:vibration": "yes"}}, {"type": "node", "id": 1995998498, "lat": 32.0696173, "lon": 34.7784657, "tags": {"crossing": "uncontrolled", "crossing:island": "no", "highway": "crossing"}}, {"type": "node", "id": 1995998503, "lat": 32.0705344, "lon": 34.7787446, "tags": {"button_operated": "no", "crossing": "traffic_signals", "highway": "crossing", "traffic_signals:sound": "no"}}, {"type": "node", "id": 1995998514, "lat": 32.0718627, "lon": 34.7795003}, {"type": "node", "id": 1995998518, "lat": 32.0719221, "lon": 34.7794403}, {"type": "node", "id": 1995998522, "lat": 32.0719324, "lon": 34.7794046, "tags": {"crossing": "traffic_signals", "foot": "designated", "highway": "crossing"}}, {"type": "node", "id": 1995998526, "lat": 32.0719821, "lon": 34.7794875, "tags": {"crossing": "traffic_signals", "foot": "designated", "highway": "crossing"}}, {"type": "node", "id": 1995998532, "lat": 32.0719962, "lon": 34.7792126}, {"type": "node", "id": 1995998535, "lat": 32.072086, "lon": 34.7791937, "tags": {"crossing": "traffic_signals", "highway": "crossing"}}, {"type": "node", "id": 1996197302, "lat": 32.0724005, "lon": 34.7739963, "tags": {"amenity": "bicycle_rental", "bicycle_rental": "docking_station", "capacity": "20"}}, {"type": "node", "id": 1996197305, "lat": 32.0740381, "lon": 34.7756635, "tags": {"addr:city": "\u05ea\u05dc \u05d0\u05d1\u05d9\u05d1-\u05d9\u05e4\u05d5", "addr:housenumber": "1", "addr:street": "\u05e9\u05d3\u05e8\u05d5\u05ea \u05d1\u05df \u05e6\u05d9\u05d5\u05df", "amenity": "bicycle_rental", "capacity": "20", "name": "\u05e9\u05d3\u05e8\u05d5\u05ea \u05d1\u05df \u05e6\u05d9\u05d5\u05df 1", "name:en": "1 Shderot Ben Tsiyon St.", "name:he": "\u05e9\u05d3\u05e8\u05d5\u05ea \u05d1\u05df \u05e6\u05d9\u05d5\u05df 1", "network": "Tel-O-Fun", "payment:credit_cards": "yes", "ref": "348"}}, {"type": "node", "id": 2108063238, "lat": 32.0561192, "lon": 34.7696005, "tags": {"amenity": "bicycle_rental", "bicycle_rental": "docking_station", "capacity": "28", "name": "\u05e4\u05dc\u05d5\u05e8\u05e0\u05d8\u05d9\u05df \u05e9\u05d3 \u05d5\u05d5\u05e9\u05d9\u05e0\u05d2\u05d8\u05d5\u05df", "name:he": "\u05e4\u05dc\u05d5\u05e8\u05e0\u05d8\u05d9\u05df \u05e9\u05d3 \u05d5\u05d5\u05e9\u05d9\u05e0\u05d2\u05d8\u05d5\u05df", "network": "Tel-O-Fun", "payment:credit_cards": "yes", "ref": "416"}}, {"type": "node", "id": 2131481339, "lat": 32.052936, "lon": 34.8103998, "tags": {"amenity": "bicycle_rental"}}, {"type": "node", "id": 2142624991, "lat": 32.0724617, "lon": 34.7791322}, {"type": "node", "id": 2142625072, "lat": 32.0722488, "lon": 34.7794874}, {"type": "node", "id": 2142625073, "lat": 32.0726659, "lon": 34.7796076}, {"type": "node", "id": 2142625074, "lat": 32.0722148, "lon": 34.7796502}, {"type": "node", "id": 2142625075, "lat": 32.0726328, "lon": 34.7797693}, {"type": "node", "id": 2142642602, "lat": 32.0717361, "lon": 34.7794644, "tags": {"amenity": "cafe", "cuisine": "coffee_shop", "name": "\u05e7\u05e4\u05d4 \u05d0\u05e1\u05e7\u05d5\u05d8", "name:he": "\u05e7\u05e4\u05d4 \u05d0\u05e1\u05e7\u05d5\u05d8"}}, {"type": "node", "id": 2144017077, "lat": 32.0723234, "lon": 34.77848, "tags": {"highway": "traffic_signals", "traffic_signals": "signal"}}, {"type": "node", "id": 2144017079, "lat": 32.0724467, "lon": 34.7785708, "tags": {"highway": "traffic_signals", "traffic_signals": "signal"}}, {"type": "node", "id": 2264948129, "lat": 32.041956, "lon": 34.747242, "tags": {"amenity": "bicycle_rental", "capacity": "20", "name": "\u05de\u05e0\u05d3\u05e1 \u05e4\u05e8\u05e0\u05e1 - \u05d2\u05d9\u05e0\u05ea \u05d8\u05d5\u05dc\u05d5\u05d6", "name:en": "Mendes Parnas St. \u2013 Toulouse Gardens", "name:he": "\u05de\u05e0\u05d3\u05e1 \u05e4\u05e8\u05e0\u05e1 - \u05d2\u05d9\u05e0\u05ea \u05d8\u05d5\u05dc\u05d5\u05d6", "network": "Tel-O-Fun", "payment:credit_cards": "yes", "ref": "422"}}, {"type": "node", "id": 2266143394, "lat": 32.0475421, "lon": 34.7595891, "tags": {"addr:city": "\u05ea\u05dc \u05d0\u05d1\u05d9\u05d1-\u05d9\u05e4\u05d5", "addr:street": "\u05e2\u05d6\u05d4", "amenity": "bicycle_rental", "capacity": "20", "compressed_air": "yes", "name": "\u05de\u05db\u05dc\u05dc\u05ea \u05ea\u05d0 \u05e2\u05d6\u05d4 \u05de\u05d5\u05dc 34", "name:en": "Opp. 34 Azza St. \u2013 Tlv College", "name:he": "\u05de\u05db\u05dc\u05dc\u05ea \u05ea\u05d0 \u05e2\u05d6\u05d4 \u05de\u05d5\u05dc 34", "network": "Tel-O-Fun", "payment:credit_cards": "yes", "ref": "407"}}, {"type": "node", "id": 2322592328, "lat": 32.0652397, "lon": 34.7765549, "tags": {"amenity": "bicycle_rental", "bicycle_rental": "docking_station", "brand": "Tel-O-Fun", "brand:wikidata": "Q2915180", "capacity": "20", "fee": "yes", "name": "\u05e8\u05d5\u05d8\u05e9\u05d9\u05dc\u05d3 65", "name:en": "65 Rothschild Av./ Nachmami St.", "name:he": "\u05e8\u05d5\u05d8\u05e9\u05d9\u05dc\u05d3 65", "network": "Tel-O-Fun", "network:wikidata": "Q2915180", "operator": "FSM", "payment:credit_cards": "yes", "ref": "370"}}, {"type": "node", "id": 2322592329, "lat": 32.0716773, "lon": 34.7792171, "tags": {"amenity": "bicycle_rental", "bicycle_rental": "docking_station", "capacity": "28", "name": "\u05e8\u05d5\u05d8\u05e9\u05d9\u05dc\u05d3 140", "name:en": "140 Rothshild Av. - Habima", "name:he": "\u05e8\u05d5\u05d8\u05e9\u05d9\u05dc\u05d3 140", "network": "Tel-O-Fun", "payment:credit_cards": "yes", "ref": "357"}}, {"type": "node", "id": 2322592330, "lat": 32.0634816, "lon": 34.773166, "tags": {"addr:city": "\u05ea\u05dc \u05d0\u05d1\u05d9\u05d1-\u05d9\u05e4\u05d5", "addr:housenumber": "36", "addr:street": "\u05e9\u05d3\u05e8\u05d5\u05ea \u05e8\u05d5\u05d8\u05e9\u05d9\u05dc\u05d3", "amenity": "bicycle_rental", "bicycle_rental": "docking_station", "capacity": "20", "compressed_air": "yes", "name": "\u05e8\u05d5\u05d8\u05e9\u05d9\u05dc\u05d3 \u05e4\u05d9\u05e0\u05ea \u05d0\u05dc\u05e0\u05d1\u05d9", "name:en": "Rothshild St. / Allenby St", "name:he": "\u05e8\u05d5\u05d8\u05e9\u05d9\u05dc\u05d3 \u05e4\u05d9\u05e0\u05ea \u05d0\u05dc\u05e0\u05d1\u05d9", "network": "Tel-O-Fun", "payment:credit_cards": "yes", "ref": "395"}}, {"type": "node", "id": 2322592331, "lat": 32.0684862, "lon": 34.7781952, "tags": {"amenity": "bicycle_rental", "bicycle_rental": "docking_station", "capacity": "22", "fee": "yes"}}, {"type": "node", "id": 2384763531, "lat": 32.0692858, "lon": 34.7830285, "tags": {"addr:city": "\u05ea\u05dc \u05d0\u05d1\u05d9\u05d1-\u05d9\u05e4\u05d5", "amenity": "bicycle_rental", "bicycle_rental": "docking_station", "capacity": "20", "name": "\u05d4\u05d7\u05e9\u05de\u05d5\u05e0\u05d0\u05d9\u05dd \u05e4\u05d9\u05e0\u05ea \u05e7\u05e8\u05dc\u05d9\u05d1\u05da", "name:en": "Hashmonaim St/ Karlibach St", "name:he": "\u05d4\u05d7\u05e9\u05de\u05d5\u05e0\u05d0\u05d9\u05dd \u05e4\u05d9\u05e0\u05ea \u05e7\u05e8\u05dc\u05d9\u05d1\u05da", "network": "Tel-O-Fun", "payment:credit_cards": "yes", "ref": "394"}}, {"type": "node", "id": 2384763534, "lat": 32.0721011, "lon": 34.7790998, "tags": {"crossing": "traffic_signals", "highway": "crossing"}}, {"type": "node", "id": 2384763536, "lat": 32.0721349, "lon": 34.7790724}, {"type": "node", "id": 2384763537, "lat": 32.0721754, "lon": 34.7789712}, {"type": "node", "id": 2395471108, "lat": 32.049507, "lon": 34.8120746, "tags": {"amenity": "bicycle_rental"}}, {"type": "node", "id": 2473987505, "lat": 32.0716997, "lon": 34.779862}, {"type": "node", "id": 2529555429, "lat": 32.0729611, "lon": 34.7796908}, {"type": "node", "id": 2529555430, "lat": 32.072929, "lon": 34.7798527}, {"type": "node", "id": 2529555431, "lat": 32.0727728, "lon": 34.7798095}, {"type": "node", "id": 2529555432, "lat": 32.0728049, "lon": 34.7796476}, {"type": "node", "id": 2546316044, "lat": 32.0645221, "lon": 34.7759884}, {"type": "node", "id": 2611449932, "lat": 32.1139871, "lon": 34.7911303, "tags": {"amenity": "bicycle_rental"}}, {"type": "node", "id": 2666736281, "lat": 32.0659853, "lon": 34.7989783, "tags": {"amenity": "bicycle_rental", "bicycle_rental": "docking_station", "capacity": "20", "name": "\u05de\u05e9\u05d4 \u05d3\u05d9\u05d9\u05df 116", "name:he": "\u05de\u05e9\u05d4 \u05d3\u05d9\u05d9\u05df 116", "ref": "531"}}, {"type": "node", "id": 2666736286, "lat": 32.0743451, "lon": 34.7999454, "tags": {"amenity": "bicycle_rental", "capacity": "20", "name": "\u05d9\u05dc\u05e7\u05d5\u05d8 \u05d4\u05e8\u05d5\u05e2\u05d9\u05dd 2 - \u05e0\u05d7\u05dc\u05ea \u05d9\u05e6\u05d7\u05e7", "name:he": "\u05d9\u05dc\u05e7\u05d5\u05d8 \u05d4\u05e8\u05d5\u05e2\u05d9\u05dd 2 - \u05e0\u05d7\u05dc\u05ea \u05d9\u05e6\u05d7\u05e7", "ref": "519"}}, {"type": "node", "id": 2666736290, "lat": 32.0665561, "lon": 34.7960549, "tags": {"amenity": "bicycle_rental", "capacity": "20", "name": "\u05e9\u05d3\u05e8\u05d5\u05ea \u05d4\u05d4\u05e9\u05db\u05dc\u05d4 11", "name:he": "\u05e9\u05d3\u05e8\u05d5\u05ea \u05d4\u05d4\u05e9\u05db\u05dc\u05d4 11", "ref": "501"}}, {"type": "node", "id": 2666736295, "lat": 32.0713211, "lon": 34.7974545, "tags": {"amenity": "bicycle_rental", "bicycle_rental": "docking_station", "capacity": "20", "name": "\u05d4\u05e9\u05dc\u05d5\u05dd 16", "name:he": "\u05d4\u05e9\u05dc\u05d5\u05dd 16", "ref": "536"}}, {"type": "node", "id": 2666736297, "lat": 32.0645967, "lon": 34.7988791, "tags": {"amenity": "bicycle_rental", "bicycle_rental": "docking_station", "capacity": "20", "name": "\u05de\u05e9\u05d4 \u05d3\u05d9\u05d9\u05df \u05e4\u05d9\u05e0\u05ea \u05d9\u05e6\u05d7\u05e7 \u05e9\u05d3\u05d4", "name:he": "\u05de\u05e9\u05d4 \u05d3\u05d9\u05d9\u05df \u05e4\u05d9\u05e0\u05ea \u05d9\u05e6\u05d7\u05e7 \u05e9\u05d3\u05d4", "ref": "508"}}, {"type": "node", "id": 2669725301, "lat": 32.0434253, "lon": 34.8046477, "tags": {"amenity": "bicycle_rental", "capacity": "20", "fee": "yes", "name": "\u05e4\u05d0\u05e8\u05e7 \u05d3\u05e8\u05d5\u05dd \u05d1\u05db\u05e0\u05d9\u05e1\u05d4", "name:en": "Park Darom \u2013 Entrance (Biranit St.)", "name:he": "\u05e4\u05d0\u05e8\u05e7 \u05d3\u05e8\u05d5\u05dd \u05d1\u05db\u05e0\u05d9\u05e1\u05d4", "network": "Tel-O-Fun", "operator": "FSM", "payment:credit_cards": "yes", "ref": "520"}}, {"type": "node", "id": 2676543498, "lat": 32.0653746, "lon": 34.7858911, "tags": {"amenity": "bicycle_rental", "capacity": "20", "name": "\u05d9\u05e6\u05d7\u05e7 \u05e9\u05d3\u05d4 17 - \u05d1\u05d9\u05d8\u05d5\u05d7 \u05dc\u05d0\u05d5\u05de\u05d9", "name:he": "\u05d9\u05e6\u05d7\u05e7 \u05e9\u05d3\u05d4 17 - \u05d1\u05d9\u05d8\u05d5\u05d7 \u05dc\u05d0\u05d5\u05de\u05d9", "network": "Tel-O-Fun", "payment:credit_cards": "yes", "ref": "365"}}, {"type": "node", "id": 2676662946, "lat": 32.0673645, "lon": 34.7797785, "tags": {"amenity": "bicycle_rental", "bicycle_rental": "docking_station", "capacity": "20", "name": "\u05d9\u05d4\u05d5\u05d3\u05d4 \u05d4\u05dc\u05d5\u05d9 74", "name:he": "\u05d9\u05d4\u05d5\u05d3\u05d4 \u05d4\u05dc\u05d5\u05d9 74", "ref": "376"}}, {"type": "node", "id": 2676674710, "lat": 32.0646014, "lon": 34.791809, "tags": {"amenity": "bicycle_rental", "bicycle_rental": "docking_station", "capacity": "20", "designation": "530", "name": "\u05d4\u05e1\u05d9\u05e0\u05e8\u05de\u05d4", "name:he": "\u05d4\u05e1\u05d9\u05e0\u05e8\u05de\u05d4", "ref": "530", "wikidata": "Q12406821"}}, {"type": "node", "id": 2676674711, "lat": 32.0620465, "lon": 34.7904545, "tags": {"amenity": "bicycle_rental", "capacity": "20", "designation": "507", "name": "\u05d4\u05d9\u05db\u05dc \u05e0\u05d5\u05e7\u05d9\u05d4 \u05d4\u05e9\u05dc\u05d5\u05e9\u05d4 9", "name:he": "\u05d4\u05d9\u05db\u05dc \u05e0\u05d5\u05e7\u05d9\u05d4 \u05d4\u05e9\u05dc\u05d5\u05e9\u05d4 9", "ref": "507"}}, {"type": "node", "id": 2676709410, "lat": 32.0591548, "lon": 34.7898519, "tags": {"amenity": "bicycle_rental", "capacity": "20", "designation": "526", "name": "\u05dc\u05d4 \u05d2\u05d5\u05d5\u05d0\u05e8\u05d3\u05d9\u05d4 24", "name:he": "\u05dc\u05d4 \u05d2\u05d5\u05d5\u05d0\u05e8\u05d3\u05d9\u05d4 24", "ref": "526"}}, {"type": "node", "id": 2676728444, "lat": 32.0543016, "lon": 34.7849715, "tags": {"amenity": "bicycle_rental", "capacity": "28", "name": "\u05ea\u05d7\u05e0\u05ea \u05e8\u05db\u05d1\u05ea \u05d4\u05d4\u05d2\u05e0\u05d4", "name:he": "\u05ea\u05d7\u05e0\u05ea \u05e8\u05db\u05d1\u05ea \u05d4\u05d4\u05d2\u05e0\u05d4", "ref": "522"}}, {"type": "node", "id": 2676728448, "lat": 32.0542777, "lon": 34.7865151, "tags": {"amenity": "bicycle_rental", "capacity": "18", "designation": "511", "name": "\u05d4\u05d4\u05d2\u05e0\u05d4 31 - \u05ea\u05d7\u05e0\u05ea \u05e8\u05db\u05d1\u05ea \u05d4\u05d4\u05d2\u05e0\u05d4", "name:he": "\u05d4\u05d4\u05d2\u05e0\u05d4 31 - \u05ea\u05d7\u05e0\u05ea \u05e8\u05db\u05d1\u05ea \u05d4\u05d4\u05d2\u05e0\u05d4", "ref": "511"}}, {"type": "node", "id": 2676738736, "lat": 32.0590387, "lon": 34.7972983, "tags": {"amenity": "bicycle_rental", "capacity": "20", "designation": "533", "name": "\u05dc\u05d4 \u05d2\u05e8\u05d3\u05d9\u05d4 60", "name:he": "\u05dc\u05d4 \u05d2\u05e8\u05d3\u05d9\u05d4 60", "ref": "533"}}, {"type": "node", "id": 2676747630, "lat": 32.0580519, "lon": 34.8006301, "tags": {"addr:city": "\u05ea\u05dc \u05d0\u05d1\u05d9\u05d1-\u05d9\u05e4\u05d5", "addr:street": "\u05de\u05e9\u05d4 \u05d3\u05d9\u05d9\u05df", "amenity": "bicycle_rental", "capacity": "20", "compressed_air": "yes", "designation": "504", "name": "\u05de\u05e9\u05d4 \u05d3\u05d9\u05d9\u05df \u05e4\u05d9\u05e0\u05ea \u05dc\u05d4 \u05d2\u05e8\u05d3\u05d9\u05d4", "name:en": "Moshe Dayan St./ La Guardia St.", "name:he": "\u05de\u05e9\u05d4 \u05d3\u05d9\u05d9\u05df \u05e4\u05d9\u05e0\u05ea \u05dc\u05d4 \u05d2\u05e8\u05d3\u05d9\u05d4", "network": "Tel-O-Fun", "payment:credit_cards": "yes", "ref": "504"}}, {"type": "node", "id": 2676747631, "lat": 32.0527146, "lon": 34.7998354, "tags": {"amenity": "bicycle_rental", "bicycle_rental": "docking_station", "capacity": "20", "designation": "513", "name": "\u05de\u05e9\u05d4 \u05d3\u05d9\u05d9\u05df 45", "name:he": "\u05de\u05e9\u05d4 \u05d3\u05d9\u05d9\u05df 45", "ref": "513"}}, {"type": "node", "id": 2676747632, "lat": 32.0567743, "lon": 34.7917515, "tags": {"amenity": "bicycle_rental", "bicycle_rental": "docking_station", "capacity": "20", "designation": "512", "name": "\u05d9\u05d2\u05d0\u05dc \u05d0\u05dc\u05d5\u05df 33 \u05e4\u05d9\u05e0\u05ea \u05e9\u05d3\u05e8\u05d5\u05ea \u05d4\u05d7\u05d9\"\u05dc", "name:he": "\u05d9\u05d2\u05d0\u05dc \u05d0\u05dc\u05d5\u05df 33 \u05e4\u05d9\u05e0\u05ea \u05e9\u05d3\u05e8\u05d5\u05ea \u05d4\u05d7\u05d9\"\u05dc", "ref": "512"}}, {"type": "node", "id": 2696091146, "lat": 32.042614, "lon": 34.78046, "tags": {"amenity": "bicycle_rental", "capacity": "20"}}, {"type": "node", "id": 2821371254, "lat": 32.0709583, "lon": 34.7638936, "tags": {"amenity": "bicycle_rental", "ref": "355"}}, {"type": "node", "id": 2821371256, "lat": 32.0553697, "lon": 34.7600702, "tags": {"amenity": "bicycle_rental", "name": "\u05e4\u05d5\u05e8\u05d9\u05d4 2", "name:he": "\u05e4\u05d5\u05e8\u05d9\u05d4 2", "ref": "434"}}, {"type": "node", "id": 2902720103, "lat": 32.1137844, "lon": 34.804737, "tags": {"amenity": "bicycle_rental", "bicycle_rental": "dropoff_point", "capacity": "20", "name": "\u05d4\u05d0\u05d5\u05e0\u05d9\u05d1\u05e8\u05e1\u05d9\u05d8\u05d4 - \u05e1\u05e4\u05e8\u05d9\u05d4", "name:en": "University - library", "name:he": "\u05d4\u05d0\u05d5\u05e0\u05d9\u05d1\u05e8\u05e1\u05d9\u05d8\u05d4 - \u05e1\u05e4\u05e8\u05d9\u05d4", "network": "Tel-O-Fun", "payment:credit_cards": "yes", "ref": "123"}}, {"type": "node", "id": 2904570796, "lat": 32.1107566, "lon": 34.8039991, "tags": {"amenity": "bicycle_rental", "capacity": "20", "name": "\u05d0\u05d5\u05e0\u05d9\u05d1\u05e8\u05e1\u05d9\u05d8\u05d4 \u05e9\u05e2\u05e8 4", "name:en": "University Gate 4", "name:he": "\u05d0\u05d5\u05e0\u05d9\u05d1\u05e8\u05e1\u05d9\u05d8\u05d4 \u05e9\u05e2\u05e8 4", "network": "Tel-O-Fun", "payment:credit_cards": "yes", "ref": "122"}}, {"type": "node", "id": 2904593464, "lat": 32.1069265, "lon": 34.8049217, "tags": {"amenity": "bicycle_rental", "capacity": "20", "name": "\u05db\u05d9\u05db\u05e8 \u05d2\u05d5\u05e8\u05d2 \u05d5\u05d5\u05d9\u05d6", "name:en": "George Wise Square", "name:he": "\u05db\u05d9\u05db\u05e8 \u05d2\u05d5\u05e8\u05d2 \u05d5\u05d5\u05d9\u05d6", "network": "Tel-O-Fun", "payment:credit_cards": "yes", "ref": "124"}}, {"type": "node", "id": 2931418475, "lat": 32.0721775, "lon": 34.7791625}, {"type": "node", "id": 2931418476, "lat": 32.0718602, "lon": 34.7794355}, {"type": "node", "id": 2931418480, "lat": 32.0720734, "lon": 34.7791612}, {"type": "node", "id": 2931418485, "lat": 32.0718651, "lon": 34.7794753}, {"type": "node", "id": 2931418491, "lat": 32.0719901, "lon": 34.7794087}, {"type": "node", "id": 2931418497, "lat": 32.0720954, "lon": 34.7792391}, {"type": "node", "id": 2931418499, "lat": 32.071849, "lon": 34.7795519}, {"type": "node", "id": 2931420301, "lat": 32.071956, "lon": 34.7794087}, {"type": "node", "id": 2946147140, "lat": 32.0319058, "lon": 34.7474845, "tags": {"addr:city": "\u05ea\u05dc \u05d0\u05d1\u05d9\u05d1-\u05d9\u05e4\u05d5", "addr:street": "\u05d0\u05d9\u05d9\u05d6\u05e7 \u05d7\u05e8\u05d9\u05e3", "amenity": "bicycle_rental", "capacity": "19", "name": "\u05d0\u05d9\u05d9\u05d6\u05d9\u05e7 \u05d7\u05e8\u05d9\u05e3 \u05de\u05d5\u05dc 36", "name:en": "Opp. 36 Isaac Harif St.", "name:he": "\u05d0\u05d9\u05d9\u05d6\u05d9\u05e7 \u05d7\u05e8\u05d9\u05e3 \u05de\u05d5\u05dc 36", "network": "Tel-O-Fun", "payment:credit_cards": "yes", "ref": "424"}}, {"type": "node", "id": 2946156632, "lat": 32.0338617, "lon": 34.7532273, "tags": {"addr:city": "\u05ea\u05dc \u05d0\u05d1\u05d9\u05d1-\u05d9\u05e4\u05d5", "addr:housenumber": "9", "addr:street": "\u05de\u05d7\u05e8\u05d5\u05d6\u05ea", "amenity": "bicycle_rental", "capacity": "20", "name": "\u05d4\u05de\u05d7\u05e8\u05d5\u05d6\u05ea 9", "name:en": "9 Machrozet St.", "name:he": "\u05d4\u05de\u05d7\u05e8\u05d5\u05d6\u05ea 9", "network": "Tel-O-Fun", "payment:credit_cards": "yes", "ref": "425"}}, {"type": "node", "id": 3258291989, "lat": 32.0642594, "lon": 34.775706, "tags": {"button_operated": "no", "crossing": "traffic_signals", "highway": "crossing", "traffic_signals:sound": "no", "traffic_signals:vibration": "no"}}, {"type": "node", "id": 3278391981, "lat": 32.0724324, "lon": 34.7790442}, {"type": "node", "id": 3278391984, "lat": 32.0731435, "lon": 34.7793968}, {"type": "node", "id": 3278391985, "lat": 32.0724051, "lon": 34.7789538}, {"type": "node", "id": 3418493696, "lat": 32.0469052, "lon": 34.8000301, "tags": {"amenity": "bicycle_rental", "capacity": "20", "name": "\u05d3\u05e8\u05da \u05d1\u05e8 \u05dc\u05d1 111", "name:he": "\u05d3\u05e8\u05da \u05d1\u05e8 \u05dc\u05d1 111", "ref": "518"}}, {"type": "node", "id": 3418493697, "lat": 32.0480025, "lon": 34.7935419, "tags": {"amenity": "bicycle_rental", "capacity": "18", "name": "\u05d0\u05e6\u05dc 93", "name:he": "\u05d0\u05e6\u05dc 93", "ref": "523"}}, {"type": "node", "id": 3418493698, "lat": 32.0503214, "lon": 34.7978446, "tags": {"amenity": "bicycle_rental", "capacity": "20", "name": "\u05e7\u05e8\u05d9\u05d9\u05ea\u05d9 \u05de\u05d5\u05dc 28", "name:he": "\u05e7\u05e8\u05d9\u05d9\u05ea\u05d9 \u05de\u05d5\u05dc 28", "ref": "510"}}, {"type": "node", "id": 3420287057, "lat": 32.0618622, "lon": 34.7729207, "tags": {"capacity": "20", "name": "\u05d9\u05d4\u05d5\u05d3\u05d4 \u05d4\u05dc\u05d5\u05d9 43 \u05e4\u05d9\u05e0\u05ea \u05d0\u05dc\u05e0\u05d1\u05d9", "name:he": "\u05d9\u05d4\u05d5\u05d3\u05d4 \u05d4\u05dc\u05d5\u05d9 43 \u05e4\u05d9\u05e0\u05ea \u05d0\u05dc\u05e0\u05d1\u05d9", "ref": "375", "service:bicycle:rental": "yes", "shop": "bicycle"}}, {"type": "node", "id": 3451158815, "lat": 32.0993113, "lon": 34.7771803, "tags": {"amenity": "bicycle_rental"}}, {"type": "node", "id": 3457337468, "lat": 32.0723178, "lon": 34.779353}, {"type": "node", "id": 3457337472, "lat": 32.0722406, "lon": 34.779217}, {"type": "node", "id": 3474702893, "lat": 32.0721477, "lon": 34.7801163, "tags": {"amenity": "parking_entrance", "level": "-1"}}, {"type": "node", "id": 3474702895, "lat": 32.0725983, "lon": 34.7802395, "tags": {"amenity": "parking_entrance", "level": "-1"}}, {"type": "node", "id": 3493130420, "lat": 32.1007545, "lon": 34.7758003, "tags": {"amenity": "bicycle_rental"}}, {"type": "node", "id": 3564373594, "lat": 32.0729445, "lon": 34.7898511, "tags": {"amenity": "bicycle_rental", "capacity": "20", "name": "\u05d1\u05d2\u05d9\u05df 125", "name:en": "Menachem Begin Road 125", "name:he": "\u05d1\u05d2\u05d9\u05df 125", "network": "Tel-O-Fun", "payment:credit_cards": "yes", "ref": "350"}}, {"type": "node", "id": 3593580064, "lat": 32.0595521, "lon": 34.7669697, "tags": {"amenity": "bicycle_rental", "capacity": "20", "name": "\u05de\u05d2\u05d3\u05dc \u05e6\u05d3\u05e7", "name:he": "\u05de\u05d2\u05d3\u05dc \u05e6\u05d3\u05e7", "ref": "350"}}, {"type": "node", "id": 3593580065, "lat": 32.0621603, "lon": 34.7647223, "tags": {"amenity": "bicycle_rental", "capacity": "18", "name": "\u05e9\u05d1\u05d6\u05d9 19 -\u05e0\u05d5\u05d5\u05d4 \u05e6\u05d3\u05e7", "name:he": "\u05e9\u05d1\u05d6\u05d9 19 -\u05e0\u05d5\u05d5\u05d4 \u05e6\u05d3\u05e7", "ref": "379"}}, {"type": "node", "id": 3593580067, "lat": 32.05971, "lon": 34.7616985, "tags": {"amenity": "bicycle_rental", "capacity": "20", "name": "\u05de\u05ea\u05d7\u05dd \u05d4\u05ea\u05d7\u05e0\u05d4", "name:he": "\u05de\u05ea\u05d7\u05dd \u05d4\u05ea\u05d7\u05e0\u05d4", "ref": "377"}}, {"type": "node", "id": 3594348651, "lat": 32.0796191, "lon": 34.7796391, "tags": {"amenity": "bicycle_rental", "bicycle_rental": "docking_station", "capacity": "20", "name": "\u05e4\u05e8\u05d9\u05e9\u05de\u05df 77", "name:he": "\u05e4\u05e8\u05d9\u05e9\u05de\u05df 77", "ref": "381"}}, {"type": "node", "id": 3594348672, "lat": 32.0778538, "lon": 34.7785719, "tags": {"amenity": "bicycle_rental", "capacity": "20", "name": "\u05e0\u05e6\u05d7 \u05d9\u05e9\u05e8\u05d0\u05dc 4 \u05e4\u05d9\u05e0\u05ea \u05de\u05e1\u05e8\u05d9\u05e7", "name:he": "\u05e0\u05e6\u05d7 \u05d9\u05e9\u05e8\u05d0\u05dc 4 \u05e4\u05d9\u05e0\u05ea \u05de\u05e1\u05e8\u05d9\u05e7", "payment:credit_cards": "yes", "ref": "344"}}, {"type": "node", "id": 3595293057, "lat": 32.0667363, "lon": 34.7714663, "tags": {"amenity": "bicycle_rental", "bicycle_rental": "docking_station", "capacity": "20", "name": "\u05d0\u05dc\u05e0\u05d1\u05d9 90 \u05e4\u05d9\u05e0\u05ea \u05de\u05d0\u05d6\u05d4", "name:he": "\u05d0\u05dc\u05e0\u05d1\u05d9 90 \u05e4\u05d9\u05e0\u05ea \u05de\u05d0\u05d6\u05d4", "payment:credit_cards": "yes", "ref": "368"}}, {"type": "node", "id": 3595293064, "lat": 32.0695449, "lon": 34.7725129, "tags": {"amenity": "bicycle_rental", "capacity": "20", "name": "\u05d2\u05d9\u05e0\u05ea \u05e9\u05d9\u05e0\u05e7\u05d9\u05df - \u05e0\u05e4\u05d7\u05d0", "name:he": "\u05d2\u05d9\u05e0\u05ea \u05e9\u05d9\u05e0\u05e7\u05d9\u05df - \u05e0\u05e4\u05d7\u05d0", "payment:credit_cards": "yes", "ref": "364"}}, {"type": "node", "id": 3598313164, "lat": 32.0740958, "lon": 34.7799112, "tags": {"amenity": "bicycle_rental", "capacity": "20", "name": "\u05e9\u05d3 \u05d7\u05df \u05e4\u05d9\u05e0\u05ea \u05d3\u05d9\u05d6\u05e0\u05d2\u05d5\u05e3", "name:he": "\u05e9\u05d3 \u05d7\u05df \u05e4\u05d9\u05e0\u05ea \u05d3\u05d9\u05d6\u05e0\u05d2\u05d5\u05e3", "payment:credit_cards": "yes", "ref": "388"}}, {"type": "node", "id": 3599546658, "lat": 32.0717886, "lon": 34.7799355}, {"type": "node", "id": 3599546659, "lat": 32.0719833, "lon": 34.7800494}, {"type": "node", "id": 3599546661, "lat": 32.0718371, "lon": 34.77987}, {"type": "node", "id": 3599546668, "lat": 32.0731378, "lon": 34.7794802}, {"type": "node", "id": 3609549952, "lat": 32.1056346, "lon": 34.8194183, "tags": {"amenity": "bicycle_rental", "capacity": "20", "name": "\u05de\u05e8\u05db\u05d6 \u05d4\u05e1\u05e4\u05d5\u05e8\u05d8", "name:he": "\u05de\u05e8\u05db\u05d6 \u05d4\u05e1\u05e4\u05d5\u05e8\u05d8", "network": "Tel-O-Fun", "payment:credit_cards": "yes", "ref": "232"}}, {"type": "node", "id": 3664366119, "lat": 32.0720081, "lon": 34.7796633}, {"type": "node", "id": 3664366120, "lat": 32.0719907, "lon": 34.7796779}, {"type": "node", "id": 3664366121, "lat": 32.0719784, "lon": 34.7796985}, {"type": "node", "id": 3664366122, "lat": 32.0719728, "lon": 34.7797228}, {"type": "node", "id": 3664366123, "lat": 32.0719746, "lon": 34.779748}, {"type": "node", "id": 3664366124, "lat": 32.0719834, "lon": 34.7797709}, {"type": "node", "id": 3664366225, "lat": 32.0719984, "lon": 34.7797889}, {"type": "node", "id": 3664366226, "lat": 32.0720388, "lon": 34.7798026}, {"type": "node", "id": 3664366227, "lat": 32.0720581, "lon": 34.7797973}, {"type": "node", "id": 3664366228, "lat": 32.0720749, "lon": 34.7797852}, {"type": "node", "id": 3664366229, "lat": 32.0720877, "lon": 34.7797674}, {"type": "node", "id": 3664366230, "lat": 32.0720951, "lon": 34.7797458}, {"type": "node", "id": 3664366231, "lat": 32.0720964, "lon": 34.7797226}, {"type": "node", "id": 3664366232, "lat": 32.0720914, "lon": 34.7797}, {"type": "node", "id": 3664366233, "lat": 32.0720807, "lon": 34.7796805}, {"type": "node", "id": 3664366234, "lat": 32.0720176, "lon": 34.7797999}, {"type": "node", "id": 3664366235, "lat": 32.0720653, "lon": 34.7796659}, {"type": "node", "id": 3664366236, "lat": 32.0720468, "lon": 34.7796577}, {"type": "node", "id": 3664366237, "lat": 32.0720271, "lon": 34.7796569}, {"type": "node", "id": 3668915407, "lat": 32.0498854, "lon": 34.756034, "tags": {"addr:city": "\u05ea\u05dc \u05d0\u05d1\u05d9\u05d1-\u05d9\u05e4\u05d5", "addr:housenumber": "23", "addr:street": "\u05d3\u05e8\u05d5\u05e8", "amenity": "bicycle_rental", "bicycle_rental": "docking_station", "capacity": "20", "name": "\u05d3\u05e8\u05d5\u05e8 23 - \u05d2\u05dc\u05d9 \u05e6\u05d4\u05dc", "name:en": "23 Dror St. - GALAZ", "name:he": "\u05d3\u05e8\u05d5\u05e8 23 - \u05d2\u05dc\u05d9 \u05e6\u05d4\u05dc", "network": "Tel-O-Fun", "payment:credit_cards": "yes", "ref": "433"}}, {"type": "node", "id": 3676466174, "lat": 32.0729483, "lon": 34.7803126}, {"type": "node", "id": 3687352754, "lat": 32.0584947, "lon": 34.7759121, "tags": {"amenity": "bicycle_rental", "capacity": "20", "name": "\u05dc\u05d5\u05d9\u05e0\u05e1\u05e7\u05d9 83\u05d0", "name:he": "\u05dc\u05d5\u05d9\u05e0\u05e1\u05e7\u05d9 83\u05d0", "network": "Tel-O-Fun", "payment:credit_cards": "yes", "ref": "402"}}, {"type": "node", "id": 3687352755, "lat": 32.0563472, "lon": 34.7811849, "tags": {"amenity": "bicycle_rental", "capacity": "20", "name": "\u05d9\u05e1\u05d5\u05d3 \u05d4\u05de\u05e2\u05dc\u05d4 64 - \u05ea. \u05de\u05e8\u05db\u05d6\u05d9\u05ea", "name:he": "\u05d9\u05e1\u05d5\u05d3 \u05d4\u05de\u05e2\u05dc\u05d4 64 - \u05ea. \u05de\u05e8\u05db\u05d6\u05d9\u05ea", "network": "Tel-O-Fun", "payment:credit_cards": "yes", "ref": "401"}}, {"type": "node", "id": 3687352758, "lat": 32.0557945, "lon": 34.7727223, "tags": {"amenity": "bicycle_rental", "bicycle_rental": "docking_station", "capacity": "28", "name": "\u05d4\u05e2\u05dc\u05d9\u05d4 49", "name:he": "\u05d4\u05e2\u05dc\u05d9\u05d4 49", "network": "Tel-O-Fun", "payment:credit_cards": "yes", "ref": "430"}}, {"type": "node", "id": 3687383941, "lat": 32.0578201, "lon": 34.7831714, "tags": {"amenity": "bicycle_rental", "capacity": "20", "name": "\u05dc\u05d1\u05e0\u05d3\u05d4 43", "name:he": "\u05dc\u05d1\u05e0\u05d3\u05d4 43", "network": "Tel-O-Fun", "payment:credit_cards": "yes", "ref": "436"}}, {"type": "node", "id": 3687383944, "lat": 32.0617822, "lon": 34.7845304, "tags": {"amenity": "bicycle_rental", "capacity": "18", "name": "\u05d9\u05d3 \u05d7\u05e8\u05d5\u05e6\u05d9\u05dd 17 - \u05d4\u05de\u05e1\u05d2\u05e8", "name:he": "\u05d9\u05d3 \u05d7\u05e8\u05d5\u05e6\u05d9\u05dd 17 - \u05d4\u05de\u05e1\u05d2\u05e8", "network": "Tel-O-Fun", "payment:credit_cards": "yes", "ref": "372"}}, {"type": "node", "id": 3711111242, "lat": 32.0784847, "lon": 34.7975879, "tags": {"addr:city": "\u05ea\u05dc \u05d0\u05d1\u05d9\u05d1-\u05d9\u05e4\u05d5", "addr:housenumber": "157", "addr:street": "\u05d9\u05d2\u05d0\u05dc \u05d0\u05dc\u05d5\u05df", "amenity": "bicycle_rental", "bicycle_rental": "docking_station", "capacity": "20", "compressed_air": "yes", "name": "\u05d9\u05d2\u05d0\u05dc \u05d0\u05dc\u05d5\u05df 157", "name:en": "157 Yigal Alon St.", "name:he": "\u05d9\u05d2\u05d0\u05dc \u05d0\u05dc\u05d5\u05df 157", "network": "Tel-O-Fun", "payment:credit_cards": "yes", "ref": "532"}}, {"type": "node", "id": 3722492900, "lat": 32.0730272, "lon": 34.7793365}, {"type": "node", "id": 3722492901, "lat": 32.0725372, "lon": 34.7791496}, {"type": "node", "id": 3722492902, "lat": 32.0725257, "lon": 34.7792034}, {"type": "node", "id": 3722492903, "lat": 32.0724942, "lon": 34.7790618}, {"type": "node", "id": 3722492904, "lat": 32.0731237, "lon": 34.7792251}, {"type": "node", "id": 3722492905, "lat": 32.0730311, "lon": 34.7792997}, {"type": "node", "id": 3722492906, "lat": 32.0725411, "lon": 34.7791684}, {"type": "node", "id": 3722492907, "lat": 32.0730311, "lon": 34.7793174}, {"type": "node", "id": 3722492908, "lat": 32.0724408, "lon": 34.7789753}, {"type": "node", "id": 3722492909, "lat": 32.0724354, "lon": 34.7789141}, {"type": "node", "id": 3722492910, "lat": 32.0724062, "lon": 34.7789816}, {"type": "node", "id": 3722492911, "lat": 32.0724797, "lon": 34.7788249}, {"type": "node", "id": 3722492912, "lat": 32.0730205, "lon": 34.7793495}, {"type": "node", "id": 3722492913, "lat": 32.0725554, "lon": 34.7787808}, {"type": "node", "id": 3722492915, "lat": 32.072451, "lon": 34.7788609}, {"type": "node", "id": 3722492916, "lat": 32.0725375, "lon": 34.7791895}, {"type": "node", "id": 3722492917, "lat": 32.0731731, "lon": 34.7789922}, {"type": "node", "id": 3722492918, "lat": 32.0730309, "lon": 34.7793339}, {"type": "node", "id": 3722492919, "lat": 32.0724663, "lon": 34.7790246}, {"type": "node", "id": 3722492920, "lat": 32.0730233, "lon": 34.7793364}, {"type": "node", "id": 3722492921, "lat": 32.0730335, "lon": 34.7793288}, {"type": "node", "id": 3722492922, "lat": 32.0730277, "lon": 34.7793154}, {"type": "node", "id": 3722492923, "lat": 32.073159, "lon": 34.778988}, {"type": "node", "id": 3722492924, "lat": 32.0730334, "lon": 34.7793217}, {"type": "node", "id": 3722494306, "lat": 32.0724156, "lon": 34.7790223}, {"type": "node", "id": 3722494325, "lat": 32.0725237, "lon": 34.7788192}, {"type": "node", "id": 3722494326, "lat": 32.0731094, "lon": 34.7792209}, {"type": "node", "id": 3739715009, "lat": 32.0807203, "lon": 34.7674531, "tags": {"amenity": "bicycle_rental", "capacity": "20", "name": "\u05d7\u05d5\u05e3 \u05e4\u05e8\u05d9\u05e9\u05de\u05df", "name:en": "Frishman Beach", "name:he": "\u05d7\u05d5\u05e3 \u05e4\u05e8\u05d9\u05e9\u05de\u05df", "network": "Tel-O-Fun", "payment:credit_cards": "yes", "ref": "386"}}, {"type": "node", "id": 3752532387, "lat": 32.1089982, "lon": 34.8049492, "tags": {"amenity": "bicycle_rental", "capacity": "20", "name": "\u05d4\u05e4\u05e7\u05d5\u05dc\u05d8\u05d4 \u05dc\u05d4\u05e0\u05d3\u05e1\u05d4 \u05ea\u05dc \u05d0\u05d1\u05d9\u05d1", "name:he": "\u05d4\u05e4\u05e7\u05d5\u05dc\u05d8\u05d4 \u05dc\u05d4\u05e0\u05d3\u05e1\u05d4 \u05ea\u05dc \u05d0\u05d1\u05d9\u05d1", "network": "Tel-O-Fun", "payment:credit_cards": "yes", "ref": "125"}}, {"type": "node", "id": 3774173493, "lat": 32.0533585, "lon": 34.7554316, "tags": {"addr:city": "\u05ea\u05dc \u05d0\u05d1\u05d9\u05d1-\u05d9\u05e4\u05d5", "addr:street": "\u05e8\u05d1\u05d9 \u05d0\u05d7\u05d0", "amenity": "bicycle_rental", "capacity": "20", "name": "\u05e9\u05d5\u05e7 \u05e4\u05e9\u05e4\u05e9\u05d9\u05dd - \u05e8\u05d1\u05d9 \u05d0\u05d7\u05d0", "name:en": "Flea market \u2013 Rabbi Aha St.", "name:he": "\u05e9\u05d5\u05e7 \u05e4\u05e9\u05e4\u05e9\u05d9\u05dd - \u05e8\u05d1\u05d9 \u05d0\u05d7\u05d0", "network": "Tel-O-Fun", "payment:credit_cards": "yes", "ref": "411"}}, {"type": "node", "id": 3816270213, "lat": 32.0666947, "lon": 34.8089143, "tags": {"addr:city": "\u05d2\u05d1\u05e2\u05ea\u05d9\u05d9\u05dd", "addr:street": "\u05d9\u05e6\u05d7\u05e7 \u05e8\u05d1\u05d9\u05df", "amenity": "bicycle_rental", "capacity": "20", "name": "\u05e7\u05e0\u05d9\u05d5\u05df \u05d2\u05d1\u05e2\u05ea\u05d9\u05d9\u05dd", "name:en": "Givataim Mall", "name:he": "\u05e7\u05e0\u05d9\u05d5\u05df \u05d2\u05d1\u05e2\u05ea\u05d9\u05d9\u05dd", "network": "Tel-O-Fun", "payment:credit_cards": "yes", "ref": "607"}}, {"type": "node", "id": 3816280471, "lat": 32.075259, "lon": 34.8089564, "tags": {"addr:city": "\u05d2\u05d1\u05e2\u05ea\u05d9\u05d9\u05dd", "addr:street": "\u05db\u05e6\u05e0\u05dc\u05e1\u05d5\u05df", "amenity": "bicycle_rental", "capacity": "20", "name": "\u05db\u05d9\u05db\u05e8 \u05e0\u05d2\u05d4", "name:en": "Noga Square", "name:he": "\u05db\u05d9\u05db\u05e8 \u05e0\u05d2\u05d4", "network": "Tel-O-Fun", "payment:credit_cards": "yes", "ref": "601"}}, {"type": "node", "id": 3817028553, "lat": 32.035829, "lon": 34.7591117, "tags": {"addr:city": "\u05ea\u05dc \u05d0\u05d1\u05d9\u05d1-\u05d9\u05e4\u05d5", "addr:housenumber": "38", "addr:street": "\u05e1\u05d5\u05de\u05e7\u05df", "amenity": "bicycle_rental", "capacity": "20", "name": "\u05ea\u05d7\u05e0\u05ea \u05e8\u05db\u05d1\u05ea \u05d5\u05d5\u05dc\u05e4\u05e1\u05d5\u05df", "name:en": "Wolfson Train Station", "name:he": "\u05ea\u05d7\u05e0\u05ea \u05e8\u05db\u05d1\u05ea \u05d5\u05d5\u05dc\u05e4\u05e1\u05d5\u05df", "network": "Tel-O-Fun", "payment:credit_cards": "yes", "ref": "431"}}, {"type": "node", "id": 3817028554, "lat": 32.0390405, "lon": 34.7563037, "tags": {"amenity": "bicycle_rental", "capacity": "20", "name": "\u05e0\u05d7\u05dc \u05d4\u05d1\u05e9\u05d5\u05e8 \u05e4\u05d9\u05e0\u05ea \u05e9\u05d3\u05e8\u05d5\u05ea \u05d9\u05e8\u05d5\u05e9\u05dc\u05d9\u05dd", "name:en": "Yerushalayim Av. Nahal Habsor", "name:he": "\u05e0\u05d7\u05dc \u05d4\u05d1\u05e9\u05d5\u05e8 \u05e4\u05d9\u05e0\u05ea \u05e9\u05d3\u05e8\u05d5\u05ea \u05d9\u05e8\u05d5\u05e9\u05dc\u05d9\u05dd", "network": "Tel-O-Fun", "payment:credit_cards": "yes", "ref": "417"}}, {"type": "node", "id": 3817373278, "lat": 32.0409873, "lon": 34.765653, "tags": {"amenity": "bicycle_rental", "capacity": "19", "name": "\u05d2\u05e8\u05d9\u05e0\u05d1\u05d5\u05d9\u05dd 37 - \u05e0\u05d5\u05d5\u05d4 \u05e2\u05d5\u05e4\u05e8", "name:en": "37 Greenbaum St.", "name:he": "\u05d2\u05e8\u05d9\u05e0\u05d1\u05d5\u05d9\u05dd 37 - \u05e0\u05d5\u05d5\u05d4 \u05e2\u05d5\u05e4\u05e8", "network": "Tel-O-Fun", "payment:credit_cards": "yes", "ref": "408"}}, {"type": "node", "id": 3873177171, "lat": 32.0765819, "lon": 34.774652, "tags": {"addr:city": "\u05ea\u05dc \u05d0\u05d1\u05d9\u05d1-\u05d9\u05e4\u05d5", "addr:housenumber": "72", "addr:street": "\u05d3\u05d9\u05d6\u05e0\u05d2\u05d5\u05e3", "amenity": "bicycle_rental", "capacity": "20", "compressed_air": "yes", "name": "\u05d3\u05d9\u05d6\u05e0\u05d2\u05d5\u05e3 \u05e1\u05e0\u05d8\u05e8 \u05e6\u05e4\u05d5\u05df", "name:en": "Dizengoff Center North", "name:he": "\u05d3\u05d9\u05d6\u05e0\u05d2\u05d5\u05e3 \u05e1\u05e0\u05d8\u05e8 \u05e6\u05e4\u05d5\u05df", "network": "Tel-O-Fun", "payment:credit_cards": "yes", "ref": "390"}}, {"type": "node", "id": 3873177172, "lat": 32.0671156, "lon": 34.7625843, "tags": {"addr:city": "\u05ea\u05dc \u05d0\u05d1\u05d9\u05d1-\u05d9\u05e4\u05d5", "addr:street": "\u05d4\u05e8\u05d1\u05e8\u05d8 \u05e1\u05de\u05d5\u05d0\u05dc", "amenity": "bicycle_rental", "capacity": "20", "compressed_air": "yes", "name": "\u05d4\u05d3\u05d5\u05dc\u05e4\u05d9\u05e0\u05e8\u05d9\u05d5\u05dd", "name:en": "Hadolfinarium", "name:he": "\u05d4\u05d3\u05d5\u05dc\u05e4\u05d9\u05e0\u05e8\u05d9\u05d5\u05dd", "network": "Tel-O-Fun", "payment:credit_cards": "yes", "ref": "392"}}, {"type": "node", "id": 3985298608, "lat": 32.0651752, "lon": 34.7646844, "tags": {"addr:city": "\u05ea\u05dc \u05d0\u05d1\u05d9\u05d1-\u05d9\u05e4\u05d5", "addr:street": "\u05d4\u05de\u05e8\u05d3", "amenity": "bicycle_rental", "capacity": "20", "name": "\u05de\u05dc\u05d5\u05df \u05d0\u05d9\u05e0\u05d8\u05e8\u05e7\u05d5\u05e0\u05d8\u05d9\u05e0\u05e0\u05d8\u05dc", "name:en": "David Intercontinental Hotel", "name:he": "\u05de\u05dc\u05d5\u05df \u05d0\u05d9\u05e0\u05d8\u05e8\u05e7\u05d5\u05e0\u05d8\u05d9\u05e0\u05e0\u05d8\u05dc", "network": "Tel-O-Fun", "payment:credit_cards": "yes", "ref": "393"}}, {"type": "node", "id": 3987152345, "lat": 32.0740078, "lon": 34.7652105, "tags": {"addr:city": "\u05ea\u05dc \u05d0\u05d1\u05d9\u05d1-\u05d9\u05e4\u05d5", "addr:housenumber": "1", "addr:street": "\u05d0\u05dc\u05e0\u05d1\u05d9", "amenity": "bicycle_rental", "capacity": "20", "name": "\u05d7\u05d5\u05e3 \u05d9\u05e8\u05d5\u05e9\u05dc\u05d9\u05dd", "name:en": "1 Allenby St.", "name:he": "\u05d7\u05d5\u05e3 \u05d9\u05e8\u05d5\u05e9\u05dc\u05d9\u05dd", "network": "Tel-O-Fun", "payment:credit_cards": "yes", "ref": "391"}}, {"type": "node", "id": 3992078741, "lat": 32.0475287, "lon": 34.7526129, "tags": {"addr:city": "\u05ea\u05dc \u05d0\u05d1\u05d9\u05d1-\u05d9\u05e4\u05d5", "addr:housenumber": "66", "addr:street": "\u05d9\u05e4\u05ea", "amenity": "bicycle_rental", "capacity": "19", "name": "\u05d9\u05e4\u05ea 66 - \u05d2\u05df \u05d4\u05e9\u05e0\u05d9\u05d9\u05dd", "name:en": "66 Yefet St.", "name:he": "\u05d9\u05e4\u05ea 66 - \u05d2\u05df \u05d4\u05e9\u05e0\u05d9\u05d9\u05dd", "network": "Tel-O-Fun", "payment:credit_cards": "yes", "ref": "410"}}, {"type": "node", "id": 3992078742, "lat": 32.0463949, "lon": 34.7488061, "tags": {"addr:city": "\u05ea\u05dc \u05d0\u05d1\u05d9\u05d1-\u05d9\u05e4\u05d5", "addr:street": "\u05e7\u05d3\u05dd", "amenity": "bicycle_rental", "capacity": "20", "name": "\u05e7\u05d3\u05dd 49", "name:en": "49 Kedem St.", "name:he": "\u05e7\u05d3\u05dd 49", "network": "Tel-O-Fun", "payment:credit_cards": "yes", "ref": "423"}}, {"type": "node", "id": 3992078750, "lat": 32.0517594, "lon": 34.7642582, "tags": {"addr:city": "\u05ea\u05dc \u05d0\u05d1\u05d9\u05d1-\u05d9\u05e4\u05d5", "addr:street": "\u05e9\u05d0\u05e8\u05d9\u05ea \u05d9\u05e9\u05e8\u05d0\u05dc", "amenity": "bicycle_rental", "bicycle_rental": "docking_station", "capacity": "20", "name": "\u05e9\u05d0\u05e8\u05d9\u05ea \u05d9\u05e9\u05e8\u05d0\u05dc 37", "name:he": "\u05e9\u05d0\u05e8\u05d9\u05ea \u05d9\u05e9\u05e8\u05d0\u05dc 37", "network": "Tel-O-Fun", "payment:credit_cards": "yes", "ref": "404"}}, {"type": "node", "id": 3992803567, "lat": 32.0681455, "lon": 34.7781726, "tags": {"highway": "traffic_signals"}}, {"type": "node", "id": 3992803572, "lat": 32.0682028, "lon": 34.7781921, "tags": {"button_operated": "yes", "crossing": "traffic_signals", "crossing_ref": "tiger", "highway": "crossing", "traffic_signals:sound": "yes", "traffic_signals:vibration": "yes"}}, {"type": "node", "id": 3992803573, "lat": 32.0682247, "lon": 34.7781017}, {"type": "node", "id": 3992803574, "lat": 32.0682458, "lon": 34.7780258}, {"type": "node", "id": 3996264757, "lat": 32.0700074, "lon": 34.8086511, "tags": {"addr:city": "\u05d2\u05d1\u05e2\u05ea\u05d9\u05d9\u05dd", "addr:housenumber": "57", "addr:street": "\u05d5\u05d9\u05e6\u05de\u05df", "amenity": "bicycle_rental", "capacity": "20", "name": "\u05d5\u05d9\u05d9\u05e6\u05de\u05df 57 \u05d2\u05d1\u05e2\u05ea\u05d9\u05d9\u05dd", "name:en": "57 Weizman St.", "name:he": "\u05d5\u05d9\u05d9\u05e6\u05de\u05df 57 \u05d2\u05d1\u05e2\u05ea\u05d9\u05d9\u05dd", "network": "Tel-O-Fun", "payment:credit_cards": "yes", "ref": "611"}}, {"type": "node", "id": 3996264758, "lat": 32.0739786, "lon": 34.8124269}, {"type": "node", "id": 3996264759, "lat": 32.0672275, "lon": 34.8137754, "tags": {"addr:city": "\u05d2\u05d1\u05e2\u05ea\u05d9\u05d9\u05dd", "addr:street": "\u05e9\u05de\u05e2\u05d5\u05df \u05d1\u05df \u05e6\u05d1\u05d9", "amenity": "bicycle_rental", "capacity": "20", "name": "\u05d2\u05df \u05e7\u05d5\u05e9\u05e0\u05d9\u05e8 \u05d2\u05d1\u05e2\u05ea\u05d9\u05d9\u05dd", "name:en": "Kushnir Garden", "name:he": "\u05d2\u05df \u05e7\u05d5\u05e9\u05e0\u05d9\u05e8 \u05d2\u05d1\u05e2\u05ea\u05d9\u05d9\u05dd", "network": "Tel-O-Fun", "payment:credit_cards": "yes", "ref": "606"}}, {"type": "node", "id": 3996264760, "lat": 32.0638469, "lon": 34.8128357, "tags": {"addr:city": "\u05d2\u05d1\u05e2\u05ea\u05d9\u05d9\u05dd", "addr:street": "\u05e6\u05d1\u05d9\u05d4 \u05dc\u05d5\u05d1\u05d8\u05e7\u05d9\u05df", "amenity": "bicycle_rental", "capacity": "20", "name": "\u05d2\u05df \u05e8\u05d1\u05e7\u05d4 \u05d2\u05d1\u05e2\u05ea\u05d9\u05d9\u05dd", "name:en": "Rivka Garden", "name:he": "\u05d2\u05df \u05e8\u05d1\u05e7\u05d4 \u05d2\u05d1\u05e2\u05ea\u05d9\u05d9\u05dd", "network": "Tel-O-Fun", "payment:credit_cards": "yes", "ref": "612"}}, {"type": "node", "id": 3996264763, "lat": 32.0772778, "lon": 34.814179, "tags": {"addr:city": "\u05d2\u05d1\u05e2\u05ea\u05d9\u05d9\u05dd", "amenity": "bicycle_rental", "capacity": "20", "name": "\u05db\u05d9\u05db\u05e8 \u05e0\u05d5\u05d7 \u05d2\u05d1\u05e2\u05ea\u05d9\u05d9\u05dd", "name:en": "Noa'ch Square", "name:he": "\u05db\u05d9\u05db\u05e8 \u05e0\u05d5\u05d7 \u05d2\u05d1\u05e2\u05ea\u05d9\u05d9\u05dd", "network": "Tel-O-Fun", "payment:credit_cards": "yes", "ref": "603"}}, {"type": "node", "id": 3996264773, "lat": 32.075486, "lon": 34.8176158, "tags": {"addr:city": "\u05d2\u05d1\u05e2\u05ea\u05d9\u05d9\u05dd", "addr:housenumber": "147", "addr:street": "\u05db\u05e6\u05e0\u05dc\u05e1\u05d5\u05df", "amenity": "bicycle_rental", "capacity": "20", "name": "\u05db\u05e6\u05e0\u05dc\u05e1\u05d5\u05df \u05d2\u05d1\u05e2\u05ea\u05d9\u05d9\u05dd- \u05d4\u05de\u05e2\u05dc\u05d5\u05ea", "name:en": "Kazenelson St./ HaMaa'lot St.", "name:he": "\u05db\u05e6\u05e0\u05dc\u05e1\u05d5\u05df \u05d2\u05d1\u05e2\u05ea\u05d9\u05d9\u05dd- \u05d4\u05de\u05e2\u05dc\u05d5\u05ea", "network": "Tel-O-Fun", "payment:credit_cards": "yes", "ref": "609"}}, {"type": "node", "id": 3996264774, "lat": 32.0600228, "lon": 34.8166809}, {"type": "node", "id": 3996291957, "lat": 32.0563792, "lon": 34.8066145, "tags": {"addr:city": "\u05ea\u05dc \u05d0\u05d1\u05d9\u05d1-\u05d9\u05e4\u05d5", "addr:housenumber": "40", "addr:street": "\u05d4\u05d8\u05d9\u05d9\u05e1\u05d9\u05dd", "amenity": "bicycle_rental", "capacity": "20", "name": "\u05d4\u05d8\u05d9\u05d9\u05e1\u05d9\u05dd 40", "name:en": "40 HaTayassim Rd.", "name:he": "\u05d4\u05d8\u05d9\u05d9\u05e1\u05d9\u05dd 40", "network": "Tel-O-Fun", "payment:credit_cards": "yes", "ref": "509"}}, {"type": "node", "id": 3997197420, "lat": 32.0488431, "lon": 34.7812729, "tags": {"addr:street": "\u05d9\u05e9\u05e8\u05d0\u05dc \u05de\u05e1\u05dc\u05e0\u05d8", "amenity": "bicycle_rental", "capacity": "20", "name": "\u05d9\u05e9\u05e8\u05d0\u05dc \u05de\u05e1\u05dc\u05e0\u05d8 \u05de\u05d5\u05dc 13", "name:en": "opp.13 Israel Misalant St.", "name:he": "\u05d9\u05e9\u05e8\u05d0\u05dc \u05de\u05e1\u05dc\u05e0\u05d8 \u05de\u05d5\u05dc 13", "network": "Tel-O-Fun", "payment:credit_cards": "yes", "ref": "418"}}, {"type": "node", "id": 3997197421, "lat": 32.0515745, "lon": 34.7743262, "tags": {"addr:housenumber": "1", "addr:street": "\u05e9\u05d3\u05e8\u05d5\u05ea \u05d7\u05db\u05de\u05d9 \u05d9\u05e9\u05e8\u05d0\u05dc", "amenity": "bicycle_rental", "bicycle_rental": "docking_station", "capacity": "20", "name": "\u05d7\u05db\u05de\u05d9 \u05d9\u05e9\u05e8\u05d0\u05dc 1", "name:en": "1 Hachme Israel St.", "name:he": "\u05d7\u05db\u05de\u05d9 \u05d9\u05e9\u05e8\u05d0\u05dc 1", "network": "Tel-O-Fun", "payment:credit_cards": "yes", "ref": "432"}}, {"type": "node", "id": 4003454690, "lat": 32.0810984, "lon": 34.7886969, "tags": {"addr:city": "\u05ea\u05dc \u05d0\u05d1\u05d9\u05d1-\u05d9\u05e4\u05d5", "addr:housenumber": "15", "addr:street": "\u05d5\u05d9\u05e6\u05de\u05df", "amenity": "bicycle_rental", "bicycle_rental": "docking_station", "capacity": "20", "name": "\u05d5\u05d9\u05e6\u05de\u05df 15-\u05d0\u05d9\u05db\u05d9\u05dc\u05d5\u05d1", "name:en": "15 weizman st. Ichilov Hospital", "name:he": "\u05d5\u05d9\u05e6\u05de\u05df 15-\u05d0\u05d9\u05db\u05d9\u05dc\u05d5\u05d1", "network": "Tel-O-Fun", "payment:credit_cards": "yes", "ref": "333"}}, {"type": "node", "id": 4003454691, "lat": 32.0847355, "lon": 34.7867388, "tags": {"addr:housenumber": "2", "addr:street": "\u05ea\u05e9\"\u05d7", "amenity": "bicycle_rental", "bicycle_rental": "docking_station", "capacity": "20", "fee": "yes", "name": "\u05ea\u05e9\u05d7 2", "name:en": "2 Tashah St.", "name:he": "\u05ea\u05e9\u05d7 2", "network": "Tel-O-Fun", "payment:credit_cards": "yes", "ref": "323"}}, {"type": "node", "id": 4003454696, "lat": 32.0864718, "lon": 34.7927278, "tags": {"addr:housenumber": "1", "addr:street": "\u05e9\u05d3\u05e8\u05d5\u05ea \u05d4\u05e6\u05d9\u05d5\u05e0\u05d5\u05ea", "amenity": "bicycle_rental", "bicycle_rental": "docking_station", "capacity": "20", "name": "\u05e9\u05d3\u05e8\u05d5\u05ea \u05d4\u05e6\u05d9\u05d5\u05e0\u05d5\u05ea 1", "name:en": "1 Tsiyonut Av", "name:he": "\u05e9\u05d3\u05e8\u05d5\u05ea \u05d4\u05e6\u05d9\u05d5\u05e0\u05d5\u05ea 1", "network": "Tel-O-Fun", "payment:credit_cards": "yes", "ref": "322"}}, {"type": "node", "id": 4009558140, "lat": 32.0694309, "lon": 34.7865283, "tags": {"addr:city": "\u05ea\u05dc \u05d0\u05d1\u05d9\u05d1-\u05d9\u05e4\u05d5", "addr:housenumber": "121", "addr:street": "\u05d4\u05d7\u05e9\u05de\u05d5\u05e0\u05d0\u05d9\u05dd", "amenity": "bicycle_rental", "bicycle_rental": "docking_station", "capacity": "20", "name": "\u05d2\u05d9\u05e0\u05d3\u05d9 \u05ea\u05dc \u05d0\u05d1\u05d9\u05d1", "name:en": "Gindi Tel-Aviv", "name:he": "\u05d2\u05d9\u05e0\u05d3\u05d9 \u05ea\u05dc \u05d0\u05d1\u05d9\u05d1", "network": "Tel-O-Fun", "payment:credit_cards": "yes", "ref": "352"}}, {"type": "node", "id": 4009558141, "lat": 32.0702607, "lon": 34.7846905, "tags": {"addr:city": "\u05ea\u05dc \u05d0\u05d1\u05d9\u05d1-\u05d9\u05e4\u05d5", "amenity": "bicycle_rental", "bicycle_rental": "docking_station", "capacity": "20", "name": "\u05de\u05ea\u05d7\u05dd \u05d2\u05d1\u05e2\u05d5\u05df", "name:en": "Givon Compound", "name:he": "\u05de\u05ea\u05d7\u05dd \u05d2\u05d1\u05e2\u05d5\u05df", "network": "Tel-O-Fun", "payment:credit_cards": "yes", "ref": "353"}}, {"type": "node", "id": 4013462832, "lat": 32.0717792, "lon": 34.7799146}, {"type": "node", "id": 4013462835, "lat": 32.0717538, "lon": 34.7798936}, {"type": "node", "id": 4014778605, "lat": 32.0724267, "lon": 34.7786865}, {"type": "node", "id": 4014778606, "lat": 32.0715001, "lon": 34.7789343}, {"type": "node", "id": 4082010273, "lat": 32.0713789, "lon": 34.793999, "tags": {"addr:street": "\u05d9\u05d2\u05d0\u05dc \u05d0\u05dc\u05d5\u05df", "amenity": "bicycle_rental", "capacity": "20", "name": "\u05d9\u05d2\u05d0\u05dc \u05d0\u05dc\u05d5\u05df \u05d3\u05e8\u05da \u05d4\u05e9\u05dc\u05d5\u05dd", "name:en": "Yigal Alon St. / HaShalom Road", "name:he": "\u05d9\u05d2\u05d0\u05dc \u05d0\u05dc\u05d5\u05df \u05d3\u05e8\u05da \u05d4\u05e9\u05dc\u05d5\u05dd", "network": "Tel-O-Fun", "payment:credit_cards": "yes", "ref": "537"}}, {"type": "node", "id": 4083898512, "lat": 32.0773755, "lon": 34.7662986, "tags": {"addr:city": "\u05ea\u05dc \u05d0\u05d1\u05d9\u05d1-\u05d9\u05e4\u05d5", "addr:housenumber": "90", "addr:street": "\u05d4\u05e8\u05d1\u05e8\u05d8 \u05e1\u05de\u05d5\u05d0\u05dc", "amenity": "bicycle_rental", "bicycle_rental": "docking_station", "capacity": "28", "name": "\u05d4\u05e8\u05d1\u05e8\u05d8 \u05e1\u05de\u05d5\u05d0\u05dc 90", "name:en": "90 Herbert Samuel St.", "name:he": "\u05d4\u05e8\u05d1\u05e8\u05d8 \u05e1\u05de\u05d5\u05d0\u05dc 90", "network": "Tel-O-Fun", "payment:credit_cards": "yes", "ref": "341"}}, {"type": "node", "id": 4166595481, "lat": 32.072473, "lon": 34.7790755}, {"type": "node", "id": 4166595482, "lat": 32.0724654, "lon": 34.7792089}, {"type": "node", "id": 4166595483, "lat": 32.0725571, "lon": 34.7786921}, {"type": "node", "id": 4166595484, "lat": 32.0718304, "lon": 34.7799749}, {"type": "node", "id": 4166595485, "lat": 32.0718938, "lon": 34.7800152}, {"type": "node", "id": 4166595486, "lat": 32.0721526, "lon": 34.7800951}, {"type": "node", "id": 4166595487, "lat": 32.0726044, "lon": 34.7802115}, {"type": "node", "id": 4166595488, "lat": 32.0725926, "lon": 34.7802657}, {"type": "node", "id": 4166597189, "lat": 32.0721419, "lon": 34.7801415}, {"type": "node", "id": 4166597214, "lat": 32.0721058, "lon": 34.7793334}, {"type": "node", "id": 4166597215, "lat": 32.0720034, "lon": 34.7795058}, {"type": "node", "id": 4166597216, "lat": 32.0730091, "lon": 34.7800336}, {"type": "node", "id": 4166597217, "lat": 32.0731263, "lon": 34.7794769}, {"type": "node", "id": 4167064566, "lat": 32.0727897, "lon": 34.7794837}, {"type": "node", "id": 4374642959, "lat": 32.0716958, "lon": 34.7791783, "tags": {"amenity": "public_bookcase", "check_date": "2023-06-27", "name": "\u05e1\u05e4\u05e8\u05d9\u05d9\u05d4 \u05e0\u05d9\u05d9\u05d3\u05ea - \u05e8\u05d5\u05d8\u05e9\u05d9\u05dc\u05d3", "name:en": "Rotchild Avenue Portable Library", "name:he": "\u05e1\u05e4\u05e8\u05d9\u05d9\u05d4 \u05e0\u05d9\u05d9\u05d3\u05ea - \u05e8\u05d5\u05d8\u05e9\u05d9\u05dc\u05d3"}}, {"type": "node", "id": 4413855649, "lat": 32.0701096, "lon": 34.7788023}, {"type": "node", "id": 4587267171, "lat": 32.07202, "lon": 34.7797244, "tags": {"amenity": "bench", "backrest": "no", "check_date": "2023-07-01"}}, {"type": "node", "id": 4694178990, "lat": 32.0926882, "lon": 34.7737783, "tags": {"amenity": "bicycle_rental", "website": "https://tel-o-fun.co.il/"}}, {"type": "node", "id": 4704824333, "lat": 32.0721557, "lon": 34.7790297}, {"type": "node", "id": 5594780130, "lat": 32.063833, "lon": 34.7766544, "tags": {"amenity": "bicycle_rental", "brand": "Tel-O-Fun", "brand:wikidata": "Q2915180", "capacity": "20", "fee": "yes", "name": "\u05d4\u05e8\u05db\u05d1\u05ea \u05e4\u05d9\u05e0\u05ea \u05dc\u05d1\u05d5\u05e0\u05d8\u05d9\u05df", "name:en": "HaRakevet corner Levontin", "name:he": "\u05d4\u05e8\u05db\u05d1\u05ea \u05e4\u05d9\u05e0\u05ea \u05dc\u05d1\u05d5\u05e0\u05d8\u05d9\u05df", "network": "Tel-O-Fun", "network:wikidata": "Q2915180", "operator": "FSM", "payment:credit_cards": "yes", "phone": "*6070", "ref": "373"}}, {"type": "node", "id": 6139358951, "lat": 32.0729538, "lon": 34.7802872}, {"type": "node", "id": 6153617168, "lat": 32.0696119, "lon": 34.7786434, "tags": {"crossing": "uncontrolled", "crossing_ref": "zebra", "highway": "crossing"}}, {"type": "node", "id": 6153617169, "lat": 32.0695272, "lon": 34.7786163, "tags": {"crossing": "uncontrolled", "crossing_ref": "zebra", "highway": "crossing"}}, {"type": "node", "id": 6153617170, "lat": 32.0681141, "lon": 34.7781629, "tags": {"button_operated": "yes", "crossing": "traffic_signals", "crossing_ref": "zebra", "highway": "crossing", "traffic_signals:sound": "yes", "traffic_signals:vibration": "yes"}}, {"type": "node", "id": 6300638485, "lat": 32.0869162, "lon": 34.7822126, "tags": {"addr:city": "\u05ea\u05dc \u05d0\u05d1\u05d9\u05d1-\u05d9\u05e4\u05d5", "addr:housenumber": "124", "addr:street": "\u05d0\u05d1\u05df \u05d2\u05d1\u05d9\u05e8\u05d5\u05dc", "amenity": "bicycle_rental", "brand": "Tel-O-Fun", "brand:wikidata": "Q2915180", "capacity": "20", "fee": "yes", "name": "\u05d0\u05d1\u05df \u05d2\u05d1\u05d9\u05e8\u05d5\u05dc 124", "name:en": "124 Ibn Gvirol St.", "name:he": "\u05d0\u05d1\u05df \u05d2\u05d1\u05d9\u05e8\u05d5\u05dc 124", "network": "Tel-O-Fun", "network:wikidata": "Q2915180", "operator": "FSM", "operator:type": "private", "payment:credit_cards": "yes", "ref": "319"}}, {"type": "node", "id": 6300638486, "lat": 32.0885971, "lon": 34.7800299, "tags": {"addr:city": "\u05ea\u05dc \u05d0\u05d1\u05d9\u05d1-\u05d9\u05e4\u05d5", "addr:housenumber": "65", "addr:street": "\u05d6'\u05d1\u05d5\u05d8\u05d9\u05e0\u05e1\u05e7\u05d9", "amenity": "bicycle_rental", "bicycle_rental": "docking_station", "brand": "Tel-O-Fun", "brand:wikidata": "Q2915180", "capacity": "20", "fee": "yes", "name": "\u05d6\u05d1\u05d5\u05d8\u05d9\u05e0\u05e1\u05e7\u05d9-\u05d9\u05d4\u05d5\u05e9\u05d5\u05e2 \u05d1\u05df \u05e0\u05d5\u05df", "name:en": "Jabutinsky St. / Yeushua Ben Nun St.", "name:he": "\u05d6\u05d1\u05d5\u05d8\u05d9\u05e0\u05e1\u05e7\u05d9-\u05d9\u05d4\u05d5\u05e9\u05d5\u05e2 \u05d1\u05df \u05e0\u05d5\u05df", "network": "Tel-O-Fun", "network:wikidata": "Q2915180", "operator": "FSM", "payment:credit_cards": "yes", "ref": "383"}}, {"type": "node", "id": 6332795968, "lat": 32.0449648, "lon": 34.8096663, "tags": {"amenity": "bicycle_rental", "capacity": "20", "fee": "yes", "name": "\u05d3\u05e8\u05da \u05d1\u05e8 \u05dc\u05d1 186", "name:en": "186 Bar-Lev Rd.", "name:he": "\u05d3\u05e8\u05da \u05d1\u05e8 \u05dc\u05d1 186", "network": "Tel-O-Fun", "operator": "FSM", "payment:credit_cards": "yes", "ref": "517"}}, {"type": "node", "id": 6879485160, "lat": 32.1105162, "lon": 34.8376966, "tags": {"addr:city": "\u05ea\u05dc \u05d0\u05d1\u05d9\u05d1-\u05d9\u05e4\u05d5", "addr:housenumber": "20", "addr:street": "\u05e8\u05d0\u05d5\u05dc \u05d5\u05dc\u05e0\u05d1\u05e8\u05d2", "amenity": "bicycle_rental", "capacity": "20", "fee": "yes", "name": "\u05e8\u05d0\u05d5\u05dc \u05d5\u05dc\u05e0\u05d1\u05e8\u05d2 \u05e4\u05d9\u05e0\u05ea \u05d4\u05e0\u05d7\u05d5\u05e9\u05ea", "name:en": "Raoul Wallenberg St/ Hanechoshet St.", "name:he": "\u05e8\u05d0\u05d5\u05dc \u05d5\u05dc\u05e0\u05d1\u05e8\u05d2 \u05e4\u05d9\u05e0\u05ea \u05d4\u05e0\u05d7\u05d5\u05e9\u05ea", "network": "Tel-O-Fun", "operator": "FSM", "operator:type": "public", "payment:credit_cards": "yes", "ref": "231"}}, {"type": "node", "id": 6879485161, "lat": 32.1175735, "lon": 34.8245964, "tags": {"addr:city": "\u05ea\u05dc \u05d0\u05d1\u05d9\u05d1-\u05d9\u05e4\u05d5", "addr:housenumber": "7", "addr:street": "\u05de\u05e8\u05e1\u05dc \u05d9\u05e0\u05e7\u05d5", "amenity": "bicycle_rental", "capacity": "14", "fee": "yes", "name": "\u05d2\u05d1\u05e2\u05ea \u05d4\u05e4\u05e8\u05d7\u05d9\u05dd", "name:en": "7 Marcel Yanko St.", "name:he": "\u05d2\u05d1\u05e2\u05ea \u05d4\u05e4\u05e8\u05d7\u05d9\u05dd", "network": "Tel-O-Fun", "operator": "FSM", "operator:type": "public", "payment:credit_cards": "yes", "ref": "217"}}, {"type": "node", "id": 6932290785, "lat": 32.0717295, "lon": 34.779429, "tags": {"amenity": "restaurant", "name": "Milgo Milbar", "name:en": "Milgo Milbar"}}, {"type": "node", "id": 7752750455, "lat": 32.0658933, "lon": 34.7773392, "tags": {"bicycle": "designated", "crossing": "uncontrolled", "highway": "crossing"}}, {"type": "node", "id": 7768335024, "lat": 32.0682102, "lon": 34.7780977}, {"type": "node", "id": 7768335033, "lat": 32.0681864, "lon": 34.7781864}, {"type": "node", "id": 7769901143, "lat": 32.0718589, "lon": 34.7795226}, {"type": "node", "id": 7769901144, "lat": 32.0718638, "lon": 34.7794544, "tags": {"crossing": "uncontrolled", "highway": "crossing"}}, {"type": "node", "id": 7769901145, "lat": 32.0718265, "lon": 34.7793836}, {"type": "node", "id": 7769901146, "lat": 32.0718531, "lon": 34.7794187}, {"type": "node", "id": 7769918256, "lat": 32.0720924, "lon": 34.7792745}, {"type": "node", "id": 7769918257, "lat": 32.0720612, "lon": 34.7791399}, {"type": "node", "id": 7769918258, "lat": 32.0720508, "lon": 34.7791265}, {"type": "node", "id": 7769918259, "lat": 32.072092, "lon": 34.7792163}, {"type": "node", "id": 7769918260, "lat": 32.0720961, "lon": 34.7792548}, {"type": "node", "id": 7769938092, "lat": 32.0716667, "lon": 34.7799512}, {"type": "node", "id": 7769939028, "lat": 32.0721464, "lon": 34.7790512}, {"type": "node", "id": 7769939029, "lat": 32.0721211, "lon": 34.7790862}, {"type": "node", "id": 7769939030, "lat": 32.0720868, "lon": 34.7791049}, {"type": "node", "id": 7769939031, "lat": 32.0720718, "lon": 34.7791074}, {"type": "node", "id": 7769939032, "lat": 32.0720543, "lon": 34.7791086}, {"type": "node", "id": 7985445001, "lat": 32.0717673, "lon": 34.7792435}, {"type": "node", "id": 8130285104, "lat": 32.0724644, "lon": 34.7786693}, {"type": "node", "id": 8130285105, "lat": 32.0725019, "lon": 34.7786646}, {"type": "node", "id": 8130285106, "lat": 32.0724698, "lon": 34.7787819}, {"type": "node", "id": 8130285107, "lat": 32.0725373, "lon": 34.7787639}, {"type": "node", "id": 8130285108, "lat": 32.07253, "lon": 34.778678}, {"type": "node", "id": 8130285109, "lat": 32.0725001, "lon": 34.7787607}, {"type": "node", "id": 8478318373, "lat": 32.0716676, "lon": 34.7799673, "tags": {"highway": "give_way"}}, {"type": "node", "id": 8655892085, "lat": 32.0682276, "lon": 34.7780195}, {"type": "node", "id": 9402059260, "lat": 32.0731067, "lon": 34.7795702}, {"type": "node", "id": 9411445552, "lat": 32.0716767, "lon": 34.7799165}, {"type": "node", "id": 9923871054, "lat": 32.0725277, "lon": 34.7795667}, {"type": "node", "id": 9923871055, "lat": 32.0725609, "lon": 34.7796416}, {"type": "node", "id": 9923871056, "lat": 32.0725543, "lon": 34.779684}, {"type": "node", "id": 9923871057, "lat": 32.0724948, "lon": 34.77973}, {"type": "node", "id": 9923871072, "lat": 32.0723038, "lon": 34.7795036}, {"type": "node", "id": 9923871073, "lat": 32.0722705, "lon": 34.7796661}, {"type": "node", "id": 9923871074, "lat": 32.0723747, "lon": 34.7795251}, {"type": "node", "id": 9923871075, "lat": 32.0723401, "lon": 34.7796853}, {"type": "node", "id": 9923871076, "lat": 32.0723649, "lon": 34.779574}, {"type": "node", "id": 9923871077, "lat": 32.0725172, "lon": 34.7796188}, {"type": "node", "id": 9923871078, "lat": 32.0723523, "lon": 34.7796344}, {"type": "node", "id": 9923871079, "lat": 32.0725058, "lon": 34.7796755}, {"type": "node", "id": 9923871080, "lat": 32.0724917, "lon": 34.7795574}, {"type": "node", "id": 9923871081, "lat": 32.0724606, "lon": 34.7797206}, {"type": "node", "id": 9923871082, "lat": 32.0724593, "lon": 34.7795481}, {"type": "node", "id": 9923871083, "lat": 32.0724276, "lon": 34.7797111}, {"type": "node", "id": 9923871084, "lat": 32.0724206, "lon": 34.7795373}, {"type": "node", "id": 9923871085, "lat": 32.0723851, "lon": 34.7796989}, {"type": "node", "id": 9923871086, "lat": 32.0723967, "lon": 34.7796463}, {"type": "node", "id": 9923871087, "lat": 32.0724494, "lon": 34.7795989}, {"type": "node", "id": 9923871088, "lat": 32.072482, "lon": 34.7796084}, {"type": "node", "id": 9923871089, "lat": 32.072438, "lon": 34.7796574}, {"type": "node", "id": 9923871090, "lat": 32.072471, "lon": 34.7796662}, {"type": "node", "id": 10186147110, "lat": 32.0723612, "lon": 34.7786564}, {"type": "node", "id": 10186147111, "lat": 32.0723953, "lon": 34.7786812, "tags": {"crossing": "traffic_signals", "highway": "crossing"}}, {"type": "node", "id": 10186147112, "lat": 32.0724203, "lon": 34.7786992}, {"type": "node", "id": 10186147113, "lat": 32.0724895, "lon": 34.7787315}, {"type": "node", "id": 10186147114, "lat": 32.0724832, "lon": 34.7787445}, {"type": "node", "id": 10186147115, "lat": 32.0724371, "lon": 34.7788342}, {"type": "node", "id": 10186164724, "lat": 32.0722866, "lon": 34.7786021, "tags": {"crossing": "traffic_signals", "highway": "crossing"}}, {"type": "node", "id": 10186164729, "lat": 32.0721348, "lon": 34.7791424}, {"type": "node", "id": 10238157230, "lat": 32.0716759, "lon": 34.7799853}, {"type": "node", "id": 10238157244, "lat": 32.0723099, "lon": 34.7785244}, {"type": "node", "id": 10238157248, "lat": 32.0722054, "lon": 34.7791133}, {"type": "node", "id": 10243950415, "lat": 32.0724097, "lon": 34.7795872}, {"type": "node", "id": 10693747873, "lat": 32.0717264, "lon": 34.7794459, "tags": {"addr:city": "Tel Aviv", "amenity": "pub", "brewery": "various", "microbrewery": "yes", "name": "Beer Bazaar Habima"}}, {"type": "node", "id": 10840287011, "lat": 32.0721767, "lon": 34.7790869}, {"type": "node", "id": 10840287012, "lat": 32.0722235, "lon": 34.7789906}, {"type": "node", "id": 10840287013, "lat": 32.0721964, "lon": 34.7790543}, {"type": "node", "id": 10840287014, "lat": 32.0722106, "lon": 34.7790223}, {"type": "node", "id": 10895909688, "lat": 32.0724552, "lon": 34.7790045}, {"type": "node", "id": 10895909689, "lat": 32.0724359, "lon": 34.7789507}, {"type": "node", "id": 10895909690, "lat": 32.0724637, "lon": 34.7788411}, {"type": "node", "id": 10895909691, "lat": 32.0725022, "lon": 34.7788202}, {"type": "node", "id": 10895909692, "lat": 32.0724392, "lon": 34.7788901}, {"type": "node", "id": 10895909693, "lat": 32.0725484, "lon": 34.778815}, {"type": "node", "id": 10895909694, "lat": 32.0724814, "lon": 34.7790445}, {"type": "node", "id": 11107954219, "lat": 32.0666814, "lon": 34.7776736, "tags": {"crossing": "traffic_signals", "highway": "crossing"}}, {"type": "node", "id": 11107954220, "lat": 32.0665545, "lon": 34.7776321, "tags": {"crossing": "traffic_signals", "highway": "crossing"}}, {"type": "node", "id": 12154646406, "lat": 32.0717508, "lon": 34.7794397, "tags": {"addr:housenumber": "4", "addr:street": "\u05de\u05e8\u05de\u05d5\u05e8\u05e7", "amenity": "cafe", "name": "\u05dc\u05d7\u05de\u05e0\u05d9\u05e0\u05d4", "name:en": "Lachmanina", "opening_hours": "Mo-Th, Su 07:30-20:30; Fr 07:00-17:00", "website": "https://lachmanina.co.il/"}}, {"type": "way", "id": 30146320, "nodes": [34132757, 355602971, 2931418475, 10238157248, 10186147111, 1312216182, 2144017079], "tags": {"highway": "tertiary", "lanes": "2", "name": "\u05db\u05d9\u05db\u05e8 \u05d4\u05d1\u05d9\u05de\u05d4", "name:en": "Kikar HaBima", "name:he": "\u05db\u05d9\u05db\u05e8 \u05d4\u05d1\u05d9\u05de\u05d4", "oneway": "yes", "surface": "asphalt"}}, {"type": "way", "id": 104815741, "nodes": [1209001015, 7769901145, 1209000972, 7769901146, 2931418476, 7769901144, 2931418485, 1995998514, 7769901143, 2931418499, 2473987505, 9411445552, 7769938092, 8478318373, 10238157230, 286546719], "tags": {"highway": "tertiary_link", "lanes": "1", "name": "\u05de\u05e8\u05de\u05d5\u05e8\u05e7", "name:en": "Marmorek", "name:he": "\u05de\u05e8\u05de\u05d5\u05e8\u05e7", "oneway": "yes", "surface": "asphalt"}}, {"type": "way", "id": 116396569, "nodes": [3676466174, 4166595487, 3474702895, 4166595488, 4166597189, 3474702893, 4166595486, 3599546659, 4166595485, 4166595484, 3599546658, 4013462832, 1312216190, 1312216103, 4166597215, 4166597214, 1312216201, 10186147112, 4014778605, 8130285104, 8130285105, 8130285108, 4166595483, 8130285107, 8130285109, 8130285106, 3278391985, 3722492910, 3722494306, 3278391981, 4166595481, 2142624991, 4166595482, 1312216205, 3278391984, 4166597217, 9402059260, 4166597216, 6139358951, 3676466174]}, {"type": "way", "id": 149522836, "nodes": [1624930574, 3722492923, 3722492917, 3722492904, 3722494326, 1624930569, 3722492905, 3722492922, 3722492907, 3722492924, 3722492921, 3722492918, 3722492900, 3722492920, 3722492912, 3722492902, 3722492916, 3722492906, 3722492901, 1624930560, 3722492903, 10895909694, 3722492919, 10895909688, 3722492908, 10895909689, 3722492909, 10895909692, 3722492915, 10895909690, 3722492911, 10895909691, 3722494325, 10895909693, 3722492913, 1624930562, 1624930574], "tags": {"addr:city": "Tel Aviv", "amenity": "theatre", "building": "yes", "building:levels": "6", "height": "27", "name": "\u05d4\u05d1\u05d9\u05de\u05d4", "name:en": "HaBima", "name:he": "\u05d4\u05d1\u05d9\u05de\u05d4", "wikidata": "Q555750"}}, {"type": "way", "id": 188963044, "nodes": [1312216118, 4166597215, 1995998526, 1995998518, 1995998522, 332207109], "tags": {"bicycle": "yes", "crossing": "marked", "crossing:markings": "yes", "foot": "designated", "footway": "crossing", "highway": "footway", "lit": "yes", "surface": "asphalt"}}, {"type": "way", "id": 188963046, "nodes": [345574947, 1995998478, 1995998484, 1995998490, 8655892085, 3992803574, 1995998498, 1995998503, 1995998532], "tags": {"highway": "footway", "lit": "yes", "surface": "concrete"}}, {"type": "way", "id": 204252495, "nodes": [2142625075, 9923871057, 9923871081, 9923871083, 9923871085, 9923871075, 9923871073, 2142625074, 2142625072, 9923871072, 9923871074, 9923871084, 9923871082, 9923871080, 9923871054, 2142625073, 2142625075], "tags": {"garden:type": "botanical", "leisure": "garden", "source": "local_knowledge"}}, {"type": "way", "id": 239790645, "nodes": [2144017077, 10238157244, 10186164724, 2384763537, 4704824333, 7769939028, 2384763536, 7769939029, 2384763534, 7769939030, 7769939031, 7769939032, 311001030], "tags": {"highway": "tertiary", "lanes": "2", "name": "\u05db\u05d9\u05db\u05e8 \u05d4\u05d1\u05d9\u05de\u05d4", "name:en": "Kikar HaBima", "name:he": "\u05db\u05d9\u05db\u05e8 \u05d4\u05d1\u05d9\u05de\u05d4", "oneway": "yes", "surface": "asphalt"}}, {"type": "way", "id": 245230713, "nodes": [3457337472, 4166597217, 3599546668], "tags": {"bicycle": "no", "highway": "pedestrian", "surface": "paving_stones"}}, {"type": "way", "id": 245844539, "nodes": [2529555429, 2529555430, 2529555431, 2529555432, 2529555429], "tags": {"amenity": "fountain", "drinking_water": "no", "fountain": "water", "natural": "water"}}, {"type": "way", "id": 362053595, "nodes": [3664366235, 3664366236, 3664366237, 3664366119, 3664366120, 3664366121, 3664366122, 3664366123, 3664366124, 3664366225, 3664366234, 3664366226, 3664366227, 3664366228, 3664366229, 3664366230, 3664366231, 3664366232, 3664366233, 3664366235], "tags": {"leisure": "garden"}}, {"type": "way", "id": 398732395, "nodes": [332207109, 355602971], "tags": {"bicycle": "designated", "cycleway:surface": "paving_stones", "foot": "designated", "footway:surface": "paving_stones", "highway": "path", "lit": "yes", "segregated": "yes", "surface": "asphalt"}}, {"type": "way", "id": 398732396, "nodes": [1995998532, 355602971, 4166597214, 1312216055], "tags": {"highway": "path", "segregated": "no", "surface": "asphalt"}}, {"type": "way", "id": 398732397, "nodes": [332207109, 1995998532], "tags": {"crossing": "marked", "crossing:markings": "yes", "footway": "crossing", "highway": "footway", "surface": "paving_stones"}}, {"type": "way", "id": 398732398, "nodes": [1995998532, 1995998535, 10186164729, 2384763534], "tags": {"crossing": "marked", "crossing:markings": "yes", "foot": "designated", "footway": "crossing", "highway": "footway", "lit": "yes", "surface": "asphalt"}}, {"type": "way", "id": 415726918, "nodes": [4167064566, 3457337468], "tags": {"handrail": "yes", "highway": "steps", "incline": "down", "layer": "-1", "ramp": "no", "surface": "paving_stones", "tunnel": "yes"}}, {"type": "way", "id": 676834307, "nodes": [384648219, 3258291989, 2546316044, 34650802, 282458079, 11107954220, 311001060, 11107954219, 384622257, 384622740, 6153617170, 3992803567, 7768335033, 3992803572, 6153617169, 384609471, 6153617168, 4413855649, 1672351151, 384604872, 384604490, 1209001015, 1995998522, 2931420301, 2931418491, 34132757], "tags": {"alt_name:en": "Rotschild Avenue;Sderot Rochield;Sderot Rothschild", "highway": "tertiary", "lanes": "2", "lit": "yes", "name": "\u05e9\u05d3\u05e8\u05d5\u05ea \u05e8\u05d5\u05d8\u05e9\u05d9\u05dc\u05d3", "name:ar": "\u062c\u0627\u062f\u0629 \u0631\u0648\u062a\u0634\u064a\u0644\u062f", "name:en": "Sderot Rothschild", "name:en3": "Rothschild Boulevard", "name:he": "\u05e9\u05d3\u05e8\u05d5\u05ea \u05e8\u05d5\u05d8\u05e9\u05d9\u05dc\u05d3", "name:ro": "Bulevardul Rothschild", "name:ru": "\u0421\u0434\u0435\u0440\u043e\u0442 \u0420\u043e\u0442\u0448\u0438\u043b\u044c\u0434", "oneway": "yes", "sidewalk:left": "separate", "sidewalk:right": "yes", "surface": "asphalt"}}, {"type": "way", "id": 922507100, "nodes": [3599546661, 1312216118, 1312216055], "tags": {"bicycle": "designated", "cycleway:surface": "paving_stones", "foot": "no", "footway:surface": "paving_stones", "highway": "cycleway", "lit": "yes", "oneway": "no", "segregated": "yes", "surface": "asphalt", "width": "1.6"}}, {"type": "way", "id": 1073370845, "nodes": [7752750455, 1995998471, 345574924, 345574807, 7768335024, 3992803573, 384611311, 345574764, 7985445001, 332207109], "tags": {"highway": "cycleway", "lit": "yes", "oneway": "no", "surface": "concrete", "width": "2"}}, {"type": "way", "id": 1082818868, "nodes": [9923871054, 9923871055, 9923871056, 9923871057], "tags": {"highway": "path", "surface": "wood"}}, {"type": "way", "id": 1082818873, "nodes": [9923871054, 2142625073, 2142625075, 9923871057], "tags": {"highway": "path", "surface": "wood"}}, {"type": "way", "id": 1082818875, "nodes": [9923871074, 9923871076, 9923871078, 9923871075, 9923871085, 9923871083, 9923871081, 9923871057, 9923871079, 9923871077, 9923871054, 9923871080, 9923871082, 9923871084, 9923871074], "tags": {"highway": "path", "surface": "wood"}}, {"type": "way", "id": 1082818876, "nodes": [9923871076, 10243950415, 9923871087, 9923871088, 9923871077], "tags": {"highway": "path", "surface": "wood"}}, {"type": "way", "id": 1082818877, "nodes": [9923871078, 9923871086, 9923871089, 9923871090, 9923871079], "tags": {"highway": "path", "surface": "wood"}}, {"type": "way", "id": 1082818878, "nodes": [9923871080, 9923871088, 9923871090, 9923871081], "tags": {"highway": "path", "surface": "wood"}}, {"type": "way", "id": 1082818879, "nodes": [9923871082, 9923871087, 9923871089, 9923871083], "tags": {"highway": "path", "surface": "wood"}}, {"type": "way", "id": 1082818880, "nodes": [9923871084, 10243950415, 9923871086, 9923871085], "tags": {"highway": "path", "surface": "wood"}}, {"type": "way", "id": 1113376779, "nodes": [10186147113, 10186147114, 10186147115, 3457337472, 1312216055], "tags": {"bicycle": "designated", "foot": "designated", "highway": "path", "lit": "yes", "mtb:name": "Ben Zion Cycle Path", "mtb:name:en": "Ben Zion Cycle Path", "oneway": "no", "sidewalk": "yes", "surface": "asphalt"}}, {"type": "way", "id": 1113376789, "nodes": [1995998518, 7769901144], "tags": {"crossing": "marked", "crossing:markings": "yes", "footway": "crossing", "highway": "footway"}}, {"type": "way", "id": 1119402675, "nodes": [4013462835, 1995998526, 34132757], "tags": {"highway": "tertiary", "lane_markings": "no", "lanes": "2", "name": "\u05de\u05e8\u05de\u05d5\u05e8\u05e7", "name:en": "Marmorek", "name:he": "\u05de\u05e8\u05de\u05d5\u05e8\u05e7", "oneway": "yes", "surface": "asphalt"}}, {"type": "way", "id": 1119402686, "nodes": [355602971, 7769918256, 7769918260, 2931418497, 7769918259, 1995998535, 2931418480, 7769918257, 7769918258, 311001030, 4014778606], "tags": {"alt_name:en": "Rotschild Avenue;Sderot Rochield;Sderot Rothschild", "highway": "tertiary", "lanes": "2", "lit": "yes", "name": "\u05e9\u05d3\u05e8\u05d5\u05ea \u05e8\u05d5\u05d8\u05e9\u05d9\u05dc\u05d3", "name:ar": "\u062c\u0627\u062f\u0629 \u0631\u0648\u062a\u0634\u064a\u0644\u062f", "name:en": "Sderot Rothschild", "name:en3": "Rothschild Boulevard", "name:he": "\u05e9\u05d3\u05e8\u05d5\u05ea \u05e8\u05d5\u05d8\u05e9\u05d9\u05dc\u05d3", "name:ro": "Bulevardul Rothschild", "name:ru": "\u0421\u0434\u0435\u0440\u043e\u0442 \u0420\u043e\u0442\u0448\u0438\u043b\u044c\u0434", "oneway": "yes", "sidewalk": "right", "surface": "asphalt"}}, {"type": "way", "id": 1165463810, "nodes": [10186147110, 10840287012, 10840287014, 10840287013, 10840287011, 10186164729], "tags": {"highway": "path"}}, {"type": "relation", "id": 1435552, "members": [{"type": "node", "ref": 1161224266, "role": "rental_station"}, {"type": "node", "ref": 1153441817, "role": "rental_station"}, {"type": "node", "ref": 1153443532, "role": "rental_station"}, {"type": "node", "ref": 1153443526, "role": "rental_station"}, {"type": "node", "ref": 1156126871, "role": "rental_station"}, {"type": "node", "ref": 1157393954, "role": "rental_station"}, {"type": "node", "ref": 1157394642, "role": "rental_station"}, {"type": "node", "ref": 1171882556, "role": "rental_station"}, {"type": "node", "ref": 1171883569, "role": "rental_station"}, {"type": "node", "ref": 1171885036, "role": "rental_station"}, {"type": "node", "ref": 1171885266, "role": "rental_station"}, {"type": "node", "ref": 1171886214, "role": "rental_station"}, {"type": "node", "ref": 1171886311, "role": "rental_station"}, {"type": "node", "ref": 1171889386, "role": "rental_station"}, {"type": "node", "ref": 1156079710, "role": "rental_station"}, {"type": "node", "ref": 1157396127, "role": "rental_station"}, {"type": "node", "ref": 1157400314, "role": "rental_station"}, {"type": "node", "ref": 1157401075, "role": "rental_station"}, {"type": "node", "ref": 1157396376, "role": "rental_station"}, {"type": "node", "ref": 1172162547, "role": "rental_station"}, {"type": "node", "ref": 1179532546, "role": "rental_station"}, {"type": "node", "ref": 1184017367, "role": "rental_station"}, {"type": "node", "ref": 1184017987, "role": "rental_station"}, {"type": "node", "ref": 1184019738, "role": "rental_station"}, {"type": "node", "ref": 1184840368, "role": "rental_station"}, {"type": "node", "ref": 1185647914, "role": "rental_station"}, {"type": "node", "ref": 1185648094, "role": "rental_station"}, {"type": "node", "ref": 1187812125, "role": "rental_station"}, {"type": "node", "ref": 1187820821, "role": "rental_station"}, {"type": "node", "ref": 1187828917, "role": "rental_station"}, {"type": "node", "ref": 1187833758, "role": "rental_station"}, {"type": "node", "ref": 1189621393, "role": "rental_station"}, {"type": "node", "ref": 1191726832, "role": "rental_station"}, {"type": "node", "ref": 1194305940, "role": "rental_station"}, {"type": "node", "ref": 1194309590, "role": "rental_station"}, {"type": "node", "ref": 1198440857, "role": "rental_station"}, {"type": "node", "ref": 1198441839, "role": "rental_station"}, {"type": "node", "ref": 1198442893, "role": "rental_station"}, {"type": "node", "ref": 1198447303, "role": "rental_station"}, {"type": "node", "ref": 1195981671, "role": "rental_station"}, {"type": "node", "ref": 1195969100, "role": "rental_station"}, {"type": "node", "ref": 1195981666, "role": "rental_station"}, {"type": "node", "ref": 1195988365, "role": "rental_station"}, {"type": "node", "ref": 1195994040, "role": "rental_station"}, {"type": "node", "ref": 1195987769, "role": "rental_station"}, {"type": "node", "ref": 1195992981, "role": "rental_station"}, {"type": "node", "ref": 1195994041, "role": "rental_station"}, {"type": "node", "ref": 1195992975, "role": "rental_station"}, {"type": "node", "ref": 1195992979, "role": "rental_station"}, {"type": "node", "ref": 1195992977, "role": "rental_station"}, {"type": "node", "ref": 1195987772, "role": "rental_station"}, {"type": "node", "ref": 1195987773, "role": "rental_station"}, {"type": "node", "ref": 1195987770, "role": "rental_station"}, {"type": "node", "ref": 1195992980, "role": "rental_station"}, {"type": "node", "ref": 1195987766, "role": "rental_station"}, {"type": "node", "ref": 1157399238, "role": "rental_station"}, {"type": "node", "ref": 1195972074, "role": "rental_station"}, {"type": "node", "ref": 1195972066, "role": "rental_station"}, {"type": "node", "ref": 1195987767, "role": "rental_station"}, {"type": "node", "ref": 1195969103, "role": "rental_station"}, {"type": "node", "ref": 1195975174, "role": "rental_station"}, {"type": "node", "ref": 1195981669, "role": "rental_station"}, {"type": "node", "ref": 1195987771, "role": "rental_station"}, {"type": "node", "ref": 1195987774, "role": "rental_station"}, {"type": "node", "ref": 1195992978, "role": "rental_station"}, {"type": "node", "ref": 1195993418, "role": "rental_station"}, {"type": "node", "ref": 1232914388, "role": "rental_station"}, {"type": "node", "ref": 1232914383, "role": "rental_station"}, {"type": "node", "ref": 1345595133, "role": "rental_station"}, {"type": "node", "ref": 1345595132, "role": "rental_station"}, {"type": "node", "ref": 1365841444, "role": "rental_station"}, {"type": "node", "ref": 1420803790, "role": "rental_station"}, {"type": "node", "ref": 1420803788, "role": "rental_station"}, {"type": "node", "ref": 1420803789, "role": "rental_station"}, {"type": "node", "ref": 1678949948, "role": "rental_station"}, {"type": "node", "ref": 1585379914, "role": "rental_station"}, {"type": "node", "ref": 1678949949, "role": "rental_station"}, {"type": "node", "ref": 1707635660, "role": "rental_station"}, {"type": "node", "ref": 1707635659, "role": "rental_station"}, {"type": "node", "ref": 1718502840, "role": "rental_station"}, {"type": "node", "ref": 1718633205, "role": "rental_station"}, {"type": "node", "ref": 1823251365, "role": "rental_station"}, {"type": "node", "ref": 1933709242, "role": "rental_station"}, {"type": "node", "ref": 1952893958, "role": "rental_station"}, {"type": "node", "ref": 1990220064, "role": "rental_station"}, {"type": "node", "ref": 1996197302, "role": "rental_station"}, {"type": "node", "ref": 1996197305, "role": "rental_station"}, {"type": "node", "ref": 2108063238, "role": "rental_station"}, {"type": "node", "ref": 2131481339, "role": "rental_station"}, {"type": "node", "ref": 2264948129, "role": "rental_station"}, {"type": "node", "ref": 2266143394, "role": "rental_station"}, {"type": "node", "ref": 2322592330, "role": "rental_station"}, {"type": "node", "ref": 2322592328, "role": "rental_station"}, {"type": "node", "ref": 2322592331, "role": "rental_station"}, {"type": "node", "ref": 2322592329, "role": "rental_station"}, {"type": "node", "ref": 2395471108, "role": "rental_station"}, {"type": "node", "ref": 2611449932, "role": "rental_station"}, {"type": "node", "ref": 2666736295, "role": "rental_station"}, {"type": "node", "ref": 2666736290, "role": "rental_station"}, {"type": "node", "ref": 2666736297, "role": "rental_station"}, {"type": "node", "ref": 2666736281, "role": "rental_station"}, {"type": "node", "ref": 2666736286, "role": "rental_station"}, {"type": "node", "ref": 2669725301, "role": "rental_station"}, {"type": "node", "ref": 2676543498, "role": "rental_station"}, {"type": "node", "ref": 2676662946, "role": "rental_station"}, {"type": "node", "ref": 2676674710, "role": "rental_station"}, {"type": "node", "ref": 2676674711, "role": "rental_station"}, {"type": "node", "ref": 2676709410, "role": "rental_station"}, {"type": "node", "ref": 2676728444, "role": "rental_station"}, {"type": "node", "ref": 2676728448, "role": "rental_station"}, {"type": "node", "ref": 2676738736, "role": "rental_station"}, {"type": "node", "ref": 2676747632, "role": "rental_station"}, {"type": "node", "ref": 2676747630, "role": "rental_station"}, {"type": "node", "ref": 2676747631, "role": "rental_station"}, {"type": "node", "ref": 2696091146, "role": "rental_station"}, {"type": "node", "ref": 2821371256, "role": "rental_station"}, {"type": "node", "ref": 2821371254, "role": "rental_station"}, {"type": "node", "ref": 3418493696, "role": "rental_station"}, {"type": "node", "ref": 3418493697, "role": "rental_station"}, {"type": "node", "ref": 3418493698, "role": "rental_station"}, {"type": "node", "ref": 3420287057, "role": "rental_station"}, {"type": "node", "ref": 3451158815, "role": "bicycle_rental"}, {"type": "node", "ref": 3493130420, "role": "bicycle_rental"}, {"type": "node", "ref": 3564373594, "role": "rental_station"}, {"type": "node", "ref": 2384763531, "role": "rental_station"}, {"type": "node", "ref": 3593580064, "role": "rental_station"}, {"type": "node", "ref": 3593580065, "role": "rental_station"}, {"type": "node", "ref": 3593580067, "role": "rental_station"}, {"type": "node", "ref": 3594348651, "role": "rental_station"}, {"type": "node", "ref": 3594348672, "role": "rental_station"}, {"type": "node", "ref": 3595293057, "role": "rental_station"}, {"type": "node", "ref": 3595293064, "role": "rental_station"}, {"type": "node", "ref": 3598313164, "role": "rental_station"}, {"type": "node", "ref": 1368037329, "role": "rental_station"}, {"type": "node", "ref": 2904593464, "role": "rental_station"}, {"type": "node", "ref": 2904570796, "role": "rental_station"}, {"type": "node", "ref": 2902720103, "role": "rental_station"}, {"type": "node", "ref": 3609549952, "role": "rental_station"}, {"type": "node", "ref": 3668915407, "role": "rental_station"}, {"type": "node", "ref": 3687352758, "role": "rental_station"}, {"type": "node", "ref": 3687352754, "role": "rental_station"}, {"type": "node", "ref": 3687352755, "role": "rental_station"}, {"type": "node", "ref": 3687383944, "role": "rental_station"}, {"type": "node", "ref": 3687383941, "role": "rental_station"}, {"type": "node", "ref": 3711111242, "role": "rental_station"}, {"type": "node", "ref": 3739715009, "role": "rental_station"}, {"type": "node", "ref": 3752532387, "role": "rental_station"}, {"type": "node", "ref": 3774173493, "role": "rental_station"}, {"type": "node", "ref": 3816280471, "role": "rental_station"}, {"type": "node", "ref": 3816270213, "role": "rental_station"}, {"type": "node", "ref": 3817028554, "role": "rental_station"}, {"type": "node", "ref": 3817028553, "role": "rental_station"}, {"type": "node", "ref": 2946156632, "role": "rental_station"}, {"type": "node", "ref": 2946147140, "role": "rental_station"}, {"type": "node", "ref": 1538692937, "role": "rental_station"}, {"type": "node", "ref": 3817373278, "role": "rental_station"}, {"type": "node", "ref": 3873177171, "role": "rental_station"}, {"type": "node", "ref": 3873177172, "role": "rental_station"}, {"type": "node", "ref": 3985298608, "role": "rental_station"}, {"type": "node", "ref": 3987152345, "role": "rental_station"}, {"type": "node", "ref": 3992078741, "role": "rental_station"}, {"type": "node", "ref": 3992078742, "role": "rental_station"}, {"type": "node", "ref": 3992078750, "role": "rental_station"}, {"type": "node", "ref": 3996264757, "role": "rental_station"}, {"type": "node", "ref": 3996264758, "role": "rental_station"}, {"type": "node", "ref": 3996264759, "role": "rental_station"}, {"type": "node", "ref": 3996264760, "role": "rental_station"}, {"type": "node", "ref": 3996264763, "role": "rental_station"}, {"type": "node", "ref": 3996264773, "role": "rental_station"}, {"type": "node", "ref": 3996264774, "role": "rental_station"}, {"type": "node", "ref": 3996291957, "role": "rental_station"}, {"type": "node", "ref": 3997197420, "role": "rental_station"}, {"type": "node", "ref": 3997197421, "role": "rental_station"}, {"type": "node", "ref": 4003454690, "role": "rental_station"}, {"type": "node", "ref": 4003454691, "role": "rental_station"}, {"type": "node", "ref": 4003454696, "role": "rental_station"}, {"type": "node", "ref": 1773354948, "role": "rental_station"}, {"type": "node", "ref": 4009558140, "role": "rental_station"}, {"type": "node", "ref": 4009558141, "role": "rental_station"}, {"type": "node", "ref": 4082010273, "role": "rental_station"}, {"type": "node", "ref": 4083898512, "role": "rental_station"}, {"type": "node", "ref": 6300638485, "role": "rental_station"}, {"type": "node", "ref": 6300638486, "role": "rental_station"}, {"type": "node", "ref": 4694178990, "role": "rental_station"}, {"type": "node", "ref": 5594780130, "role": "rental_station"}, {"type": "node", "ref": 6332795968, "role": "rental_station"}, {"type": "node", "ref": 6879485160, "role": "rental_station"}, {"type": "node", "ref": 6879485161, "role": "rental_station"}], "tags": {"amenity": "bicycle_rental", "name": "\u05ea\u05dc-\u05d0\u05d5\u05e4\u05df (\u05d0\u05d5\u05e4\u05e0\u05d9\u05d9\u05dd \u05dc\u05d4\u05e9\u05db\u05e8\u05d4 \u05ea\u05dc \u05d0\u05d1\u05d9\u05d1)", "name:en": "Tel-O-Fun (Tel Aviv Bicycle Rental)", "name:he": "\u05ea\u05dc-\u05d0\u05d5\u05e4\u05df (\u05d0\u05d5\u05e4\u05e0\u05d9\u05d9\u05dd \u05dc\u05d4\u05e9\u05db\u05e8\u05d4 \u05ea\u05dc \u05d0\u05d1\u05d9\u05d1)", "name:ru": "\u0422\u0435\u043b\u044c-\u041e\u0444\u0430\u043d", "phone": "*6070", "type": "network", "website": "https://www.tel-o-fun.co.il/"}}, {"type": "relation", "id": 7276783, "members": [{"type": "way", "ref": 116396569, "role": "outer"}, {"type": "way", "ref": 204252495, "role": "inner"}, {"type": "way", "ref": 245844539, "role": "inner"}, {"type": "way", "ref": 362053595, "role": "inner"}], "tags": {"area": "yes", "artist_name": "Dani Karavan", "fixme": "name, name:he mismatch. Flagged by SafwatHalaby_bot-nameCopy", "highway": "pedestrian", "name": "\u05db\u05d9\u05db\u05e8 \u05d4\u05d1\u05d9\u05de\u05d4", "name:en": "Habima Square", "name:en1": "Kikar HaBima", "name:he": "\u05db\u05d9\u05db\u05e8 \u05d4\u05ea\u05e8\u05d1\u05d5\u05ea", "name:he1": "\u05db\u05d9\u05db\u05e8 \u05d4\u05d1\u05d9\u05de\u05d4", "place": "square", "surface": "concrete", "type": "multipolygon", "wikidata": "Q877711", "wikipedia": "he:\u05db\u05d9\u05db\u05e8 \u05d4\u05ea\u05d6\u05de\u05d5\u05e8\u05ea \u05e2\"\u05e9 \u05dc\u05d9\u05d0\u05d5\u05e0\u05e8\u05d3 \u05d1\u05e8\u05e0\u05e9\u05d8\u05d9\u05d9\u05df", "wikipedia:he": "\u05db\u05d9\u05db\u05e8 \u05d4\u05ea\u05d6\u05de\u05d5\u05e8\u05ea \u05e2\"\u05e9 \u05dc\u05d9\u05d0\u05d5\u05e0\u05e8\u05d3 \u05d1\u05e8\u05e0\u05e9\u05d8\u05d9\u05d9\u05df"}}]}