{"version": 0.6, "generator": "Overpass API 0.7.62.5 1bd436f1", "osm3s": {"timestamp_osm_base": "2025-05-29T17:06:50Z", "copyright": "The data included in this document is from www.openstreetmap.org. The data is made available under ODbL."}, "elements": [{"type": "node", "id": 1227320, "lat": 32.0735985, "lon": 34.7817537, "tags": {"highway": "traffic_signals", "traffic_signals": "signal"}}, {"type": "node", "id": 34132751, "lat": 32.0707777, "lon": 34.7823083}, {"type": "node", "id": 34132753, "lat": 32.0710098, "lon": 34.7820585, "tags": {"button_operated": "no", "crossing": "traffic_signals", "highway": "crossing", "kerb": "lowered", "traffic_signals:sound": "yes", "traffic_signals:vibration": "yes"}}, {"type": "node", "id": 34132755, "lat": 32.0714067, "lon": 34.7808185}, {"type": "node", "id": 339422118, "lat": 32.0710864, "lon": 34.7819669, "tags": {"highway": "traffic_signals", "traffic_signals": "signal"}}, {"type": "node", "id": 339422204, "lat": 32.071263, "lon": 34.782207}, {"type": "node", "id": 384604490, "lat": 32.071326, "lon": 34.7792056}, {"type": "node", "id": 384604491, "lat": 32.0706704, "lon": 34.7816314}, {"type": "node", "id": 384604871, "lat": 32.0702992, "lon": 34.7814275}, {"type": "node", "id": 387493754, "lat": 32.0717471, "lon": 34.7818355}, {"type": "node", "id": 387494738, "lat": 32.0719273, "lon": 34.7828627}, {"type": "node", "id": 387494926, "lat": 32.072966, "lon": 34.7817896}, {"type": "node", "id": 476376664, "lat": 32.0709549, "lon": 34.7806291}, {"type": "node", "id": 530185823, "lat": 32.0735151, "lon": 34.7818581, "tags": {"highway": "traffic_signals", "traffic_signals": "signal"}}, {"type": "node", "id": 687536240, "lat": 32.0709901, "lon": 34.781668, "tags": {"addr:housenumber": "187", "addr:street": "\u05d9\u05d4\u05d5\u05d3\u05d4 \u05d4\u05dc\u05d5\u05d9", "amenity": "pub", "name": "\u05ea\u05de\u05d5\u05d6", "name:en": "Tamuz", "name:he": "\u05ea\u05de\u05d5\u05d6"}}, {"type": "node", "id": 1312216051, "lat": 32.0729806, "lon": 34.7817163}, {"type": "node", "id": 1312216095, "lat": 32.0714561, "lon": 34.7808393, "tags": {"bicycle": "designated", "crossing": "marked", "crossing:markings": "yes", "foot": "designated", "highway": "crossing", "segregated": "yes"}}, {"type": "node", "id": 1312216122, "lat": 32.0735467, "lon": 34.7819194, "tags": {"bicycle": "designated", "crossing": "traffic_signals", "highway": "crossing"}}, {"type": "node", "id": 1312216124, "lat": 32.0717642, "lon": 34.7817603}, {"type": "node", "id": 1312216144, "lat": 32.0712719, "lon": 34.7817638}, {"type": "node", "id": 1312216172, "lat": 32.0712692, "lon": 34.7818482, "tags": {"bicycle": "designated", "button_operated": "no", "crossing": "traffic_signals", "highway": "crossing", "traffic_signals:sound": "yes", "traffic_signals:vibration": "yes"}}, {"type": "node", "id": 1312216194, "lat": 32.0733527, "lon": 34.7817254}, {"type": "node", "id": 1312216202, "lat": 32.0725442, "lon": 34.7817374}, {"type": "node", "id": 1312216204, "lat": 32.073495, "lon": 34.7819098, "tags": {"crossing": "traffic_signals", "highway": "crossing"}}, {"type": "node", "id": 1312839269, "lat": 32.0717343, "lon": 34.7800266, "tags": {"bicycle": "designated", "crossing": "marked", "crossing:markings": "yes", "foot": "designated", "highway": "crossing", "segregated": "yes"}}, {"type": "node", "id": 1438109998, "lat": 32.0714363, "lon": 34.7820994, "tags": {"amenity": "bank", "branch:name": "\u05d4\u05de\u05d0\u05e1\u05e4\u05d9\u05dd", "branch:ref": "510", "brand": "\u05d1\u05e0\u05e7 \u05d4\u05e4\u05d5\u05e2\u05dc\u05d9\u05dd", "brand:en": "Bank Hapoalim", "brand:he": "\u05d1\u05e0\u05e7 \u05d4\u05e4\u05d5\u05e2\u05dc\u05d9\u05dd", "brand:wikidata": "Q2666775", "brand:wikipedia": "en:Bank Hapoalim", "drive_through": "no", "name": "\u05d1\u05e0\u05e7 \u05d4\u05e4\u05d5\u05e2\u05dc\u05d9\u05dd", "name:ar": "\u0628\u0646\u0643 \u0647\u0628\u0648\u0639\u0644\u064a\u0645", "name:en": "Bank Hapoalim", "name:he": "\u05d1\u05e0\u05e7 \u05d4\u05e4\u05d5\u05e2\u05dc\u05d9\u05dd", "name:ru": "\u0411\u0430\u043d\u043a \u0410\u043f\u043e\u0430\u043b\u0438\u043c", "website": "https://www.bankhapoalim.co.il"}}, {"type": "node", "id": 1672351169, "lat": 32.0698781, "lon": 34.7811784, "tags": {"highway": "traffic_signals"}}, {"type": "node", "id": 1678949818, "lat": 32.069621, "lon": 34.782876, "tags": {"highway": "traffic_signals"}}, {"type": "node", "id": 1678949829, "lat": 32.0703989, "lon": 34.7825798}, {"type": "node", "id": 2365353778, "lat": 32.0709842, "lon": 34.7818269, "tags": {"highway": "traffic_signals", "traffic_signals": "signal"}}, {"type": "node", "id": 2367621203, "lat": 32.0712298, "lon": 34.782038}, {"type": "node", "id": 2381576084, "lat": 32.0699214, "lon": 34.7827631}, {"type": "node", "id": 2473987515, "lat": 32.0711281, "lon": 34.7818485, "tags": {"highway": "traffic_signals"}}, {"type": "node", "id": 2692296649, "lat": 32.0733859, "lon": 34.7817176}, {"type": "node", "id": 2692296658, "lat": 32.0734048, "lon": 34.7817753}, {"type": "node", "id": 2692296666, "lat": 32.0733952, "lon": 34.7818391}, {"type": "node", "id": 3476507813, "lat": 32.071644, "lon": 34.7825883}, {"type": "node", "id": 3476507815, "lat": 32.0716563, "lon": 34.7819021}, {"type": "node", "id": 3599546658, "lat": 32.0717886, "lon": 34.7799355}, {"type": "node", "id": 3599546661, "lat": 32.0718371, "lon": 34.77987}, {"type": "node", "id": 3675733111, "lat": 32.0705011, "lon": 34.7825144}, {"type": "node", "id": 3675733112, "lat": 32.0705863, "lon": 34.7824498}, {"type": "node", "id": 3675733261, "lat": 32.0704565, "lon": 34.7825441}, {"type": "node", "id": 3700677393, "lat": 32.0703323, "lon": 34.7827563, "tags": {"crossing": "uncontrolled", "crossing_ref": "zebra", "highway": "crossing"}}, {"type": "node", "id": 3700677399, "lat": 32.0701449, "lon": 34.7826799}, {"type": "node", "id": 3717712396, "lat": 32.0703008, "lon": 34.7826213}, {"type": "node", "id": 3736070222, "lat": 32.072331, "lon": 34.7832503}, {"type": "node", "id": 3736070525, "lat": 32.0737997, "lon": 34.7819}, {"type": "node", "id": 4013462834, "lat": 32.071782, "lon": 34.7799433, "tags": {"bicycle": "designated", "crossing": "marked", "crossing:markings": "yes", "foot": "designated", "highway": "crossing", "segregated": "yes"}}, {"type": "node", "id": 4587267137, "lat": 32.0715256, "lon": 34.7820532, "tags": {"amenity": "bench", "backrest": "no", "material": "wood"}}, {"type": "node", "id": 4841545565, "lat": 32.0716417, "lon": 34.7820724}, {"type": "node", "id": 6801841057, "lat": 32.0711769, "lon": 34.7820939, "tags": {"bicycle": "designated", "button_operated": "no", "crossing": "traffic_signals", "crossing:island": "yes", "highway": "crossing", "traffic_signals:sound": "yes", "traffic_signals:vibration": "yes"}}, {"type": "node", "id": 6801850949, "lat": 32.0713054, "lon": 34.7792846, "tags": {"crossing": "uncontrolled", "crossing_ref": "zebra", "highway": "crossing"}}, {"type": "node", "id": 7037858222, "lat": 32.071249, "lon": 34.7817807, "tags": {"amenity": "waste_basket", "waste": "trash"}}, {"type": "node", "id": 7153596743, "lat": 32.0696812, "lon": 34.7828534, "tags": {"button_operated": "no", "crossing": "traffic_signals", "highway": "crossing"}}, {"type": "node", "id": 8676344698, "lat": 32.0716907, "lon": 34.7800763}, {"type": "node", "id": 8676344699, "lat": 32.0712253, "lon": 34.7816911}, {"type": "node", "id": 9105253312, "lat": 32.0713686, "lon": 34.7818104, "tags": {"access": "yes", "amenity": "bicycle_parking", "bicycle_parking": "stands", "capacity": "3", "covered": "no"}}, {"type": "node", "id": 9411445554, "lat": 32.0712681, "lon": 34.7819287, "tags": {"button_operated": "no", "crossing": "traffic_signals", "highway": "crossing", "traffic_signals:sound": "yes", "traffic_signals:vibration": "yes"}}, {"type": "node", "id": 9411445562, "lat": 32.0711819, "lon": 34.7816478, "tags": {"button_operated": "no", "crossing": "traffic_signals", "highway": "crossing", "traffic_signals:sound": "yes", "traffic_signals:vibration": "yes"}}, {"type": "node", "id": 9411445565, "lat": 32.0712268, "lon": 34.7816621}, {"type": "node", "id": 9683501527, "lat": 32.0697449, "lon": 34.7828293}, {"type": "node", "id": 9694164994, "lat": 32.0713495, "lon": 34.7821378}, {"type": "node", "id": 9694164995, "lat": 32.07138, "lon": 34.782077}, {"type": "node", "id": 9694164996, "lat": 32.0721914, "lon": 34.7820627}, {"type": "node", "id": 9694164997, "lat": 32.0726147, "lon": 34.7820521}, {"type": "node", "id": 9694164998, "lat": 32.0733637, "lon": 34.7820171}, {"type": "node", "id": 10186164730, "lat": 32.0712625, "lon": 34.7819703}, {"type": "node", "id": 10186164731, "lat": 32.0711901, "lon": 34.7819377}, {"type": "node", "id": 10186164732, "lat": 32.0712486, "lon": 34.7817469}, {"type": "node", "id": 10186164733, "lat": 32.071232, "lon": 34.7817215}, {"type": "node", "id": 10186164734, "lat": 32.071039, "lon": 34.7818387, "tags": {"button_operated": "no", "crossing": "traffic_signals", "highway": "crossing", "traffic_signals:sound": "yes", "traffic_signals:vibration": "yes"}}, {"type": "node", "id": 10186164735, "lat": 32.0710181, "lon": 34.7818733, "tags": {"button_operated": "no", "crossing": "traffic_signals", "highway": "crossing", "traffic_signals:sound": "yes", "traffic_signals:vibration": "yes"}}, {"type": "node", "id": 10186164736, "lat": 32.0710334, "lon": 34.7818654}, {"type": "node", "id": 10238191270, "lat": 32.0734484, "lon": 34.7818429}, {"type": "node", "id": 10238264150, "lat": 32.069932, "lon": 34.7812103, "tags": {"crossing": "traffic_signals", "highway": "crossing"}}, {"type": "node", "id": 10578420600, "lat": 32.0725292, "lon": 34.7834048}, {"type": "node", "id": 11066164305, "lat": 32.0709216, "lon": 34.7823202, "tags": {"addr:housenumber": "20", "addr:street": "\u05e7\u05e8\u05dc\u05d9\u05d1\u05da", "amenity": "fast_food", "indoor_seating": "no", "name": "\u05e1\u05d5\u05d3\u05d5\u05da", "name:en": "Suduch", "name:he": "\u05e1\u05d5\u05d3\u05d5\u05da", "outdoor_seating": "yes"}}, {"type": "node", "id": 12084734255, "lat": 32.0715143, "lon": 34.7824585}, {"type": "node", "id": 12084734260, "lat": 32.0733316, "lon": 34.7820186}, {"type": "node", "id": 12084734261, "lat": 32.0710883, "lon": 34.7820691}, {"type": "node", "id": 12084734262, "lat": 32.0710298, "lon": 34.7820979}, {"type": "node", "id": 12084734263, "lat": 32.070882, "lon": 34.7822494}, {"type": "node", "id": 12084734264, "lat": 32.0707682, "lon": 34.7823529}, {"type": "node", "id": 12084734265, "lat": 32.0705962, "lon": 34.7824927}, {"type": "node", "id": 12084734266, "lat": 32.0705089, "lon": 34.782544}, {"type": "node", "id": 12084734267, "lat": 32.0704055, "lon": 34.7826004}, {"type": "node", "id": 12084734268, "lat": 32.0703478, "lon": 34.7826478}, {"type": "node", "id": 12084739569, "lat": 32.0703501, "lon": 34.7827219}, {"type": "node", "id": 12086106108, "lat": 32.0703421, "lon": 34.7826843}, {"type": "way", "id": 32003758, "nodes": [1227320, 2692296658, 387494926, 387493754, 1312216172, 2473987515], "tags": {"highway": "tertiary", "lanes": "2", "name": "\u05d0\u05d1\u05df \u05d2\u05d1\u05d9\u05e8\u05d5\u05dc", "name:ar": "\u0628\u0646 \u062c\u0627\u0628\u064a\u0631\u0648\u0644", "name:en": "Ibn Gabirol", "name:en1": "Ibn Gvirol", "name:en2": "Even Gvirol", "name:en3": "Eben Gvirol", "name:he": "\u05d0\u05d1\u05df \u05d2\u05d1\u05d9\u05e8\u05d5\u05dc", "name:ro": "Bulevardul Ibn Gabirol", "name:ru": "\u0418\u0431\u043d \u0413\u0432\u0438\u0440\u043e\u043b\u044c", "oneway": "yes"}}, {"type": "way", "id": 33625502, "nodes": [384604490, 6801850949, 476376664, 384604491], "tags": {"highway": "residential", "name": "\u05d1\u05e8\u05d3\u05d9\u05e6'\u05d1\u05e1\u05e7\u05d9", "name:en": "Berdyczewski", "name:en1": "Berdichevsky", "name:en2": "Bradichevski", "name:en3": "Bradiczevski", "name:en4": "Berdichevski", "name:he": "\u05d1\u05e8\u05d3\u05d9\u05e6'\u05d1\u05e1\u05e7\u05d9", "oneway": "yes", "sidewalk": "both", "surface": "asphalt"}}, {"type": "way", "id": 102850849, "nodes": [2473987515, 10186164734, 2365353778], "tags": {"highway": "tertiary", "lanes": "3", "name": "\u05d9\u05d4\u05d5\u05d3\u05d4 \u05d4\u05dc\u05d5\u05d9", "name:ar": "\u064a\u0650\u0647\u0648\u062f\u0627 \u0647\u0627\u0644\u064a\u06a8\u064a", "name:en": "Yehuda HaLevi", "name:en1": "Yehuda Ha'Levi", "name:en2": "Yehuda HaLevy", "name:en3": "Jehuda HaLevi", "name:en4": "Jehuda Ha'Levi", "name:he": "\u05d9\u05d4\u05d5\u05d3\u05d4 \u05d4\u05dc\u05d5\u05d9", "name:ru": "\u0418\u0435\u0433\u0443\u0434\u0430 \u0425\u0430\u041b\u0435\u0432\u0438", "oneway": "yes", "surface": "asphalt"}}, {"type": "way", "id": 116396566, "nodes": [1312216144, 1312216172, 9411445554, 10186164730, 2367621203], "tags": {"bicycle": "designated", "cycleway:surface": "asphalt", "foot": "designated", "footway:surface": "asphalt", "highway": "path", "lit": "yes", "oneway": "no", "segregated": "yes"}}, {"type": "way", "id": 155506384, "nodes": [1678949818, 7153596743, 9683501527, 2381576084, 3700677399, 3717712396, 1678949829, 3675733261, 3675733111, 3675733112, 34132751, 34132753, 339422118], "tags": {"highway": "tertiary", "lanes": "3", "name": "\u05e7\u05e8\u05dc\u05d9\u05d1\u05da", "name:en": "Carlebach", "name:he": "\u05e7\u05e8\u05dc\u05d9\u05d1\u05da", "oneway": "yes", "surface": "asphalt"}}, {"type": "way", "id": 263603947, "nodes": [2367621203, 9694164994, 9694164995, 4841545565, 9694164996, 9694164997, 12084734260, 9694164998, 1312216204, 1312216122, 3736070525], "tags": {"bicycle": "no", "foot": "designated", "highway": "path", "layer": "0"}}, {"type": "way", "id": 263603948, "nodes": [2692296649, 1312216194, 1312216051, 1312216202, 1312216124, 1312216144], "tags": {"bicycle": "designated", "foot": "designated", "highway": "path", "oneway": "no", "segregated": "yes", "surface": "paved"}}, {"type": "way", "id": 759674359, "nodes": [10578420600, 3736070222, 387494738, 3476507813, 12084734255], "tags": {"highway": "residential", "lit": "yes", "name": "\u05dc\u05e1\u05e7\u05d5\u05d1", "name:en": "Laskov", "name:he": "\u05dc\u05e1\u05e7\u05d5\u05d1", "sidewalk": "both", "sidewalk:both:surface": "paving_stones", "surface": "asphalt"}}, {"type": "way", "id": 912680010, "nodes": [6801841057, 2367621203], "tags": {"bicycle": "designated", "cycleway:surface": "asphalt", "foot": "designated", "footway:surface": "asphalt", "highway": "path", "lit": "yes", "oneway": "no", "segregated": "yes"}}, {"type": "way", "id": 912680012, "nodes": [339422118, 10186164731, 9411445554, 3476507815, 2692296666, 10238191270, 530185823], "tags": {"access": "no", "bus": "yes", "foot": "yes", "highway": "service", "lanes": "1", "name": "\u05d0\u05d1\u05df \u05d2\u05d1\u05d9\u05e8\u05d5\u05dc", "name:ar": "\u0628\u0646 \u062c\u0627\u0628\u064a\u0631\u0648\u0644", "name:en": "Ibn Gabirol", "name:en1": "Ibn Gvirol", "name:en2": "Even Gvirol", "name:en3": "Eben Gvirol", "name:he": "\u05d0\u05d1\u05df \u05d2\u05d1\u05d9\u05e8\u05d5\u05dc", "name:ro": "Bulevardul Ibn Gabirol", "name:ru": "\u0418\u0431\u043d \u0413\u0432\u0438\u0440\u043e\u043b\u044c", "oneway": "yes", "service": "bus", "surface": "asphalt"}}, {"type": "way", "id": 912680014, "nodes": [339422118, 10186164735, 2365353778], "tags": {"highway": "tertiary_link", "lanes": "2", "oneway": "yes", "surface": "asphalt"}}, {"type": "way", "id": 912680019, "nodes": [2473987515, 9411445562, 34132755], "tags": {"highway": "tertiary", "lane_markings": "no", "lanes": "1", "name": "\u05de\u05e8\u05de\u05d5\u05e8\u05e7", "name:en": "Marmorek", "name:he": "\u05de\u05e8\u05de\u05d5\u05e8\u05e7", "oneway": "yes", "surface": "asphalt"}}, {"type": "way", "id": 912680020, "nodes": [339422118, 2473987515], "tags": {"highway": "tertiary", "lane_markings": "no", "lanes": "1", "name": "\u05de\u05e8\u05de\u05d5\u05e8\u05e7", "name:en": "Marmorek", "name:he": "\u05de\u05e8\u05de\u05d5\u05e8\u05e7", "oneway": "yes", "surface": "asphalt"}}, {"type": "way", "id": 936345122, "nodes": [3599546661, 3599546658, 4013462834, 1312839269, 8676344698, 1312216095, 9411445565, 8676344699, 10186164733, 10186164732, 1312216144], "tags": {"highway": "cycleway", "oneway": "no", "surface": "paving_stones", "width": "2"}}, {"type": "way", "id": 1020415261, "nodes": [9411445565, 9411445562], "tags": {"highway": "path", "surface": "asphalt"}}, {"type": "way", "id": 1113376790, "nodes": [10186164734, 10186164736, 10186164735], "tags": {"crossing": "marked", "crossing:markings": "yes", "footway": "crossing", "highway": "footway"}}, {"type": "way", "id": 1178549618, "nodes": [2365353778, 384604491, 384604871, 10238264150, 1672351169], "tags": {"highway": "tertiary", "lanes": "3", "name": "\u05d9\u05d4\u05d5\u05d3\u05d4 \u05d4\u05dc\u05d5\u05d9", "name:ar": "\u064a\u0650\u0647\u0648\u062f\u0627 \u0647\u0627\u0644\u064a\u06a8\u064a", "name:en": "Yehuda HaLevi", "name:en1": "Yehuda Ha'Levi", "name:en2": "Yehuda HaLevy", "name:en3": "Jehuda HaLevi", "name:en4": "Jehuda Ha'Levi", "name:he": "\u05d9\u05d4\u05d5\u05d3\u05d4 \u05d4\u05dc\u05d5\u05d9", "name:ru": "\u0418\u0435\u0433\u0443\u0434\u0430 \u0425\u0430\u041b\u0435\u0432\u0438", "oneway": "yes", "surface": "asphalt"}}, {"type": "way", "id": 1304796509, "nodes": [12084734255, 339422204, 6801841057, 339422118], "tags": {"highway": "residential", "lit": "yes", "name": "\u05dc\u05e1\u05e7\u05d5\u05d1", "name:en": "Laskov", "name:he": "\u05dc\u05e1\u05e7\u05d5\u05d1", "sidewalk": "both", "sidewalk:both:surface": "paving_stones", "surface": "asphalt"}}, {"type": "way", "id": 1304796511, "nodes": [6801841057, 12084734261, 12084734262, 12084734263, 12084734264, 12084734265, 12084734266, 12084734267, 12084734268, 12086106108, 12084739569, 3700677393], "tags": {"highway": "cycleway", "surface": "asphalt"}}]}