{"version": 0.6, "generator": "Overpass API 0.7.62.5 1bd436f1", "osm3s": {"timestamp_osm_base": "2025-05-29T13:47:21Z", "copyright": "The data included in this document is from www.openstreetmap.org. The data is made available under ODbL."}, "elements": [{"type": "node", "id": 286546123, "lat": 32.053914, "lon": 34.779935}, {"type": "node", "id": 338658900, "lat": 32.0548179, "lon": 34.7754514, "tags": {"highway": "traffic_signals"}}, {"type": "node", "id": 540422648, "lat": 32.0543438, "lon": 34.7777125, "tags": {"highway": "traffic_signals"}}, {"type": "node", "id": 549268582, "lat": 32.053131, "lon": 34.7788735}, {"type": "node", "id": 549268584, "lat": 32.0540793, "lon": 34.7789126}, {"type": "node", "id": 549268886, "lat": 32.0534706, "lon": 34.7774367}, {"type": "node", "id": 549268888, "lat": 32.0540058, "lon": 34.7750713}, {"type": "node", "id": 549269607, "lat": 32.0519071, "lon": 34.7776274}, {"type": "node", "id": 1121651997, "lat": 32.0539672, "lon": 34.7796142}, {"type": "node", "id": 1568022473, "lat": 32.0510215, "lon": 34.7766835}, {"type": "node", "id": 1571655983, "lat": 32.0544179, "lon": 34.7777331, "tags": {"highway": "traffic_signals"}}, {"type": "node", "id": 1571656057, "lat": 32.0512092, "lon": 34.7756346}, {"type": "node", "id": 1571656101, "lat": 32.0523628, "lon": 34.7770944}, {"type": "node", "id": 1571656170, "lat": 32.05419, "lon": 34.7783594}, {"type": "node", "id": 1571656208, "lat": 32.0541835, "lon": 34.7789648}, {"type": "node", "id": 1571656214, "lat": 32.051868, "lon": 34.7769313}, {"type": "node", "id": 1571656289, "lat": 32.0525253, "lon": 34.7760225}, {"type": "node", "id": 1571656318, "lat": 32.0508095, "lon": 34.7772899}, {"type": "node", "id": 1571656326, "lat": 32.0535862, "lon": 34.7769142}, {"type": "node", "id": 1571656331, "lat": 32.0521014, "lon": 34.7759025}, {"type": "node", "id": 1571656363, "lat": 32.0545718, "lon": 34.7766929}, {"type": "node", "id": 1571656392, "lat": 32.0546977, "lon": 34.7761107}, {"type": "node", "id": 1571656397, "lat": 32.0522369, "lon": 34.7777237}, {"type": "node", "id": 1571656422, "lat": 32.0544533, "lon": 34.7771764}, {"type": "node", "id": 1571656499, "lat": 32.0533285, "lon": 34.778077}, {"type": "node", "id": 1571656538, "lat": 32.054859, "lon": 34.7756374}, {"type": "node", "id": 1571656551, "lat": 32.0514442, "lon": 34.7767843}, {"type": "node", "id": 1571656573, "lat": 32.0537921, "lon": 34.7759707}, {"type": "node", "id": 1571656577, "lat": 32.0524537, "lon": 34.776556}, {"type": "node", "id": 1571656585, "lat": 32.0540659, "lon": 34.7796544}, {"type": "node", "id": 1571656619, "lat": 32.053686, "lon": 34.7764134}, {"type": "node", "id": 1571656641, "lat": 32.0548886, "lon": 34.7754937, "tags": {"highway": "traffic_signals"}}, {"type": "node", "id": 1571763562, "lat": 32.0546399, "lon": 34.7783309}, {"type": "node", "id": 1571763570, "lat": 32.0542583, "lon": 34.7785283}, {"type": "node", "id": 1571763898, "lat": 32.0544358, "lon": 34.7782091}, {"type": "node", "id": 1571763977, "lat": 32.0543393, "lon": 34.7781359}, {"type": "node", "id": 1571764066, "lat": 32.0544688, "lon": 34.7775046}, {"type": "node", "id": 1571764245, "lat": 32.0544924, "lon": 34.7782557}, {"type": "node", "id": 1910253872, "lat": 32.054126, "lon": 34.7786769}, {"type": "node", "id": 1910253877, "lat": 32.0542334, "lon": 34.7786749}, {"type": "node", "id": 1911081888, "lat": 32.0541588, "lon": 34.7785075}, {"type": "node", "id": 2164531100, "lat": 32.0534661, "lon": 34.7774582}, {"type": "node", "id": 2164531101, "lat": 32.0543369, "lon": 34.7777416}, {"type": "node", "id": 2381515586, "lat": 32.0539993, "lon": 34.7800153}, {"type": "node", "id": 2390930258, "lat": 32.0539743, "lon": 34.7800916}, {"type": "node", "id": 2390930262, "lat": 32.0538623, "lon": 34.7803348}, {"type": "node", "id": 2390930298, "lat": 32.0539243, "lon": 34.7801962}, {"type": "node", "id": 2470035518, "lat": 32.0548553, "lon": 34.7752571, "tags": {"highway": "traffic_signals"}}, {"type": "node", "id": 2470035523, "lat": 32.0548375, "lon": 34.7753563}, {"type": "node", "id": 4253794364, "lat": 32.0544636, "lon": 34.7775319}, {"type": "node", "id": 4462556311, "lat": 32.0542818, "lon": 34.7776087, "tags": {"addr:city": "Tel Aviv-Yafo", "addr:housenumber": "134", "addr:street": "\u05e9\u05dc\u05de\u05d4", "amenity": "restaurant", "cuisine": "chinese", "delivery": "yes", "name": "\u05e1\u05d9\u05e0\u05d2 \u05dc\u05d5\u05e0\u05d2", "name:en": "Xing Long", "name:he": "\u05e1\u05d9\u05e0\u05d2 \u05dc\u05d5\u05e0\u05d2", "opening_hours": "12:00-22:45", "phone": "+97235375184"}}, {"type": "node", "id": 5605064591, "lat": 32.0540199, "lon": 34.7777367, "tags": {"addr:city": "Tel Aviv-Yafo", "addr:housenumber": "92", "addr:street": "\u05de\u05e1\u05d9\u05dc\u05ea \u05d9\u05e9\u05e8\u05d9\u05dd", "amenity": "restaurant", "cuisine": "pizza", "delivery": "yes", "name": "Pizza People", "name:en": "Pizza People", "opening_hours": "Su-Th 12:00-00:00;", "outdoor_seating": "yes", "phone": "+97239090337", "smoking": "outside", "takeaway": "yes", "website": "https://www.pizzapeople.co.il", "wheelchair": "yes"}}, {"type": "node", "id": 6160027237, "lat": 32.0541376, "lon": 34.7783422, "tags": {"crossing": "uncontrolled", "crossing_ref": "zebra", "highway": "crossing"}}, {"type": "node", "id": 6160027238, "lat": 32.0542687, "lon": 34.7784625, "tags": {"crossing": "island", "crossing_ref": "zebra", "highway": "crossing"}}, {"type": "node", "id": 6160027239, "lat": 32.0541723, "lon": 34.7784432, "tags": {"crossing": "island", "crossing_ref": "zebra", "highway": "crossing"}}, {"type": "node", "id": 8423778822, "lat": 32.0547737, "lon": 34.7761407}, {"type": "node", "id": 12083579066, "lat": 32.0544452, "lon": 34.7776131}, {"type": "node", "id": 12083579067, "lat": 32.0543683, "lon": 34.7775927}, {"type": "node", "id": 12094246465, "lat": 32.0538856, "lon": 34.7801551, "tags": {"crossing": "uncontrolled", "crossing:markings": "yes", "highway": "crossing"}}, {"type": "node", "id": 12094246469, "lat": 32.0539389, "lon": 34.7801657, "tags": {"crossing": "uncontrolled", "highway": "crossing"}}, {"type": "way", "id": 43138915, "nodes": [1568022473, 1571656551, 1571656214, 1571656101, 549268886, 540422648], "tags": {"highway": "tertiary", "name": "\u05de\u05e1\u05d9\u05dc\u05ea \u05d9\u05e9\u05e8\u05d9\u05dd", "name:en": "Mesilat Yesharim", "name:he": "\u05de\u05e1\u05d9\u05dc\u05ea \u05d9\u05e9\u05e8\u05d9\u05dd", "surface": "asphalt"}}, {"type": "way", "id": 43520281, "nodes": [549268582, 1571656499, 2164531100, 549268886, 1571656326, 1571656619, 1571656573, 549268888], "tags": {"highway": "residential", "lit": "yes", "maxspeed": "30", "name": "\u05d7\u05d6\u05e7\u05d9\u05d4\u05d5 \u05d4\u05de\u05dc\u05da", "name:en": "Hezkiyahu HaMelech", "name:en1": "Hezkiyahu Ha'Melech", "name:en2": "Hizkiyahu HaMelech", "name:he": "\u05d7\u05d6\u05e7\u05d9\u05d4\u05d5 \u05d4\u05de\u05dc\u05da", "oneway": "yes", "surface": "asphalt"}}, {"type": "way", "id": 143609327, "nodes": [1571656577, 1571656326, 1571656422], "tags": {"highway": "residential", "lit": "yes", "maxspeed": "30", "name": "\u05d4\u05e8\u05d0\u05d1\"\u05e2", "name:en": "HaRaaba", "name:en1": "HaRa'ava", "name:en2": "Ha'Ra'ava", "name:he": "\u05d4\u05e8\u05d0\u05d1\"\u05e2", "oneway": "yes", "surface": "asphalt"}}, {"type": "way", "id": 143609329, "nodes": [1571656619, 1571656289, 1571656331, 1571656057], "tags": {"highway": "residential", "lit": "yes", "name": "\u05d7\u05d5\u05d1\u05d5\u05ea \u05d4\u05dc\u05d1\u05d1\u05d5\u05ea", "name:en": "Chovot HaLevavot", "name:en1": "Chovot Ha'Levavot", "name:en2": "Hovot Halevavot", "name:he": "\u05d7\u05d5\u05d1\u05d5\u05ea \u05d4\u05dc\u05d1\u05d1\u05d5\u05ea", "surface": "asphalt"}}, {"type": "way", "id": 143609360, "nodes": [1571656170, 6160027237, 1571656499, 1571656397, 549269607, 1571656318], "tags": {"highway": "residential", "lit": "yes", "maxspeed": "30", "name": "\u05de\u05e7\u05d5\u05e8 \u05d7\u05d9\u05d9\u05dd", "name:en": "Makor Haim", "name:en1": "Mekor Hayim", "name:he": "\u05de\u05e7\u05d5\u05e8 \u05d7\u05d9\u05d9\u05dd", "oneway": "yes", "surface": "asphalt"}}, {"type": "way", "id": 143609362, "nodes": [1571656363, 1571656619], "tags": {"highway": "residential", "lit": "yes", "maxspeed": "30", "name": "\u05d7\u05d5\u05d1\u05d5\u05ea \u05d4\u05dc\u05d1\u05d1\u05d5\u05ea", "name:en": "Chovot HaLevavot", "name:en1": "Chovot Ha'Levavot", "name:en2": "Hovot Halevavot", "name:he": "\u05d7\u05d5\u05d1\u05d5\u05ea \u05d4\u05dc\u05d1\u05d1\u05d5\u05ea", "oneway": "yes", "surface": "asphalt"}}, {"type": "way", "id": 143609366, "nodes": [540422648, 2164531101, 1571656170, 6160027239, 1911081888, 1910253872, 549268584, 1121651997, 286546123, 12094246465, 2390930262], "tags": {"highway": "tertiary", "name": "\u05d3\u05e8\u05da \u05e9\u05dc\u05de\u05d4", "name:en": "Derekh Shalma", "name:en3": "Shalma", "name:he": "\u05e9\u05dc\u05de\u05d4", "name:he1": "\u05e1\u05dc\u05de\u05d4", "oneway": "yes", "surface": "asphalt"}}, {"type": "way", "id": 143623355, "nodes": [1571763562, 1571764245, 1571763898, 1571763977], "tags": {"fixme": "seems not to present on bing maps", "highway": "footway"}}, {"type": "way", "id": 180662574, "nodes": [540422648, 1571655983], "tags": {"highway": "tertiary", "name": "\u05de\u05e1\u05d9\u05dc\u05ea \u05d9\u05e9\u05e8\u05d9\u05dd", "name:en": "Mesilat Yesharim", "name:he": "\u05de\u05e1\u05d9\u05dc\u05ea \u05d9\u05e9\u05e8\u05d9\u05dd", "surface": "asphalt"}}, {"type": "way", "id": 230605319, "nodes": [2390930262, 2390930298, 12094246469, 2390930258, 2381515586, 1571656585, 1571656208, 1910253877, 1571763570, 6160027238, 1571763977, 1571655983, 12083579066, 4253794364, 1571764066, 8423778822, 1571656538, 1571656641], "tags": {"highway": "tertiary", "name": "\u05d3\u05e8\u05da \u05e9\u05dc\u05de\u05d4", "name:en": "Derekh Shalma", "name:en3": "Shalma", "name:he": "\u05e9\u05dc\u05de\u05d4", "name:he1": "\u05e1\u05dc\u05de\u05d4", "oneway": "yes", "surface": "asphalt"}}, {"type": "way", "id": 484691082, "nodes": [2470035518, 2470035523, 338658900, 1571656392, 1571656363, 1571656422, 12083579067, 540422648], "tags": {"highway": "tertiary", "name": "\u05d3\u05e8\u05da \u05e9\u05dc\u05de\u05d4", "name:en": "Derekh Shalma", "name:en1": "Salame", "name:en2": "Shlomo", "name:en3": "Shalma", "name:he": "\u05e9\u05dc\u05de\u05d4", "name:he1": "\u05e1\u05dc\u05de\u05d4", "oneway": "yes"}}, {"type": "way", "id": 1304682092, "nodes": [12083579066, 12083579067], "tags": {"crossing": "traffic_signals", "cycleway": "crossing", "footway": "crossing", "highway": "path"}}]}