{"version": 0.6, "generator": "Overpass API 0.7.62.5 1bd436f1", "osm3s": {"timestamp_osm_base": "2025-05-29T13:52:30Z", "copyright": "The data included in this document is from www.openstreetmap.org. The data is made available under ODbL."}, "elements": [{"type": "node", "id": 33956079, "lat": 32.055584, "lon": 34.7825514, "tags": {"highway": "traffic_signals"}}, {"type": "node", "id": 33956080, "lat": 32.0547316, "lon": 34.7823626, "tags": {"highway": "traffic_signals"}}, {"type": "node", "id": 34651078, "lat": 32.0544417, "lon": 34.7832859, "tags": {"highway": "traffic_signals"}}, {"type": "node", "id": 34651079, "lat": 32.0534653, "lon": 34.78322}, {"type": "node", "id": 286546122, "lat": 32.0538604, "lon": 34.7832521}, {"type": "node", "id": 286643379, "lat": 32.0499015, "lon": 34.7838631, "tags": {"highway": "traffic_signals"}}, {"type": "node", "id": 286692486, "lat": 32.0473532, "lon": 34.7808326, "tags": {"highway": "traffic_signals"}}, {"type": "node", "id": 549267521, "lat": 32.0536972, "lon": 34.7818292, "tags": {"highway": "traffic_signals"}}, {"type": "node", "id": 549267534, "lat": 32.0530743, "lon": 34.7817325}, {"type": "node", "id": 549267535, "lat": 32.0515796, "lon": 34.7817057}, {"type": "node", "id": 549267538, "lat": 32.0512009, "lon": 34.7816215}, {"type": "node", "id": 549267539, "lat": 32.0506968, "lon": 34.7814661}, {"type": "node", "id": 549267544, "lat": 32.0497312, "lon": 34.7812996}, {"type": "node", "id": 549267559, "lat": 32.048287, "lon": 34.7811014}, {"type": "node", "id": 549269124, "lat": 32.0527932, "lon": 34.7817256}, {"type": "node", "id": 591891201, "lat": 32.0499099, "lon": 34.7836714}, {"type": "node", "id": 591891203, "lat": 32.0506892, "lon": 34.7829799}, {"type": "node", "id": 602633610, "lat": 32.0515183, "lon": 34.7826746}, {"type": "node", "id": 1121649535, "lat": 32.0521153, "lon": 34.7831703}, {"type": "node", "id": 1225576585, "lat": 32.0500242, "lon": 34.7834279}, {"type": "node", "id": 1234762964, "lat": 32.0528009, "lon": 34.7831914}, {"type": "node", "id": 1568022428, "lat": 32.0478268, "lon": 34.7810211}, {"type": "node", "id": 1568022547, "lat": 32.050987, "lon": 34.7828432}, {"type": "node", "id": 1568022553, "lat": 32.0519173, "lon": 34.7817483}, {"type": "node", "id": 1569154963, "lat": 32.0489768, "lon": 34.7811961}, {"type": "node", "id": 1569154974, "lat": 32.0476343, "lon": 34.7809518}, {"type": "node", "id": 1569154995, "lat": 32.0481049, "lon": 34.7810673}, {"type": "node", "id": 1569154996, "lat": 32.0499595, "lon": 34.7835096}, {"type": "node", "id": 1571656024, "lat": 32.0528169, "lon": 34.7811627}, {"type": "node", "id": 1571656053, "lat": 32.0538055, "lon": 34.781859}, {"type": "node", "id": 1571656064, "lat": 32.0518866, "lon": 34.7826612}, {"type": "node", "id": 1571656073, "lat": 32.0538813, "lon": 34.7819484}, {"type": "node", "id": 1571656116, "lat": 32.0540158, "lon": 34.7821485}, {"type": "node", "id": 1571656128, "lat": 32.054565, "lon": 34.7824015}, {"type": "node", "id": 1571656150, "lat": 32.0540389, "lon": 34.7820374}, {"type": "node", "id": 1571656174, "lat": 32.0537973, "lon": 34.7809098}, {"type": "node", "id": 1571656197, "lat": 32.0533029, "lon": 34.7803804}, {"type": "node", "id": 1571656251, "lat": 32.0544722, "lon": 34.7822882}, {"type": "node", "id": 1571656272, "lat": 32.0541769, "lon": 34.7822032}, {"type": "node", "id": 1571656287, "lat": 32.0546298, "lon": 34.7823338, "tags": {"highway": "traffic_signals"}}, {"type": "node", "id": 1571656323, "lat": 32.0542116, "lon": 34.7820986}, {"type": "node", "id": 1571656328, "lat": 32.0520643, "lon": 34.7811096}, {"type": "node", "id": 1571656394, "lat": 32.0544307, "lon": 34.7829139}, {"type": "node", "id": 1571656400, "lat": 32.0538582, "lon": 34.7820482}, {"type": "node", "id": 1571656418, "lat": 32.0520522, "lon": 34.7817443}, {"type": "node", "id": 1571656470, "lat": 32.0509038, "lon": 34.7815216}, {"type": "node", "id": 1571656512, "lat": 32.0522639, "lon": 34.782688}, {"type": "node", "id": 1571656513, "lat": 32.0532488, "lon": 34.7811944}, {"type": "node", "id": 1571656514, "lat": 32.0543416, "lon": 34.7832813, "tags": {"highway": "traffic_signals"}}, {"type": "node", "id": 1571656582, "lat": 32.05374, "lon": 34.7812356}, {"type": "node", "id": 1571656621, "lat": 32.0545744, "lon": 34.7824846}, {"type": "node", "id": 1571656623, "lat": 32.0547948, "lon": 34.7822819, "tags": {"highway": "traffic_signals"}}, {"type": "node", "id": 1571656636, "lat": 32.0537438, "lon": 34.781948}, {"type": "node", "id": 1571656688, "lat": 32.0545369, "lon": 34.7823505}, {"type": "node", "id": 1571763971, "lat": 32.0550048, "lon": 34.7816297}, {"type": "node", "id": 1571763993, "lat": 32.0551379, "lon": 34.7810901}, {"type": "node", "id": 1784381893, "lat": 32.0543617, "lon": 34.7826774, "tags": {"amenity": "car_wash", "name": "\u05e1\u05e0\u05d8\u05e8 \u05d5\u05d5\u05e9", "name:en": "Center Wash", "name:he": "\u05e1\u05e0\u05d8\u05e8 \u05d5\u05d5\u05e9"}}, {"type": "node", "id": 2493584573, "lat": 32.0549089, "lon": 34.7817887}, {"type": "node", "id": 2493584577, "lat": 32.0550441, "lon": 34.7811083}, {"type": "node", "id": 2493584579, "lat": 32.055126, "lon": 34.7810246}, {"type": "node", "id": 2493584589, "lat": 32.055058, "lon": 34.7810564}, {"type": "node", "id": 2493584617, "lat": 32.0554428, "lon": 34.782555, "tags": {"highway": "traffic_signals"}}, {"type": "node", "id": 2493584625, "lat": 32.0551382, "lon": 34.781042}, {"type": "node", "id": 2493584626, "lat": 32.0551434, "lon": 34.7810664}, {"type": "node", "id": 2493584635, "lat": 32.0537976, "lon": 34.7814201}, {"type": "node", "id": 2493584636, "lat": 32.055059, "lon": 34.7812291, "tags": {"amenity": "parking", "fee": "yes", "park_ride": "yes", "payment:cash": "yes"}}, {"type": "node", "id": 2493584650, "lat": 32.0550986, "lon": 34.7810126}, {"type": "node", "id": 2493584652, "lat": 32.0538032, "lon": 34.7812428}, {"type": "node", "id": 2493584656, "lat": 32.0550756, "lon": 34.7810227}, {"type": "node", "id": 2493584662, "lat": 32.0548945, "lon": 34.7817092}, {"type": "node", "id": 2493918012, "lat": 32.0553189, "lon": 34.7825138}, {"type": "node", "id": 2512096143, "lat": 32.0533151, "lon": 34.7817668}, {"type": "node", "id": 2534727406, "lat": 32.0537761, "lon": 34.7817557}, {"type": "node", "id": 2995640305, "lat": 32.0498077, "lon": 34.7843466}, {"type": "node", "id": 3406707381, "lat": 32.0498749, "lon": 34.7841635}, {"type": "node", "id": 3406707382, "lat": 32.0499024, "lon": 34.7839968}, {"type": "node", "id": 3406707386, "lat": 32.0498507, "lon": 34.7842387}, {"type": "node", "id": 3999780936, "lat": 32.0546024, "lon": 34.7826826}, {"type": "node", "id": 3999780937, "lat": 32.0543567, "lon": 34.7828368}, {"type": "node", "id": 3999780938, "lat": 32.0544112, "lon": 34.7828757}, {"type": "node", "id": 3999780939, "lat": 32.0532369, "lon": 34.7827443}, {"type": "node", "id": 4064096521, "lat": 32.0515014, "lon": 34.7816883}, {"type": "node", "id": 4102393992, "lat": 32.0536835, "lon": 34.7831203}, {"type": "node", "id": 4131676718, "lat": 32.0498099, "lon": 34.7813132}, {"type": "node", "id": 4230088531, "lat": 32.053836, "lon": 34.7852086}, {"type": "node", "id": 4230088534, "lat": 32.053681, "lon": 34.7851392}, {"type": "node", "id": 4230088537, "lat": 32.053623, "lon": 34.7847892}, {"type": "node", "id": 4230088538, "lat": 32.0536314, "lon": 34.7849026}, {"type": "node", "id": 4230088539, "lat": 32.0536473, "lon": 34.785008}, {"type": "node", "id": 4520938059, "lat": 32.0504317, "lon": 34.783134}, {"type": "node", "id": 4520938060, "lat": 32.0500668, "lon": 34.7833903}, {"type": "node", "id": 4520938061, "lat": 32.0499279, "lon": 34.7835845}, {"type": "node", "id": 4520938071, "lat": 32.0499916, "lon": 34.7834691}, {"type": "node", "id": 5596652341, "lat": 32.0554844, "lon": 34.7824742, "tags": {"highway": "traffic_signals"}}, {"type": "node", "id": 5605071007, "lat": 32.0538492, "lon": 34.7819243}, {"type": "node", "id": 5605071008, "lat": 32.0537088, "lon": 34.7818867}, {"type": "node", "id": 5605071009, "lat": 32.0537862, "lon": 34.7818108, "tags": {"highway": "traffic_signals", "traffic_signals": "signal"}}, {"type": "node", "id": 5605071010, "lat": 32.0539408, "lon": 34.7821098}, {"type": "node", "id": 5605071011, "lat": 32.0538225, "lon": 34.7818904}, {"type": "node", "id": 5605071012, "lat": 32.0537978, "lon": 34.7819994}, {"type": "node", "id": 5605072296, "lat": 32.0545184, "lon": 34.7823246, "tags": {"highway": "give_way"}}, {"type": "node", "id": 5605072297, "lat": 32.0545751, "lon": 34.7824419}, {"type": "node", "id": 5605072298, "lat": 32.0545035, "lon": 34.7823114}, {"type": "node", "id": 5605072299, "lat": 32.0545522, "lon": 34.7823765, "tags": {"crossing": "uncontrolled", "crossing_ref": "zebra", "highway": "crossing"}}, {"type": "node", "id": 5605072300, "lat": 32.0544904, "lon": 34.7822996}, {"type": "node", "id": 6134833702, "lat": 32.0542384, "lon": 34.7852163}, {"type": "node", "id": 6134833703, "lat": 32.0537447, "lon": 34.7851942}, {"type": "node", "id": 6160021609, "lat": 32.0546072, "lon": 34.7823936, "tags": {"crossing": "traffic_signals", "crossing_ref": "zebra", "highway": "crossing"}}, {"type": "node", "id": 6160021610, "lat": 32.054693, "lon": 34.7824246, "tags": {"crossing": "traffic_signals", "crossing_ref": "zebra", "highway": "crossing"}}, {"type": "node", "id": 6160021611, "lat": 32.053642, "lon": 34.7818219, "tags": {"crossing": "traffic_signals", "crossing_ref": "zebra", "highway": "crossing"}}, {"type": "node", "id": 8400884853, "lat": 32.049899, "lon": 34.7837697, "tags": {"crossing": "marked", "highway": "crossing"}}, {"type": "node", "id": 8476326811, "lat": 32.0473973, "lon": 34.7808477, "tags": {"crossing": "marked", "highway": "crossing"}}, {"type": "node", "id": 8476340153, "lat": 32.0477286, "lon": 34.780991}, {"type": "node", "id": 8614899667, "lat": 32.0537009, "lon": 34.7818523}, {"type": "node", "id": 8614899668, "lat": 32.05372, "lon": 34.781911}, {"type": "node", "id": 8614899669, "lat": 32.0537494, "lon": 34.7818355}, {"type": "node", "id": 8614899670, "lat": 32.0537698, "lon": 34.7818378}, {"type": "node", "id": 8614899671, "lat": 32.0537877, "lon": 34.7818453}, {"type": "node", "id": 8614899672, "lat": 32.0537912, "lon": 34.7818272}, {"type": "node", "id": 8614899673, "lat": 32.0537214, "lon": 34.7814933}, {"type": "node", "id": 8614899674, "lat": 32.0538295, "lon": 34.7813974}, {"type": "node", "id": 8614899675, "lat": 32.0538162, "lon": 34.7814016}, {"type": "node", "id": 8614899676, "lat": 32.0538039, "lon": 34.7814104}, {"type": "node", "id": 8614899677, "lat": 32.0548669, "lon": 34.7816713}, {"type": "node", "id": 8614899678, "lat": 32.054894, "lon": 34.7816675}, {"type": "node", "id": 8614899679, "lat": 32.054886, "lon": 34.7816907}, {"type": "node", "id": 8614899680, "lat": 32.0548923, "lon": 34.7816902}, {"type": "node", "id": 8614899681, "lat": 32.0548773, "lon": 34.7816776}, {"type": "node", "id": 8614899682, "lat": 32.0549352, "lon": 34.7817609}, {"type": "node", "id": 8614899683, "lat": 32.0549668, "lon": 34.7817214}, {"type": "node", "id": 8614899684, "lat": 32.0549858, "lon": 34.7816845}, {"type": "node", "id": 8614899685, "lat": 32.0547498, "lon": 34.7822848}, {"type": "node", "id": 8614899686, "lat": 32.0546412, "lon": 34.7823174}, {"type": "node", "id": 8614899687, "lat": 32.0547096, "lon": 34.7822885}, {"type": "node", "id": 8614899688, "lat": 32.0546735, "lon": 34.782298}, {"type": "node", "id": 8614899689, "lat": 32.054657, "lon": 34.7823061}, {"type": "node", "id": 8614899690, "lat": 32.0543863, "lon": 34.7828504}, {"type": "node", "id": 8614899691, "lat": 32.0545061, "lon": 34.782983}, {"type": "node", "id": 8614899697, "lat": 32.0548037, "lon": 34.7822434, "tags": {"highway": "crossing"}}, {"type": "node", "id": 8614899698, "lat": 32.054646, "lon": 34.7822351, "tags": {"crossing": "traffic_signals", "highway": "crossing"}}, {"type": "node", "id": 8614899699, "lat": 32.0545878, "lon": 34.7823217, "tags": {"crossing": "traffic_signals", "highway": "crossing"}}, {"type": "node", "id": 8614899700, "lat": 32.0544808, "lon": 34.7830877, "tags": {"crossing": "traffic_signals", "highway": "crossing"}}, {"type": "node", "id": 8614899701, "lat": 32.0543906, "lon": 34.7830738, "tags": {"crossing": "traffic_signals", "highway": "crossing"}}, {"type": "node", "id": 8614899706, "lat": 32.0542991, "lon": 34.7832793, "tags": {"crossing": "traffic_signals", "highway": "crossing"}}, {"type": "node", "id": 8614899707, "lat": 32.0537002, "lon": 34.7817879, "tags": {"highway": "crossing"}}, {"type": "node", "id": 8614899708, "lat": 32.0537797, "lon": 34.7817836, "tags": {"highway": "crossing"}}, {"type": "node", "id": 12772228274, "lat": 32.0555111, "lon": 34.7825648}, {"type": "node", "id": 12772228275, "lat": 32.0555364, "lon": 34.7825001}, {"type": "way", "id": 43520112, "nodes": [549267521, 6160021611, 2512096143, 549267534, 549269124, 1571656418, 1568022553, 549267535, 4064096521, 549267538, 1571656470, 549267539, 4131676718, 549267544, 1569154963, 549267559, 1569154995, 1568022428, 8476340153, 1569154974, 8476326811, 286692486], "tags": {"highway": "tertiary", "name": "\u05d9\u05e9\u05e8\u05d0\u05dc \u05de\u05e1\u05dc\u05e0\u05d8", "name:en": "Israel Masalant", "name:en1": "Israel MiSalant", "name:he": "\u05d9\u05e9\u05e8\u05d0\u05dc \u05de\u05e1\u05dc\u05e0\u05d8", "oneway": "yes", "surface": "asphalt"}}, {"type": "way", "id": 46338102, "nodes": [2995640305, 3406707386, 3406707381, 3406707382, 286643379, 8400884853, 591891201, 4520938061, 1569154996, 4520938071, 1225576585, 4520938060, 4520938059, 591891203, 1568022547, 602633610, 1571656064, 1571656512, 3999780939, 3999780937, 8614899690, 3999780938, 1571656394], "tags": {"highway": "residential", "name": "\u05d2\u05d5\u05dc\u05d5\u05de\u05d1", "name:ar": "\u063a\u0648\u0644\u0648\u0645\u0628", "name:en": "Golomb", "name:en1": "Golumb", "name:he": "\u05d2\u05d5\u05dc\u05d5\u05de\u05d1", "name:ru": "\u0413\u043e\u043b\u0443\u043c\u0431", "oneway": "yes"}}, {"type": "way", "id": 143609332, "nodes": [1571656623, 8614899685, 8614899687, 8614899688, 8614899689, 8614899686, 1571656287], "tags": {"highway": "tertiary", "name": "\u05d4\u05d4\u05d2\u05e0\u05d4", "name:ar": "\u062f\u0641\u0627\u0639", "name:en": "HaHagana", "name:en1": "Ha'Hagana", "name:he": "\u05d4\u05d4\u05d2\u05e0\u05d4", "name:ru": "\u0430\u0425\u0430\u0433\u0430\u043d\u0430", "oneway": "yes", "surface": "asphalt"}}, {"type": "way", "id": 143609333, "nodes": [1571656251, 5605072300, 5605072298, 5605072296, 1571656688, 5605072299, 1571656128, 5605072297, 1571656621], "tags": {"highway": "tertiary_link", "oneway": "yes", "surface": "asphalt"}}, {"type": "way", "id": 143609335, "nodes": [1571656053, 8614899672, 5605071009, 8614899708, 2534727406, 2493584635, 2493584652, 1571656174], "tags": {"highway": "tertiary", "lanes": "1", "name": "\u05d3\u05e8\u05da \u05e9\u05dc\u05de\u05d4", "name:en": "Derekh Shalma", "name:en3": "Shalma", "name:he": "\u05e9\u05dc\u05de\u05d4", "name:he1": "\u05e1\u05dc\u05de\u05d4", "oneway": "yes", "surface": "asphalt"}}, {"type": "way", "id": 143609338, "nodes": [1571656174, 1571656582, 8614899673], "tags": {"highway": "tertiary", "lanes": "1", "name": "\u05d3\u05e8\u05da \u05e9\u05dc\u05de\u05d4", "name:en": "Derekh Shalma", "name:en3": "Salame", "name:he": "\u05e9\u05dc\u05de\u05d4", "name:he1": "\u05e1\u05dc\u05de\u05d4", "oneway": "yes", "surface": "asphalt"}}, {"type": "way", "id": 143609339, "nodes": [1571656513, 1571656197], "tags": {"highway": "residential", "maxspeed": "30"}}, {"type": "way", "id": 143609363, "nodes": [549267521, 8614899667, 5605071008, 8614899668, 1571656636, 5605071012, 1571656400, 5605071010, 1571656116, 1571656272, 1571656251, 8614899699, 1571656287], "tags": {"highway": "tertiary", "lanes": "2", "name": "\u05dc\u05d1\u05e0\u05d3\u05d4", "name:en": "Levanda", "name:he": "\u05dc\u05d1\u05e0\u05d3\u05d4", "oneway": "yes", "surface": "asphalt"}}, {"type": "way", "id": 143623367, "nodes": [1571656582, 1571656513, 1571656024, 1571656328], "tags": {"highway": "residential", "lit": "yes", "maxspeed": "30", "name": "\u05e8\u05d0\u05d1\"\u05d3", "name:en": "Raavad", "name:en1": "Ra'avad", "name:en2": "Raabad", "name:he": "\u05e8\u05d0\u05d1\"\u05d3", "oneway": "yes", "surface": "asphalt"}}, {"type": "way", "id": 167691686, "nodes": [34651078, 1571656514, 8614899706, 286546122, 34651079, 1234762964, 1121649535], "tags": {"highway": "secondary", "lanes": "2", "name": "\u05d7\u05d9\u05dc \u05d4\u05e9\u05e8\u05d9\u05d5\u05df", "name:en": "Heyl HaShiryon", "name:en1": "Heyl Ha'Shiryon", "name:he": "\u05d7\u05d9\u05dc \u05d4\u05e9\u05e8\u05d9\u05d5\u05df", "old_ref": "2", "oneway": "yes", "surface": "asphalt"}}, {"type": "way", "id": 195998913, "nodes": [33956080, 2493918012, 2493584617, 12772228274, 33956079], "tags": {"highway": "tertiary", "lanes": "2", "name": "\u05dc\u05d1\u05e0\u05d3\u05d4", "name:en": "Levanda", "name:he": "\u05dc\u05d1\u05e0\u05d3\u05d4", "oneway": "yes", "surface": "asphalt"}}, {"type": "way", "id": 229463909, "nodes": [33956079, 12772228275, 5596652341, 1571656623], "tags": {"highway": "tertiary", "lanes": "2", "name": "\u05dc\u05d1\u05e0\u05d3\u05d4", "name:en": "Levanda", "name:he": "\u05dc\u05d1\u05e0\u05d3\u05d4", "oneway": "yes", "surface": "asphalt"}}, {"type": "way", "id": 229463910, "nodes": [1571656623, 8614899698, 1571656323, 1571656150, 1571656073, 5605071007, 5605071011, 1571656053], "tags": {"highway": "tertiary", "lanes": "2", "name": "\u05dc\u05d1\u05e0\u05d3\u05d4", "name:en": "Levanda", "name:he": "\u05dc\u05d1\u05e0\u05d3\u05d4", "oneway": "yes", "surface": "asphalt"}}, {"type": "way", "id": 241763144, "nodes": [2493584650, 2493584656, 2493584589, 2493584577, 8614899678, 8614899680, 2493584662, 2493584573], "tags": {"highway": "residential", "name": "\u05d0\u05d1\u05e8\u05d4\u05dd \u05e2\u05e0\u05ea\u05d1\u05d9", "name:en": "Abraham Antebi", "name:he": "\u05d0\u05d1\u05e8\u05d4\u05dd \u05e2\u05e0\u05ea\u05d1\u05d9", "oneway": "yes"}}, {"type": "way", "id": 241763147, "nodes": [2493584573, 8614899682, 8614899683, 8614899684, 1571763971, 1571763993, 2493584626, 2493584625, 2493584579, 2493584650], "tags": {"highway": "residential", "lit": "yes", "name": "\u05d0\u05d1\u05e8\u05d4\u05dd \u05e2\u05e0\u05ea\u05d1\u05d9", "name:en": "Abraham Antebi", "name:he": "\u05d0\u05d1\u05e8\u05d4\u05dd \u05e2\u05e0\u05ea\u05d1\u05d9", "oneway": "yes", "surface": "asphalt"}}, {"type": "way", "id": 241763149, "nodes": [2493584635, 8614899676, 8614899675, 8614899674, 8614899677, 8614899681, 8614899679, 2493584662], "tags": {"highway": "residential", "name": "\u05e8\u05d0\u05d1\"\u05d3", "name:en": "Raavad", "name:en1": "Ra'avad", "name:en2": "Raabad", "name:he": "\u05e8\u05d0\u05d1\"\u05d3", "oneway": "yes"}}, {"type": "way", "id": 241763150, "nodes": [2493584636, 2493584573], "tags": {"highway": "service"}}, {"type": "way", "id": 241763152, "nodes": [2493584573, 8614899697, 1571656623], "tags": {"highway": "residential", "lit": "yes", "name": "\u05d0\u05d1\u05e8\u05d4\u05dd \u05e2\u05e0\u05ea\u05d1\u05d9", "name:en": "Abraham Antebi", "name:he": "\u05d0\u05d1\u05e8\u05d4\u05dd \u05e2\u05e0\u05ea\u05d1\u05d9", "oneway": "no", "surface": "asphalt"}}, {"type": "way", "id": 408281956, "nodes": [1571656174, 4102393992, 4230088537, 4230088538, 4230088539, 4230088534, 6134833703, 4230088531, 6134833702], "tags": {"bridge": "yes", "highway": "proposed", "layer": "1", "name": "\u05d2\u05e9\u05e8 \u05d4\u05de\u05db\u05e0\u05e1\u05d9\u05d9\u05dd", "name:en": "Pants Bridge", "name:he": "\u05d2\u05e9\u05e8 \u05d4\u05de\u05db\u05e0\u05e1\u05d9\u05d9\u05dd", "proposed": "tertiary"}}, {"type": "way", "id": 457498545, "nodes": [34651078, 8614899700, 8614899691, 3999780936, 6160021610, 33956080, 1571656623], "tags": {"highway": "tertiary", "lanes": "2", "name": "\u05d4\u05d4\u05d2\u05e0\u05d4", "name:ar": "\u062f\u0641\u0627\u0639", "name:en": "HaHagana", "name:en1": "Ha'Hagana", "name:he": "\u05d4\u05d4\u05d2\u05e0\u05d4", "name:ru": "\u0430\u0425\u0430\u0433\u0430\u043d\u0430", "oneway": "yes", "surface": "asphalt"}}, {"type": "way", "id": 457498806, "nodes": [1571656287, 33956080], "tags": {"highway": "tertiary", "lanes": "2", "name": "\u05dc\u05d1\u05e0\u05d3\u05d4", "name:en": "Levanda", "name:he": "\u05dc\u05d1\u05e0\u05d3\u05d4", "oneway": "yes", "surface": "asphalt"}}, {"type": "way", "id": 457498807, "nodes": [1571656287, 6160021609, 1571656621, 1571656394], "tags": {"highway": "tertiary", "lanes": "2", "name": "\u05d4\u05d4\u05d2\u05e0\u05d4", "name:ar": "\u062f\u0641\u0627\u0639", "name:en": "HaHagana", "name:en1": "Ha'Hagana", "name:he": "\u05d4\u05d4\u05d2\u05e0\u05d4", "name:ru": "\u0430\u0425\u0430\u0433\u0430\u043d\u0430", "oneway": "yes", "surface": "asphalt"}}, {"type": "way", "id": 928860592, "nodes": [1571656053, 8614899671, 8614899670, 8614899669, 549267521], "tags": {"highway": "tertiary", "name": "\u05dc\u05d1\u05e0\u05d3\u05d4", "name:en": "Levanda", "name:he": "\u05dc\u05d1\u05e0\u05d3\u05d4", "oneway": "yes", "surface": "asphalt"}}, {"type": "way", "id": 928860593, "nodes": [8614899673, 8614899707, 549267521], "tags": {"highway": "tertiary", "lanes": "2", "name": "\u05d3\u05e8\u05da \u05e9\u05dc\u05de\u05d4", "name:en": "Derekh Shalma", "name:en3": "Salame", "name:he": "\u05e9\u05dc\u05de\u05d4", "name:he1": "\u05e1\u05dc\u05de\u05d4", "oneway": "yes", "surface": "asphalt"}}, {"type": "way", "id": 928860594, "nodes": [6160021610, 6160021609], "tags": {"crossing": "marked", "crossing:markings": "yes", "footway": "crossing", "highway": "footway"}}, {"type": "way", "id": 928860595, "nodes": [8614899698, 8614899699], "tags": {"crossing": "marked", "crossing:markings": "yes", "footway": "crossing", "highway": "footway"}}, {"type": "way", "id": 928860596, "nodes": [8614899700, 8614899701], "tags": {"crossing": "marked", "crossing:markings": "yes", "footway": "crossing", "highway": "footway"}}, {"type": "way", "id": 1197585101, "nodes": [1571656394, 8614899701, 1571656514], "tags": {"highway": "tertiary", "lanes": "3", "name": "\u05d4\u05d4\u05d2\u05e0\u05d4", "name:ar": "\u062f\u0641\u0627\u0639", "name:en": "HaHagana", "name:en1": "Ha'Hagana", "name:he": "\u05d4\u05d4\u05d2\u05e0\u05d4", "name:ru": "\u0430\u0425\u0430\u0433\u0430\u043d\u0430", "oneway": "yes", "surface": "asphalt"}}]}