{"version": 0.6, "generator": "Overpass API 0.7.62.5 1bd436f1", "osm3s": {"timestamp_osm_base": "2025-05-29T12:53:41Z", "copyright": "The data included in this document is from www.openstreetmap.org. The data is made available under ODbL."}, "elements": [{"type": "node", "id": 29944880, "lat": 32.0881333, "lon": 34.7822678, "tags": {"highway": "traffic_signals"}}, {"type": "node", "id": 285955351, "lat": 32.0844586, "lon": 34.7816867}, {"type": "node", "id": 331408674, "lat": 32.0843615, "lon": 34.7823749}, {"type": "node", "id": 332283087, "lat": 32.0883009, "lon": 34.7815088}, {"type": "node", "id": 338523864, "lat": 32.0855504, "lon": 34.7809171}, {"type": "node", "id": 338523914, "lat": 32.0864797, "lon": 34.7795907}, {"type": "node", "id": 338523918, "lat": 32.087696, "lon": 34.781379}, {"type": "node", "id": 338523995, "lat": 32.0862871, "lon": 34.7803531}, {"type": "node", "id": 339420506, "lat": 32.0853193, "lon": 34.7818997, "tags": {"highway": "traffic_signals"}}, {"type": "node", "id": 339420678, "lat": 32.0840072, "lon": 34.7815827}, {"type": "node", "id": 340007158, "lat": 32.0831943, "lon": 34.7813105, "tags": {"highway": "traffic_signals"}}, {"type": "node", "id": 340007159, "lat": 32.0832157, "lon": 34.7814424, "tags": {"highway": "traffic_signals"}}, {"type": "node", "id": 340232434, "lat": 32.085048, "lon": 34.7832388}, {"type": "node", "id": 340232952, "lat": 32.0852318, "lon": 34.7790631}, {"type": "node", "id": 340233156, "lat": 32.0845338, "lon": 34.781571}, {"type": "node", "id": 340233619, "lat": 32.0849039, "lon": 34.7803542}, {"type": "node", "id": 340233620, "lat": 32.0855361, "lon": 34.7805056}, {"type": "node", "id": 340233836, "lat": 32.0850904, "lon": 34.7797195}, {"type": "node", "id": 340377994, "lat": 32.0847643, "lon": 34.7809652}, {"type": "node", "id": 340378003, "lat": 32.0830408, "lon": 34.7804683}, {"type": "node", "id": 345753220, "lat": 32.083259, "lon": 34.78048}, {"type": "node", "id": 362648349, "lat": 32.0866589, "lon": 34.7789051}, {"type": "node", "id": 444731120, "lat": 32.0846178, "lon": 34.7847286}, {"type": "node", "id": 444731151, "lat": 32.0844162, "lon": 34.7857, "tags": {"highway": "traffic_signals"}}, {"type": "node", "id": 693224307, "lat": 32.0866687, "lon": 34.7819976}, {"type": "node", "id": 1467374092, "lat": 32.087196, "lon": 34.7822204}, {"type": "node", "id": 1995998584, "lat": 32.0822276, "lon": 34.7814292}, {"type": "node", "id": 1995998588, "lat": 32.0832361, "lon": 34.7814856}, {"type": "node", "id": 1995998592, "lat": 32.0839985, "lon": 34.7816239}, {"type": "node", "id": 1995998596, "lat": 32.0844516, "lon": 34.7817293, "tags": {"crossing": "uncontrolled", "crossing:island": "no", "crossing:markings": "yes", "highway": "crossing"}}, {"type": "node", "id": 1995998603, "lat": 32.0853106, "lon": 34.7819394, "tags": {"bicycle": "destination", "check_date:crossing": "2022-07-07", "crossing": "traffic_signals", "highway": "crossing"}}, {"type": "node", "id": 2072034632, "lat": 32.084587, "lon": 34.7815257}, {"type": "node", "id": 2072034641, "lat": 32.0866976, "lon": 34.7819562, "tags": {"crossing": "uncontrolled", "crossing:markings": "yes", "highway": "crossing"}}, {"type": "node", "id": 2166639370, "lat": 32.0854678, "lon": 34.7819266}, {"type": "node", "id": 2166639373, "lat": 32.0853711, "lon": 34.7819581, "tags": {"bicycle": "designated", "highway": "crossing"}}, {"type": "node", "id": 2166639375, "lat": 32.0852674, "lon": 34.7821282}, {"type": "node", "id": 2166644191, "lat": 32.0851563, "lon": 34.7821538}, {"type": "node", "id": 2166644192, "lat": 32.0851679, "lon": 34.7819064, "tags": {"crossing": "marked", "crossing:markings": "zebra", "highway": "crossing"}}, {"type": "node", "id": 2166644193, "lat": 32.0851049, "lon": 34.7818543}, {"type": "node", "id": 2304907593, "lat": 32.0880857, "lon": 34.7823755, "tags": {"highway": "traffic_signals"}}, {"type": "node", "id": 2475602290, "lat": 32.0853552, "lon": 34.7817405, "tags": {"highway": "traffic_signals"}}, {"type": "node", "id": 2496365164, "lat": 32.0853319, "lon": 34.7816749}, {"type": "node", "id": 2701012471, "lat": 32.0817715, "lon": 34.7814475}, {"type": "node", "id": 2701029691, "lat": 32.0853907, "lon": 34.7817474, "tags": {"bicycle": "designated", "crossing": "traffic_signals", "highway": "crossing"}}, {"type": "node", "id": 2701029692, "lat": 32.0833084, "lon": 34.7813273, "tags": {"bicycle": "designated", "crossing": "traffic_signals", "highway": "crossing"}}, {"type": "node", "id": 2701029697, "lat": 32.0852035, "lon": 34.781875, "tags": {"bicycle": "yes", "check_date:crossing": "2022-12-19", "crossing": "traffic_signals", "highway": "crossing", "traffic_signals:sound": "no"}}, {"type": "node", "id": 2701029702, "lat": 32.0853485, "lon": 34.7819046, "tags": {"bicycle": "designated", "crossing": "traffic_signals", "highway": "crossing"}}, {"type": "node", "id": 2701029705, "lat": 32.0833722, "lon": 34.7812811}, {"type": "node", "id": 2701029707, "lat": 32.0830735, "lon": 34.7814762}, {"type": "node", "id": 2701029713, "lat": 32.0851324, "lon": 34.7819294}, {"type": "node", "id": 2701029715, "lat": 32.0854042, "lon": 34.7816896}, {"type": "node", "id": 2701029718, "lat": 32.0852369, "lon": 34.7817169, "tags": {"bicycle": "yes", "crossing": "traffic_signals", "highway": "crossing"}}, {"type": "node", "id": 2701029722, "lat": 32.0854555, "lon": 34.7817002}, {"type": "node", "id": 2701029724, "lat": 32.0852542, "lon": 34.7816574}, {"type": "node", "id": 2701029728, "lat": 32.0851993, "lon": 34.781914}, {"type": "node", "id": 2701029730, "lat": 32.0832974, "lon": 34.7814967}, {"type": "node", "id": 2701029732, "lat": 32.085198, "lon": 34.7816461}, {"type": "node", "id": 2701029734, "lat": 32.085092, "lon": 34.7818764}, {"type": "node", "id": 2701029742, "lat": 32.0853382, "lon": 34.781944}, {"type": "node", "id": 2701029745, "lat": 32.0833, "lon": 34.7814572, "tags": {"bicycle": "designated", "crossing": "traffic_signals", "highway": "crossing"}}, {"type": "node", "id": 2701037105, "lat": 32.0880337, "lon": 34.7821796}, {"type": "node", "id": 2701037111, "lat": 32.088023, "lon": 34.7822466, "tags": {"bicycle": "yes", "crossing": "traffic_signals", "highway": "crossing"}}, {"type": "node", "id": 2701037114, "lat": 32.0880052, "lon": 34.7823617, "tags": {"bicycle": "yes", "crossing": "traffic_signals", "highway": "crossing"}}, {"type": "node", "id": 3930028274, "lat": 32.0846224, "lon": 34.7814724}, {"type": "node", "id": 4177163632, "lat": 32.086813, "lon": 34.7811878}, {"type": "node", "id": 4177163633, "lat": 32.0861215, "lon": 34.7810381}, {"type": "node", "id": 4368626143, "lat": 32.0850615, "lon": 34.7822065, "tags": {"amenity": "recycling", "name": "clothing recycling bin", "name:en": "clothing recycling bin", "recycling:clothes": "yes"}}, {"type": "node", "id": 4486515206, "lat": 32.0850605, "lon": 34.7819181, "tags": {"amenity": "restaurant", "capacity": "50", "cuisine": "breakfast", "delivery": "yes", "name": "The Streets", "name:en": "The Streets", "phone": "+972 3 5281616", "smoking": "outside", "takeaway": "yes", "website": "http://thestreets.co.il/streets-ibn-gbirol/"}}, {"type": "node", "id": 4486515207, "lat": 32.0850654, "lon": 34.7815723, "tags": {"amenity": "fast_food", "capacity": "15", "cuisine": "falafel", "description": "\u05e4\u05d0\u05dc\u05e4\u05dc 4 \u05d4\u05e6\u05d1\u05e2\u05d9\u05dd", "name": "the 4 colors falafel", "name:en": "the 4 colors falafel", "smoking": "outside", "takeaway": "yes"}}, {"type": "node", "id": 5848990987, "lat": 32.0863445, "lon": 34.7820725}, {"type": "node", "id": 6866364590, "lat": 32.0857992, "lon": 34.7809683}, {"type": "node", "id": 7041729649, "lat": 32.0863058, "lon": 34.782066}, {"type": "node", "id": 7041729679, "lat": 32.086001, "lon": 34.7820146}, {"type": "node", "id": 7941723577, "lat": 32.0852001, "lon": 34.7825906, "tags": {"bus": "yes", "gtfs:stop_code:IL-MOT": "20635", "gtfs:stop_id:IL-MOT": "43985", "gtfs:stop_name:IL-MOT": "\u05d0\u05e8\u05dc\u05d5\u05d6\u05d5\u05e8\u05d5\u05d1/\u05d0\u05d1\u05df \u05d2\u05d1\u05d9\u05e8\u05d5\u05dc", "highway": "bus_stop", "name": "\u05d0\u05e8\u05dc\u05d5\u05d6\u05d5\u05e8\u05d5\u05d1/\u05d0\u05d1\u05df \u05d2\u05d1\u05d9\u05e8\u05d5\u05dc", "name:ar": "\u0623\u0631\u0644\u0648\u0632\u0648\u0631\u0648\u0641/ \u0625\u064a\u0641\u0646 \u062c\u0641\u064a\u0631\u0648\u0644", "name:en": "Arlozorov/Ibn Gvirol", "name:en1": "Arlozorov/Ibn Gvirol", "name:he": "\u05d0\u05e8\u05dc\u05d5\u05d6\u05d5\u05e8\u05d5\u05d1/\u05d0\u05d1\u05df \u05d2\u05d1\u05d9\u05e8\u05d5\u05dc", "object:city": "\u05ea\u05dc \u05d0\u05d1\u05d9\u05d1 \u05d9\u05e4\u05d5", "object:housenumber": "85", "object:street": "\u05d0\u05e8\u05dc\u05d5\u05d6\u05d5\u05e8\u05d5\u05d1", "public_transport": "platform", "ref": "20635"}}, {"type": "node", "id": 9272060067, "lat": 32.0878906, "lon": 34.7823504}, {"type": "node", "id": 9875396533, "lat": 32.0851758, "lon": 34.7819373}, {"type": "node", "id": 9875396534, "lat": 32.0851788, "lon": 34.7819914}, {"type": "node", "id": 9875396535, "lat": 32.0851766, "lon": 34.7820511}, {"type": "node", "id": 9875396536, "lat": 32.0851521, "lon": 34.781886}, {"type": "node", "id": 9875396537, "lat": 32.0851149, "lon": 34.7818863}, {"type": "node", "id": 9875396538, "lat": 32.0851278, "lon": 34.7819046}, {"type": "node", "id": 9875396539, "lat": 32.0851303, "lon": 34.7818685}, {"type": "node", "id": 9982823056, "lat": 32.0844494, "lon": 34.7855399, "tags": {"crossing": "marked;uncontrolled", "crossing:markings": "yes", "highway": "crossing"}}, {"type": "node", "id": 10805289618, "lat": 32.0849075, "lon": 34.7815424, "tags": {"amenity": "atm"}}, {"type": "node", "id": 11015386767, "lat": 32.0849208, "lon": 34.7825155, "tags": {"amenity": "community_centre", "name": "\u05de\u05e8\u05db\u05d6 \u05e7\u05d4\u05d9\u05dc\u05ea\u05d9 \u05e2\u05dc \u05e9\u05dd \u05d1\u05e0\u05d9 \u05dc\u05d5\u05d8\u05d9 \u05e8\u05d9\u05d9\u05da \u05dc\u05d0\u05d6\u05e8\u05d7\u05d9\u05dd \u05d5\u05ea\u05d9\u05e7\u05d9\u05dd", "name:he": "\u05de\u05e8\u05db\u05d6 \u05e7\u05d4\u05d9\u05dc\u05ea\u05d9 \u05e2\u05dc \u05e9\u05dd \u05d1\u05e0\u05d9 \u05dc\u05d5\u05d8\u05d9 \u05e8\u05d9\u05d9\u05da \u05dc\u05d0\u05d6\u05e8\u05d7\u05d9\u05dd \u05d5\u05ea\u05d9\u05e7\u05d9\u05dd"}}, {"type": "node", "id": 11425767897, "lat": 32.0849044, "lon": 34.7833582, "tags": {"crossing": "uncontrolled", "crossing:markings": "yes", "highway": "crossing"}}, {"type": "node", "id": 11560905239, "lat": 32.0870233, "lon": 34.7821904, "tags": {"highway": "traffic_signals"}}, {"type": "node", "id": 11560905240, "lat": 32.0870424, "lon": 34.7820663, "tags": {"highway": "traffic_signals"}}, {"type": "node", "id": 11560905241, "lat": 32.0870503, "lon": 34.7820152}, {"type": "node", "id": 12045051910, "lat": 32.0853683, "lon": 34.7816823}, {"type": "node", "id": 12045211634, "lat": 32.0859452, "lon": 34.7793576}, {"type": "node", "id": 12086894067, "lat": 32.0849348, "lon": 34.7832129}, {"type": "node", "id": 12098262024, "lat": 32.0850908, "lon": 34.783022}, {"type": "node", "id": 12098262027, "lat": 32.0864066, "lon": 34.7820833}, {"type": "node", "id": 12135558109, "lat": 32.0849651, "lon": 34.7818157}, {"type": "node", "id": 12135558110, "lat": 32.0851186, "lon": 34.7816923}, {"type": "node", "id": 12172561706, "lat": 32.084806, "lon": 34.781547, "tags": {"bench": "yes", "bin": "yes", "bus": "yes", "gtfs:stop_code:IL-MOT": "20699", "gtfs:stop_id:IL-MOT": "45039", "gtfs:stop_name:IL-MOT": "\u05d0\u05d1\u05df \u05d2\u05d1\u05d9\u05e8\u05d5\u05dc/\u05d0\u05e8\u05dc\u05d5\u05d6\u05d5\u05e8\u05d5\u05d1", "highway": "bus_stop", "name": "\u05d0\u05d1\u05df \u05d2\u05d1\u05d9\u05e8\u05d5\u05dc/\u05d0\u05e8\u05dc\u05d5\u05d6\u05d5\u05e8\u05d5\u05d1", "name:ar": "\u0625\u0628\u0646 \u063a\u0628\u064a\u0631\u0648\u0644/\u0623\u0631\u0644\u0648\u0632\u0648\u0631\u0648\u0641", "name:en": "Ibn Gabirol/Arlosoroff", "name:he": "\u05d0\u05d1\u05df \u05d2\u05d1\u05d9\u05e8\u05d5\u05dc/\u05d0\u05e8\u05dc\u05d5\u05d6\u05d5\u05e8\u05d5\u05d1", "object:city": "\u05ea\u05dc \u05d0\u05d1\u05d9\u05d1 \u05d9\u05e4\u05d5", "object:housenumber": "89", "object:street": "\u05d0\u05d1\u05df \u05d2\u05d1\u05d9\u05e8\u05d5\u05dc", "public_transport": "platform", "ref": "20699", "route_ref": "3;9;21;24;25;26;48;55;56;61;66;74;90;125;126;189;247;273;277;289;425;608;699", "shelter": "yes"}}, {"type": "node", "id": 12172561821, "lat": 32.084898, "lon": 34.781789, "tags": {"bus": "yes", "gtfs:stop_code:IL-MOT": "20700", "gtfs:stop_id:IL-MOT": "45038", "gtfs:stop_name:IL-MOT": "\u05d0\u05d1\u05df \u05d2\u05d1\u05d9\u05e8\u05d5\u05dc/\u05d0\u05e8\u05dc\u05d5\u05d6\u05d5\u05e8\u05d5\u05d1", "highway": "bus_stop", "name": "\u05d0\u05d1\u05df \u05d2\u05d1\u05d9\u05e8\u05d5\u05dc/\u05d0\u05e8\u05dc\u05d5\u05d6\u05d5\u05e8\u05d5\u05d1", "name:ar": "\u0625\u0628\u0646 \u063a\u0628\u064a\u0631\u0648\u0644/\u0623\u0631\u0644\u0648\u0632\u0648\u0631\u0648\u0641", "name:en": "Ibn Gabirol/Arlosoroff", "name:he": "\u05d0\u05d1\u05df \u05d2\u05d1\u05d9\u05e8\u05d5\u05dc/\u05d0\u05e8\u05dc\u05d5\u05d6\u05d5\u05e8\u05d5\u05d1", "object:city": "\u05ea\u05dc \u05d0\u05d1\u05d9\u05d1 \u05d9\u05e4\u05d5", "object:housenumber": "112", "object:street": "\u05d0\u05d1\u05df \u05d2\u05d1\u05d9\u05e8\u05d5\u05dc", "public_transport": "platform", "ref": "20700", "route_ref": "3;9;21;24;25;26;48;56;74;125;126;189;247;273;277;289;425;608;699", "shelter": "yes"}}, {"type": "node", "id": 12478297515, "lat": 32.0852425, "lon": 34.7816551}, {"type": "node", "id": 12478297516, "lat": 32.0855197, "lon": 34.7805151}, {"type": "way", "id": 30088744, "nodes": [331408674, 1995998596, 285955351], "tags": {"highway": "residential", "maxspeed": "30", "name": "\u05d0\u05e0\u05d8\u05d5\u05e7\u05d5\u05dc\u05e1\u05e7\u05d9", "name:en": "Antokolsky", "name:he": "\u05d0\u05e0\u05d8\u05d5\u05e7\u05d5\u05dc\u05e1\u05e7\u05d9", "oneway": "no", "sidewalk": "both", "surface": "asphalt"}}, {"type": "way", "id": 30615737, "nodes": [338523864, 6866364590], "tags": {"alt_name:en": "Immanuel the Roman;Immanuel Ha'Romi", "highway": "residential", "maxspeed": "30", "name": "\u05e9\u05d3\u05e8\u05d5\u05ea \u05e2\u05de\u05e0\u05d5\u05d0\u05dc \u05d4\u05e8\u05d5\u05de\u05d9", "name:ar": "\u0639\u0645\u0646\u0648\u0626\u064a\u0644 \u0647\u0631\u0648\u0645\u064a", "name:en": "Immanuel HaRomi", "name:he": "\u05e9\u05d3\u05e8\u05d5\u05ea \u05e2\u05de\u05e0\u05d5\u05d0\u05dc \u05d4\u05e8\u05d5\u05de\u05d9", "oneway": "no", "source:maxspeed": "IL:zone30"}}, {"type": "way", "id": 30615748, "nodes": [362648349, 338523914, 338523995, 4177163633], "tags": {"highway": "residential", "maxspeed": "30", "name": "\u05d0\u05de\u05e1\u05d8\u05e8\u05d3\u05dd", "name:ar": "\u0623\u0645\u0633\u062a\u0631\u062f\u0627\u0645", "name:en": "Amsterdam", "name:he": "\u05d0\u05de\u05e1\u05d8\u05e8\u05d3\u05dd", "name:ru": "\u0410\u043c\u0441\u0442\u0435\u0440\u0434\u0430\u043c", "oneway": "yes", "surface": "asphalt"}}, {"type": "way", "id": 30765194, "nodes": [340232952, 340233836, 340233619, 340377994, 3930028274, 2072034632, 340233156], "tags": {"highway": "residential", "lit": "yes", "maxspeed": "30", "name": "\u05d0\u05dc\u05d7\u05e8\u05d9\u05d6\u05d9", "name:ar": "\u0627\u0644\u0647\u0627\u0631\u0632\u064a", "name:en": "Al-Harizi", "name:en1": "El'Harizi", "name:en2": "ElHarizi", "name:he": "\u05d0\u05dc\u05d7\u05e8\u05d9\u05d6\u05d9", "oneway": "yes", "source:maxspeed": "sign", "surface": "asphalt"}}, {"type": "way", "id": 30780200, "nodes": [340377994, 345753220, 340378003], "tags": {"highway": "residential", "lit": "yes", "maxspeed": "30", "name": "\u05d4\u05e4\u05e8\u05d3\u05e1", "name:ar": "\u0628\u0627\u0631\u062f\u064a\u0633", "name:en": "HaPardes", "name:en1": "Ha'Pardes", "name:he": "\u05d4\u05e4\u05e8\u05d3\u05e1", "name:ru": "\u0425\u0430\u041f\u0430\u0440\u0434\u0435\u0441", "oneway": "yes", "sidewalk": "both", "surface": "asphalt", "width": "6.7"}}, {"type": "way", "id": 32003676, "nodes": [29944880, 2701037111, 11560905240, 693224307, 2701029691, 2475602290], "tags": {"highway": "secondary", "lanes": "2", "lit": "yes", "maxspeed": "30", "name": "\u05d0\u05d1\u05df \u05d2\u05d1\u05d9\u05e8\u05d5\u05dc", "name:ar": "\u0628\u0646 \u062c\u0627\u0628\u064a\u0631\u0648\u0644", "name:en": "Ibn Gabirol", "name:en1": "Ibn Gvirol", "name:en2": "Even Gvirol", "name:en3": "Eben Gvirol", "name:he": "\u05d0\u05d1\u05df \u05d2\u05d1\u05d9\u05e8\u05d5\u05dc", "name:ro": "Bulevardul Ibn Gabirol", "name:ru": "\u0418\u0431\u043d \u0413\u0432\u0438\u0440\u043e\u043b\u044c", "oneway": "yes", "sidewalk": "right", "surface": "asphalt"}}, {"type": "way", "id": 206628680, "nodes": [2166644193, 9875396539, 9875396536, 2166644192, 9875396533, 9875396534, 9875396535, 2166644191, 12086894067, 11425767897, 444731120, 9982823056, 444731151], "tags": {"highway": "tertiary", "lanes": "1", "maxspeed": "30", "name": "\u05d0\u05e8\u05dc\u05d5\u05d6\u05d5\u05e8\u05d5\u05d1", "name:ar": "\u0623\u0631\u0644\u0648\u0632\u0648\u0631\u0648\u06a4", "name:en": "Arlosoroff", "name:en1": "Arlozorov", "name:en2": "Dr. Haim Arlosoroff", "name:he": "\u05d0\u05e8\u05dc\u05d5\u05d6\u05d5\u05e8\u05d5\u05d1", "name:he1": "\u05d3\"\u05e8 \u05d7\u05d9\u05d9\u05dd \u05d0\u05e8\u05dc\u05d5\u05d6\u05d5\u05e8\u05d5\u05d1", "name:ro": "Arlozorov", "name:ru": "\u0410\u0440\u043b\u043e\u0437\u043e\u0440\u043e\u0432", "oneway": "yes", "sidewalk": "right", "source:maxspeed": "sign"}}, {"type": "way", "id": 239790650, "nodes": [2701029718, 12135558110, 340233156, 2701029692, 340007158], "tags": {"highway": "secondary", "name": "\u05d0\u05d1\u05df \u05d2\u05d1\u05d9\u05e8\u05d5\u05dc", "name:ar": "\u0628\u0646 \u062c\u0627\u0628\u064a\u0631\u0648\u0644", "name:en": "Ibn Gabirol", "name:en1": "Ibn Gvirol", "name:en2": "Even Gvirol", "name:en3": "Eben Gvirol", "name:he": "\u05d0\u05d1\u05df \u05d2\u05d1\u05d9\u05e8\u05d5\u05dc", "name:ro": "Bulevardul Ibn Gabirol", "name:ru": "\u0418\u0431\u043d \u0413\u0432\u0438\u0440\u043e\u043b\u044c", "oneway": "yes", "sidewalk": "right", "surface": "asphalt", "wikidata": "Q2613705"}}, {"type": "way", "id": 264417842, "nodes": [2701012471, 1995998584, 2701029707, 1995998588, 2701029730, 1995998592, 1995998596, 2701029734], "tags": {"bicycle": "designated", "foot": "designated", "highway": "path", "mtb:name": "\u05e9\u05d1\u05d9\u05dc \u05d0\u05d1\u05df \u05d2\u05d1\u05d9\u05e8\u05d5\u05dc", "mtb:name:he": "\u05e9\u05d1\u05d9\u05dc \u05d0\u05d1\u05df \u05d2\u05d1\u05d9\u05e8\u05d5\u05dc", "oneway:mtb": "yes", "segregated": "yes", "surface": "paved"}}, {"type": "way", "id": 264419701, "nodes": [2701029722, 2701029715, 12045051910, 2496365164, 2701029724, 12478297515, 2701029732], "tags": {"bicycle": "designated", "foot": "designated", "highway": "path", "mtb:name": "\u05e9\u05d1\u05d9\u05dc \u05d0\u05d1\u05df \u05d2\u05d1\u05d9\u05e8\u05d5\u05dc", "mtb:name:he": "\u05e9\u05d1\u05d9\u05dc \u05d0\u05d1\u05df \u05d2\u05d1\u05d9\u05e8\u05d5\u05dc", "segregated": "yes", "surface": "paved"}}, {"type": "way", "id": 264419702, "nodes": [2701029728, 2701029697, 2701029718, 2701029724], "tags": {"highway": "path", "surface": "asphalt"}}, {"type": "way", "id": 264419703, "nodes": [2701029742, 2701029702, 2701029691, 2701029715], "tags": {"bicycle": "designated", "foot": "designated", "highway": "path"}}, {"type": "way", "id": 264419710, "nodes": [2701029732, 2072034632, 2701029705], "tags": {"bicycle": "designated", "foot": "designated", "highway": "path", "mtb:name": "\u05e9\u05d1\u05d9\u05dc \u05d0\u05d1\u05df \u05d2\u05d1\u05d9\u05e8\u05d5\u05dc", "mtb:name:he": "\u05e9\u05d1\u05d9\u05dc \u05d0\u05d1\u05df \u05d2\u05d1\u05d9\u05e8\u05d5\u05dc", "oneway:mtb": "yes", "segregated": "yes", "surface": "paved"}}, {"type": "way", "id": 264419712, "nodes": [2701029734, 9875396537, 9875396538, 2701029713, 2166644192, 2701029728, 1995998603, 2701029742, 2166639373], "tags": {"bicycle": "designated", "foot": "designated", "highway": "path", "mtb:name": "\u05e9\u05d1\u05d9\u05dc \u05d0\u05d1\u05df \u05d2\u05d1\u05d9\u05e8\u05d5\u05dc", "mtb:name:he": "\u05e9\u05d1\u05d9\u05dc \u05d0\u05d1\u05df \u05d2\u05d1\u05d9\u05e8\u05d5\u05dc", "segregated": "yes", "surface": "paved"}}, {"type": "way", "id": 264421663, "nodes": [2701037105, 11560905241, 2072034641, 2701029722], "tags": {"bicycle": "no", "foot": "designated", "highway": "path", "mtb:name": "\u05e9\u05d1\u05d9\u05dc \u05d0\u05d1\u05df \u05d2\u05d1\u05d9\u05e8\u05d5\u05dc", "mtb:name:he": "\u05e9\u05d1\u05d9\u05dc \u05d0\u05d1\u05df \u05d2\u05d1\u05d9\u05e8\u05d5\u05dc", "surface": "paving_stones"}}, {"type": "way", "id": 422732879, "nodes": [340232434, 12098262024, 2166639375, 1995998603, 339420506], "tags": {"highway": "tertiary", "lanes": "1", "maxspeed": "30", "name": "\u05d0\u05e8\u05dc\u05d5\u05d6\u05d5\u05e8\u05d5\u05d1", "name:ar": "\u0623\u0631\u0644\u0648\u0632\u0648\u0631\u0648\u06a4", "name:en": "Arlosoroff", "name:en1": "Arlozorov", "name:en2": "Dr. Haim Arlosoroff", "name:he": "\u05d0\u05e8\u05dc\u05d5\u05d6\u05d5\u05e8\u05d5\u05d1", "name:he1": "\u05d3\"\u05e8 \u05d7\u05d9\u05d9\u05dd \u05d0\u05e8\u05dc\u05d5\u05d6\u05d5\u05e8\u05d5\u05d1", "name:ro": "Arlozorov", "name:ru": "\u0410\u0440\u043b\u043e\u0437\u043e\u0440\u043e\u0432", "oneway": "yes", "source:maxspeed": "sign"}}, {"type": "way", "id": 438662510, "nodes": [340007159, 2701029745, 339420678, 285955351, 12135558109, 2166644193], "tags": {"highway": "secondary", "maxspeed": "50", "name": "\u05d0\u05d1\u05df \u05d2\u05d1\u05d9\u05e8\u05d5\u05dc", "name:ar": "\u0628\u0646 \u062c\u0627\u0628\u064a\u0631\u0648\u0644", "name:en": "Ibn Gabirol", "name:en1": "Ibn Gvirol", "name:en2": "Even Gvirol", "name:en3": "Eben Gvirol", "name:he": "\u05d0\u05d1\u05df \u05d2\u05d1\u05d9\u05e8\u05d5\u05dc", "name:ro": "Bulevardul Ibn Gabirol", "name:ru": "\u0418\u0431\u043d \u0413\u0432\u0438\u0440\u043e\u043b\u044c", "oneway": "yes", "sidewalk:left": "no", "sidewalk:right": "separate", "source:maxspeed": "sign", "surface": "asphalt", "wikidata": "Q2613705"}}, {"type": "way", "id": 733227502, "nodes": [6866364590, 4177163633], "tags": {"alt_name:en": "Immanuel the Roman;Immanuel Ha'Romi", "highway": "residential", "maxspeed": "30", "name": "\u05e9\u05d3\u05e8\u05d5\u05ea \u05e2\u05de\u05e0\u05d5\u05d0\u05dc \u05d4\u05e8\u05d5\u05de\u05d9", "name:ar": "\u0639\u0645\u0646\u0648\u0626\u064a\u0644 \u0647\u0631\u0648\u0645\u064a", "name:en": "Immanuel HaRomi", "name:he": "\u05e9\u05d3\u05e8\u05d5\u05ea \u05e2\u05de\u05e0\u05d5\u05d0\u05dc \u05d4\u05e8\u05d5\u05de\u05d9", "oneway": "no"}}, {"type": "way", "id": 733227503, "nodes": [4177163633, 4177163632, 338523918, 332283087], "tags": {"alt_name:en": "Immanuel the Roman;Immanuel Ha'Romi", "highway": "residential", "maxspeed": "30", "name": "\u05e9\u05d3\u05e8\u05d5\u05ea \u05e2\u05de\u05e0\u05d5\u05d0\u05dc \u05d4\u05e8\u05d5\u05de\u05d9", "name:ar": "\u0639\u0645\u0646\u0648\u0626\u064a\u0644 \u0647\u0631\u0648\u0645\u064a", "name:en": "Immanuel HaRomi", "name:he": "\u05e9\u05d3\u05e8\u05d5\u05ea \u05e2\u05de\u05e0\u05d5\u05d0\u05dc \u05d4\u05e8\u05d5\u05de\u05d9", "oneway": "yes"}}, {"type": "way", "id": 1013497366, "nodes": [339420506, 2701029702, 2166639370, 7041729679, 7041729649, 5848990987, 12098262027, 11560905239, 1467374092, 9272060067, 2701037114, 2304907593], "tags": {"highway": "secondary", "lane_markings": "no", "lit": "yes", "maxspeed": "50", "name": "\u05d0\u05d1\u05df \u05d2\u05d1\u05d9\u05e8\u05d5\u05dc", "name:ar": "\u0628\u0646 \u062c\u0627\u0628\u064a\u0631\u0648\u0644", "name:en": "Ibn Gabirol", "name:en1": "Ibn Gvirol", "name:en2": "Even Gvirol", "name:en3": "Eben Gvirol", "name:he": "\u05d0\u05d1\u05df \u05d2\u05d1\u05d9\u05e8\u05d5\u05dc", "name:ro": "Bulevardul Ibn Gabirol", "name:ru": "\u0418\u0431\u043d \u0413\u0432\u0438\u0440\u043e\u043b\u044c", "oneway": "yes", "sidewalk": "right", "source:maxspeed": "sign", "surface": "asphalt"}}, {"type": "way", "id": 1232777971, "nodes": [339420506, 2475602290], "tags": {"highway": "tertiary", "lanes": "1", "maxspeed": "30", "name": "\u05d0\u05e8\u05dc\u05d5\u05d6\u05d5\u05e8\u05d5\u05d1", "name:ar": "\u0623\u0631\u0644\u0648\u0632\u0648\u0631\u0648\u06a4", "name:en": "Arlosoroff", "name:en1": "Arlozorov", "name:en2": "Dr. Haim Arlosoroff", "name:he": "\u05d0\u05e8\u05dc\u05d5\u05d6\u05d5\u05e8\u05d5\u05d1", "name:he1": "\u05d3\"\u05e8 \u05d7\u05d9\u05d9\u05dd \u05d0\u05e8\u05dc\u05d5\u05d6\u05d5\u05e8\u05d5\u05d1", "name:ro": "Arlozorov", "name:ru": "\u0410\u0440\u043b\u043e\u0437\u043e\u0440\u043e\u0432", "oneway": "yes", "source:maxspeed": "sign"}}, {"type": "way", "id": 1300414496, "nodes": [2475602290, 12045051910, 338523864], "tags": {"foot": "yes", "highway": "footway", "lanes": "1", "maxspeed": "30", "maxspeed:type": "IL:urban", "name": "\u05d0\u05e8\u05dc\u05d5\u05d6\u05d5\u05e8\u05d5\u05d1", "name:ar": "\u0623\u0631\u0644\u0648\u0632\u0648\u0631\u0648\u06a4", "name:en": "Arlosoroff", "name:en1": "Arlozorov", "name:en2": "Dr. Haim Arlosoroff", "name:he": "\u05d0\u05e8\u05dc\u05d5\u05d6\u05d5\u05e8\u05d5\u05d1", "name:he1": "\u05d3\"\u05e8 \u05d7\u05d9\u05d9\u05dd \u05d0\u05e8\u05dc\u05d5\u05d6\u05d5\u05e8\u05d5\u05d1", "name:ro": "Arlozorov", "name:ru": "\u0410\u0440\u043b\u043e\u0437\u043e\u0440\u043e\u0432", "oneway": "no", "sidewalk": "both", "surface": "asphalt"}}, {"type": "way", "id": 1300414498, "nodes": [338523864, 12045211634], "tags": {"foot": "yes", "highway": "footway", "lanes": "1", "maxspeed": "30", "maxspeed:type": "IL:urban", "name": "\u05d0\u05e8\u05dc\u05d5\u05d6\u05d5\u05e8\u05d5\u05d1", "name:ar": "\u0623\u0631\u0644\u0648\u0632\u0648\u0631\u0648\u06a4", "name:en": "Arlosoroff", "name:en1": "Arlozorov", "name:en2": "Dr. Haim Arlosoroff", "name:he": "\u05d0\u05e8\u05dc\u05d5\u05d6\u05d5\u05e8\u05d5\u05d1", "name:he1": "\u05d3\"\u05e8 \u05d7\u05d9\u05d9\u05dd \u05d0\u05e8\u05dc\u05d5\u05d6\u05d5\u05e8\u05d5\u05d1", "name:ro": "Arlozorov", "name:ru": "\u0410\u0440\u043b\u043e\u0437\u043e\u0440\u043e\u0432", "oneway": "no", "sidewalk": "both", "surface": "asphalt"}}, {"type": "way", "id": 1300414499, "nodes": [2475602290, 2701029718], "tags": {"highway": "secondary", "lanes": "2", "lit": "yes", "maxspeed": "30", "name": "\u05d0\u05d1\u05df \u05d2\u05d1\u05d9\u05e8\u05d5\u05dc", "name:ar": "\u0628\u0646 \u062c\u0627\u0628\u064a\u0631\u0648\u0644", "name:en": "Ibn Gabirol", "name:en1": "Ibn Gvirol", "name:en2": "Even Gvirol", "name:en3": "Eben Gvirol", "name:he": "\u05d0\u05d1\u05df \u05d2\u05d1\u05d9\u05e8\u05d5\u05dc", "name:ro": "Bulevardul Ibn Gabirol", "name:ru": "\u0418\u0431\u043d \u0413\u0432\u0438\u0440\u043e\u043b\u044c", "oneway": "yes", "sidewalk": "right", "surface": "asphalt"}}, {"type": "way", "id": 1300414500, "nodes": [2166644193, 2701029697, 339420506], "tags": {"highway": "secondary", "maxspeed": "50", "name": "\u05d0\u05d1\u05df \u05d2\u05d1\u05d9\u05e8\u05d5\u05dc", "name:ar": "\u0628\u0646 \u062c\u0627\u0628\u064a\u0631\u0648\u0644", "name:en": "Ibn Gabirol", "name:en1": "Ibn Gvirol", "name:en2": "Even Gvirol", "name:en3": "Eben Gvirol", "name:he": "\u05d0\u05d1\u05df \u05d2\u05d1\u05d9\u05e8\u05d5\u05dc", "name:ro": "Bulevardul Ibn Gabirol", "name:ru": "\u0418\u0431\u043d \u0413\u0432\u0438\u0440\u043e\u043b\u044c", "oneway": "yes", "sidewalk:left": "no", "sidewalk:right": "separate", "source:maxspeed": "sign", "surface": "asphalt"}}, {"type": "way", "id": 1300427698, "nodes": [2701029724, 340233620], "tags": {"foot": "yes", "highway": "cycleway", "lanes": "1", "maxspeed:type": "IL:urban", "name": "\u05d0\u05e8\u05dc\u05d5\u05d6\u05d5\u05e8\u05d5\u05d1", "name:ar": "\u0623\u0631\u0644\u0648\u0632\u0648\u0631\u0648\u06a4", "name:en": "Arlosoroff", "name:en1": "Arlozorov", "name:en2": "Dr. Haim Arlosoroff", "name:he": "\u05d0\u05e8\u05dc\u05d5\u05d6\u05d5\u05e8\u05d5\u05d1", "name:he1": "\u05d3\"\u05e8 \u05d7\u05d9\u05d9\u05dd \u05d0\u05e8\u05dc\u05d5\u05d6\u05d5\u05e8\u05d5\u05d1", "name:ro": "Arlozorov", "name:ru": "\u0410\u0440\u043b\u043e\u0437\u043e\u0440\u043e\u0432", "oneway": "yes", "sidewalk": "both", "surface": "asphalt"}}, {"type": "way", "id": 1348973558, "nodes": [12478297515, 12478297516], "tags": {"foot": "yes", "highway": "footway", "lanes": "1", "maxspeed": "30", "maxspeed:type": "IL:urban", "name": "\u05d0\u05e8\u05dc\u05d5\u05d6\u05d5\u05e8\u05d5\u05d1", "name:ar": "\u0623\u0631\u0644\u0648\u0632\u0648\u0631\u0648\u06a4", "name:en": "Arlosoroff", "name:en1": "Arlozorov", "name:en2": "Dr. Haim Arlosoroff", "name:he": "\u05d0\u05e8\u05dc\u05d5\u05d6\u05d5\u05e8\u05d5\u05d1", "name:he1": "\u05d3\"\u05e8 \u05d7\u05d9\u05d9\u05dd \u05d0\u05e8\u05dc\u05d5\u05d6\u05d5\u05e8\u05d5\u05d1", "name:ro": "Arlozorov", "name:ru": "\u0410\u0440\u043b\u043e\u0437\u043e\u0440\u043e\u0432", "oneway": "no", "sidewalk": "both", "surface": "asphalt"}}]}