{"version": 0.6, "generator": "Overpass API 0.7.62.5 1bd436f1", "osm3s": {"timestamp_osm_base": "2025-05-29T17:05:51Z", "copyright": "The data included in this document is from www.openstreetmap.org. The data is made available under ODbL."}, "elements": [{"type": "node", "id": 334712025, "lat": 32.0758949, "lon": 34.771762, "tags": {"highway": "traffic_signals"}}, {"type": "node", "id": 384690640, "lat": 32.0749849, "lon": 34.7709028}, {"type": "node", "id": 384691747, "lat": 32.075536, "lon": 34.772481}, {"type": "node", "id": 412404375, "lat": 32.0765922, "lon": 34.7725643}, {"type": "node", "id": 412404411, "lat": 32.0761243, "lon": 34.7713111}, {"type": "node", "id": 412404413, "lat": 32.0768433, "lon": 34.7717997}, {"type": "node", "id": 412404418, "lat": 32.0764336, "lon": 34.7707213, "tags": {"highway": "traffic_signals", "traffic_signals": "signal"}}, {"type": "node", "id": 1153441817, "lat": 32.0926361, "lon": 34.7764809, "tags": {"amenity": "bicycle_rental"}}, {"type": "node", "id": 1153443526, "lat": 32.0937263, "lon": 34.7836156, "tags": {"amenity": "bicycle_rental", "bicycle_rental": "docking_station", "capacity": "16"}}, {"type": "node", "id": 1153443532, "lat": 32.0917626, "lon": 34.7826511, "tags": {"amenity": "bicycle_rental"}}, {"type": "node", "id": 1156079710, "lat": 32.0971154, "lon": 34.7758772, "tags": {"amenity": "bicycle_rental"}}, {"type": "node", "id": 1156126871, "lat": 32.0988004, "lon": 34.7887333, "tags": {"amenity": "bicycle_rental", "bicycle_rental": "docking_station", "name": "\u05ea\u05dc \u05d0\u05d5\u05e4\u05df: \u05e9\"\u05d9 \u05e2\u05d2\u05e0\u05d5\u05df 59", "name:he": "\u05ea\u05dc \u05d0\u05d5\u05e4\u05df: \u05e9\"\u05d9 \u05e2\u05d2\u05e0\u05d5\u05df 59"}}, {"type": "node", "id": 1157393954, "lat": 32.0988804, "lon": 34.7812586, "tags": {"amenity": "bicycle_rental"}}, {"type": "node", "id": 1157394642, "lat": 32.1248014, "lon": 34.8023869, "tags": {"amenity": "bicycle_rental", "name": "\u05ea\u05dc \u05d0\u05d5\u05e4\u05df: \u05d0\u05d7\u05d9\u05de\u05d0\u05d9\u05e8 18 - \u05de\u05e8\u05db\u05d6 \u05e9\u05d5\u05e1\u05d8\u05e8", "name:he": "\u05ea\u05dc \u05d0\u05d5\u05e4\u05df: \u05d0\u05d7\u05d9\u05de\u05d0\u05d9\u05e8 18 - \u05de\u05e8\u05db\u05d6 \u05e9\u05d5\u05e1\u05d8\u05e8"}}, {"type": "node", "id": 1157396127, "lat": 32.1077215, "lon": 34.7981388, "tags": {"amenity": "bicycle_rental", "bicycle_rental": "shop", "capacity": "20", "name": "\u05d1\u05e8\u05d5\u05d3\u05e6\u05e7\u05d9 \u05e4\u05d9\u05e0\u05ea \u05e9\u05d3 \u05d0\u05d1\u05e0\u05e8", "name:he": "\u05d1\u05e8\u05d5\u05d3\u05e6\u05e7\u05d9 \u05e4\u05d9\u05e0\u05ea \u05e9\u05d3 \u05d0\u05d1\u05e0\u05e8", "network": "Tel-O-Fun", "payment:credit_cards": "yes", "ref": "113", "shop": "rental"}}, {"type": "node", "id": 1157396376, "lat": 32.1102109, "lon": 34.7904436, "tags": {"amenity": "bicycle_rental", "bicycle_rental": "docking_station", "name": "\u05ea\u05dc \u05d0\u05d5\u05e4\u05df: \u05e4\u05e8\u05dc\u05d5\u05e7 4", "name:he": "\u05ea\u05dc \u05d0\u05d5\u05e4\u05df: \u05e4\u05e8\u05dc\u05d5\u05e7 4"}}, {"type": "node", "id": 1157399238, "lat": 32.1200705, "lon": 34.7932689, "tags": {"amenity": "bicycle_rental", "name": "\u05ea\u05dc \u05d0\u05d5\u05e4\u05df: \u05e8\u05d5\u05d3\u05e0\u05e1\u05e7\u05d9 - \u05de\u05e8\u05db\u05d6 \u05de\u05e1\u05d7\u05e8\u05d9", "name:he": "\u05ea\u05dc \u05d0\u05d5\u05e4\u05df: \u05e8\u05d5\u05d3\u05e0\u05e1\u05e7\u05d9 - \u05de\u05e8\u05db\u05d6 \u05de\u05e1\u05d7\u05e8\u05d9"}}, {"type": "node", "id": 1157400314, "lat": 32.1018745, "lon": 34.7926013, "tags": {"amenity": "bicycle_rental", "bicycle_rental": "docking_station"}}, {"type": "node", "id": 1157401075, "lat": 32.1211891, "lon": 34.7831418, "tags": {"amenity": "bicycle_rental", "capacity": "20", "description": "\u05de\u05d3\u05e8\u05d2\u05d5\u05ea", "description:he": "\u05de\u05d3\u05e8\u05d2\u05d5\u05ea", "name": "\u05d7\u05d5\u05e3 \u05ea\u05dc \u05d1\u05e8\u05d5\u05da", "name:he": "\u05d7\u05d5\u05e3 \u05ea\u05dc \u05d1\u05e8\u05d5\u05da", "network": "Tel-O-Fun", "ref:IL:inature": "\u05d7\u05d5\u05e3 \u05ea\u05dc \u05d1\u05e8\u05d5\u05da"}}, {"type": "node", "id": 1161224266, "lat": 32.0953625, "lon": 34.7783694, "tags": {"amenity": "bicycle_rental"}}, {"type": "node", "id": 1171882556, "lat": 32.062986, "lon": 34.7703426, "tags": {"amenity": "bicycle_rental", "bicycle_rental": "docking_station", "capacity": "28", "name": "\u05e8\u05d5\u05d8\u05e9\u05d9\u05dc\u05d3 11 \u05e4\u05d9\u05e0\u05ea \u05d4\u05e8\u05e6\u05dc", "name:he": "\u05e8\u05d5\u05d8\u05e9\u05d9\u05dc\u05d3 11 \u05e4\u05d9\u05e0\u05ea \u05d4\u05e8\u05e6\u05dc", "ref": "369"}}, {"type": "node", "id": 1171883569, "lat": 32.062957, "lon": 34.7797989, "tags": {"amenity": "bicycle_rental", "bicycle_rental": "docking_station", "capacity": "28", "name": "\u05d1\u05d2\u05d9\u05df 48 \u05e4\u05d9\u05e0\u05ea \u05d4\u05e8\u05db\u05d1\u05ea", "name:en": "Begin 48 / HaRakevet", "name:he": "\u05d1\u05d2\u05d9\u05df 48 \u05e4\u05d9\u05e0\u05ea \u05d4\u05e8\u05db\u05d1\u05ea", "network": "Tel-O-Fun", "payment:credit_cards": "yes", "ref": "371", "wheelchair": "yes"}}, {"type": "node", "id": 1171885036, "lat": 32.0814217, "lon": 34.7738867, "tags": {"amenity": "bicycle_rental"}}, {"type": "node", "id": 1171885266, "lat": 32.0840563, "lon": 34.7816564, "tags": {"amenity": "bicycle_rental"}}, {"type": "node", "id": 1171886214, "lat": 32.0963, "lon": 34.7906541, "tags": {"amenity": "bicycle_rental"}}, {"type": "node", "id": 1171886311, "lat": 32.0978056, "lon": 34.7970355, "tags": {"amenity": "bicycle_rental", "name": "\u05ea\u05dc \u05d0\u05d5\u05e4\u05df: \u05e7\u05d5\u05e1\u05d5\u05d1\u05e1\u05e7\u05d9 34 - \u05d2\u05e0\u05d9 \u05d9\u05d4\u05d5\u05e9\u05d5\u05e2", "name:he": "\u05ea\u05dc \u05d0\u05d5\u05e4\u05df: \u05e7\u05d5\u05e1\u05d5\u05d1\u05e1\u05e7\u05d9 34 - \u05d2\u05e0\u05d9 \u05d9\u05d4\u05d5\u05e9\u05d5\u05e2"}}, {"type": "node", "id": 1171889386, "lat": 32.1134285, "lon": 34.8327684, "tags": {"amenity": "bicycle_rental"}}, {"type": "node", "id": 1172162547, "lat": 32.1222178, "lon": 34.8176757, "tags": {"amenity": "bicycle_rental"}}, {"type": "node", "id": 1179532546, "lat": 32.0907102, "lon": 34.7907125, "tags": {"amenity": "bicycle_rental", "check_date": "2023-06-01"}}, {"type": "node", "id": 1184017367, "lat": 32.091087, "lon": 34.7864591, "tags": {"amenity": "bicycle_rental"}}, {"type": "node", "id": 1184017987, "lat": 32.0941229, "lon": 34.7926336, "tags": {"amenity": "bicycle_rental"}}, {"type": "node", "id": 1184019738, "lat": 32.0829108, "lon": 34.7772837, "tags": {"addr:city": "\u05ea\u05dc \u05d0\u05d1\u05d9\u05d1-\u05d9\u05e4\u05d5", "addr:housenumber": "68", "addr:street": "\u05e9\u05d3\u05e8\u05d5\u05ea \u05d3\u05d5\u05d3 \u05d1\u05df \u05d2\u05d5\u05e8\u05d9\u05d5\u05df", "amenity": "bicycle_rental", "capacity": "28", "compressed_air": "yes", "name": "\u05e9\u05d3\u05e8\u05d5\u05ea \u05d1\u05df \u05d2\u05d5\u05e8\u05d9\u05d5\u05df 68", "name:en": "68 Ben Gurion Av.", "name:he": "\u05e9\u05d3\u05e8\u05d5\u05ea \u05d1\u05df \u05d2\u05d5\u05e8\u05d9\u05d5\u05df 68", "network": "Tel-O-Fun", "payment:credit_cards": "yes", "ref": "330"}}, {"type": "node", "id": 1184840368, "lat": 32.0913538, "lon": 34.7944659, "tags": {"amenity": "bicycle_rental"}}, {"type": "node", "id": 1185647914, "lat": 32.0770726, "lon": 34.7884566, "tags": {"addr:city": "\u05ea\u05dc \u05d0\u05d1\u05d9\u05d1-\u05d9\u05e4\u05d5", "addr:housenumber": "1", "addr:street": "\u05d5\u05d9\u05e6\u05de\u05df", "amenity": "bicycle_rental", "bicycle_rental": "docking_station", "capacity": "28", "name": "\u05d5\u05d9\u05e6\u05de\u05df 1 - \u05d1\u05d9\u05ea \u05d4\u05de\u05e9\u05e4\u05d8", "name:en": "1 Weizman St. - Court Justice Hall", "name:he": "\u05d5\u05d9\u05e6\u05de\u05df 1 - \u05d1\u05d9\u05ea \u05d4\u05de\u05e9\u05e4\u05d8", "network": "Tel-O-Fun", "payment:credit_cards": "yes", "ref": "345"}}, {"type": "node", "id": 1185648094, "lat": 32.0799067, "lon": 34.7853697, "tags": {"amenity": "bicycle_rental", "bicycle_rental": "docking_station", "capacity": "20", "name": "\u05d3\u05d5\u05d3 \u05d4\u05de\u05dc\u05da 30", "name:he": "\u05d3\u05d5\u05d3 \u05d4\u05de\u05dc\u05da 30", "payment:credit_cards": "yes", "ref": "332"}}, {"type": "node", "id": 1187812125, "lat": 32.0946669, "lon": 34.7726777, "tags": {"amenity": "bicycle_rental"}}, {"type": "node", "id": 1187820821, "lat": 32.0813769, "lon": 34.7706503, "tags": {"amenity": "bicycle_rental"}}, {"type": "node", "id": 1187828917, "lat": 32.0760384, "lon": 34.7712551, "tags": {"amenity": "bicycle_rental"}}, {"type": "node", "id": 1187833758, "lat": 32.0666435, "lon": 34.7662392, "tags": {"amenity": "bicycle_rental", "bicycle_rental": "docking_station", "capacity": "24"}}, {"type": "node", "id": 1189621393, "lat": 32.0559437, "lon": 34.7556465, "tags": {"addr:city": "\u05ea\u05dc \u05d0\u05d1\u05d9\u05d1-\u05d9\u05e4\u05d5", "addr:street": "\u05e8\u05e6\u05d9\u05e3 \u05d4\u05e2\u05dc\u05d9\u05d9\u05d4 \u05d4\u05e9\u05e0\u05d9\u05d9\u05d4", "amenity": "bicycle_rental", "capacity": "27", "compressed_air": "yes", "name": "\u05e8\u05e6\u05d9\u05e3 \u05d4\u05e2\u05dc\u05d9\u05d4 \u05d4\u05e9\u05e0\u05d9\u05d4 - \u05db\u05d9\u05db\u05e8 \u05d4\u05e9\u05e2\u05d5\u05df", "name:en": "The Clock Tower", "name:he": "\u05e8\u05e6\u05d9\u05e3 \u05d4\u05e2\u05dc\u05d9\u05d4 \u05d4\u05e9\u05e0\u05d9\u05d4 - \u05db\u05d9\u05db\u05e8 \u05d4\u05e9\u05e2\u05d5\u05df", "network": "Tel-O-Fun", "payment:credit_cards": "yes", "ref": "403"}}, {"type": "node", "id": 1191726832, "lat": 32.0900188, "lon": 34.7791924, "tags": {"amenity": "bicycle_rental"}}, {"type": "node", "id": 1194305940, "lat": 32.0482814, "lon": 34.7692233, "tags": {"amenity": "bicycle_rental", "name": "\u05d2\u05e0\u05d9 \u05d4\u05d8\u05d1\u05e2", "name:he": "\u05d2\u05e0\u05d9 \u05d4\u05d8\u05d1\u05e2", "ref": "406"}}, {"type": "node", "id": 1194309590, "lat": 32.112832, "lon": 34.7963909, "tags": {"amenity": "bicycle_rental", "name": "\u05ea\u05dc \u05d0\u05d5\u05e4\u05df: \u05d0\u05d9\u05d9\u05e0\u05e9\u05d8\u05d9\u05d9\u05df 41", "name:he": "\u05ea\u05dc \u05d0\u05d5\u05e4\u05df: \u05d0\u05d9\u05d9\u05e0\u05e9\u05d8\u05d9\u05d9\u05df 41"}}, {"type": "node", "id": 1195969100, "lat": 32.1176428, "lon": 34.7980352, "tags": {"amenity": "bicycle_rental"}}, {"type": "node", "id": 1195969103, "lat": 32.1256566, "lon": 34.7982488, "tags": {"amenity": "bicycle_rental", "name": "\u05ea\u05dc \u05d0\u05d5\u05e4\u05df: \u05e9\u05dc\u05de\u05d4 \u05d1\u05df \u05d9\u05d5\u05e1\u05e3 24", "name:he": "\u05ea\u05dc \u05d0\u05d5\u05e4\u05df: \u05e9\u05dc\u05de\u05d4 \u05d1\u05df \u05d9\u05d5\u05e1\u05e3 24"}}, {"type": "node", "id": 1195972066, "lat": 32.1022466, "lon": 34.7854843, "tags": {"amenity": "bicycle_rental", "bicycle_rental": "docking_station"}}, {"type": "node", "id": 1195972074, "lat": 32.1401662, "lon": 34.7909432, "tags": {"amenity": "bicycle_rental", "name": "\u05ea\u05dc \u05d0\u05d5\u05e4\u05df: \u05e1\u05d0\u05de\u05d8 \u05e9\u05de\u05e2\u05d5\u05df - \u05d7\u05d5\u05e3 \u05d4\u05e6\u05d5\u05e7 \u05d4\u05d3\u05e8\u05d5\u05de\u05d9", "name:he": "\u05ea\u05dc \u05d0\u05d5\u05e4\u05df: \u05e1\u05d0\u05de\u05d8 \u05e9\u05de\u05e2\u05d5\u05df - \u05d7\u05d5\u05e3 \u05d4\u05e6\u05d5\u05e7 \u05d4\u05d3\u05e8\u05d5\u05de\u05d9"}}, {"type": "node", "id": 1195975174, "lat": 32.1436639, "lon": 34.7922521, "tags": {"amenity": "bicycle_rental", "name": "\u05ea\u05dc \u05d0\u05d5\u05e4\u05df: \u05d7\u05d5\u05e3 \u05d4\u05e6\u05d5\u05e7 \u05d4\u05e6\u05e4\u05d5\u05e0\u05d9 - \u05de\u05dc\u05d5\u05df \u05de\u05e0\u05d3\u05e8\u05d9\u05df", "name:he": "\u05ea\u05dc \u05d0\u05d5\u05e4\u05df: \u05d7\u05d5\u05e3 \u05d4\u05e6\u05d5\u05e7 \u05d4\u05e6\u05e4\u05d5\u05e0\u05d9 - \u05de\u05dc\u05d5\u05df \u05de\u05e0\u05d3\u05e8\u05d9\u05df"}}, {"type": "node", "id": 1195981666, "lat": 32.1132273, "lon": 34.8009795, "tags": {"amenity": "bicycle_rental", "capacity": "24", "name": "\u05d0\u05d5\u05e0\u05d9\u05d1\u05e8\u05e1\u05d9\u05d8\u05d4 \u05d0\u05d9\u05d9\u05e0\u05e9\u05d8\u05d9\u05d9\u05df 78", "name:en": "Einstein 78 - University", "name:he": "\u05d0\u05d5\u05e0\u05d9\u05d1\u05e8\u05e1\u05d9\u05d8\u05d4 \u05d0\u05d9\u05d9\u05e0\u05e9\u05d8\u05d9\u05d9\u05df 78", "network": "Tel-O-Fun", "payment:credit_cards": "yes", "ref": "112"}}, {"type": "node", "id": 1195981669, "lat": 32.1153888, "lon": 34.7889254, "tags": {"amenity": "bicycle_rental"}}, {"type": "node", "id": 1195981671, "lat": 32.120687, "lon": 34.7990855, "tags": {"amenity": "bicycle_rental", "name": "\u05ea\u05dc \u05d0\u05d5\u05e4\u05df: \u05e8\u05d1 \u05d0\u05e9\u05d9 11 - \u05de\u05e8\u05db\u05d6 \u05de\u05e1\u05d7\u05e8\u05d9", "name:he": "\u05ea\u05dc \u05d0\u05d5\u05e4\u05df: \u05e8\u05d1 \u05d0\u05e9\u05d9 11 - \u05de\u05e8\u05db\u05d6 \u05de\u05e1\u05d7\u05e8\u05d9"}}, {"type": "node", "id": 1195987766, "lat": 32.1141339, "lon": 34.8187294, "tags": {"addr:housenumber": "3", "addr:street": "\u05e7\u05d4\u05d9\u05dc\u05ea \u05e7\u05d9\u05d9\u05d1", "amenity": "bicycle_rental", "capacity": "20", "name": "\u05d4\u05de\u05db\u05dc\u05dc\u05d4 \u05dc\u05d4\u05e0\u05d3\u05e1\u05d0\u05d9\u05dd", "name:en": "3 Kehillat Kiov St. \u2013 College of Practical Engineering", "name:he": "\u05d4\u05de\u05db\u05dc\u05dc\u05d4 \u05dc\u05d4\u05e0\u05d3\u05e1\u05d0\u05d9\u05dd", "network": "Tel-O-Fun", "payment:credit_cards": "yes", "ref": "207"}}, {"type": "node", "id": 1195987767, "lat": 32.1200749, "lon": 34.8211795, "tags": {"amenity": "bicycle_rental"}}, {"type": "node", "id": 1195987769, "lat": 32.1098064, "lon": 34.8187439, "tags": {"amenity": "bicycle_rental"}}, {"type": "node", "id": 1195987770, "lat": 32.1129961, "lon": 34.8250644, "tags": {"amenity": "bicycle_rental"}}, {"type": "node", "id": 1195987771, "lat": 32.1297083, "lon": 34.7922473, "tags": {"amenity": "bicycle_rental", "name": "\u05ea\u05dc \u05d0\u05d5\u05e4\u05df: \u05d2\u05e8\u05d9\u05e0\u05d1\u05e8\u05d2 26 - \u05d0\u05d6\u05d5\u05e8\u05d9 \u05d7\u05df", "name:he": "\u05ea\u05dc \u05d0\u05d5\u05e4\u05df: \u05d2\u05e8\u05d9\u05e0\u05d1\u05e8\u05d2 26 - \u05d0\u05d6\u05d5\u05e8\u05d9 \u05d7\u05df"}}, {"type": "node", "id": 1195987772, "lat": 32.1222185, "lon": 34.8255612, "tags": {"amenity": "bicycle_rental"}}, {"type": "node", "id": 1195987773, "lat": 32.1262986, "lon": 34.8274021, "tags": {"amenity": "bicycle_rental"}}, {"type": "node", "id": 1195987774, "lat": 32.1177759, "lon": 34.812811, "tags": {"amenity": "bicycle_rental"}}, {"type": "node", "id": 1195988365, "lat": 32.103398, "lon": 34.8052387, "tags": {"amenity": "bicycle_rental", "capacity": "20", "name": "\u05ea\u05d7\u05e0\u05ea \u05e8\u05db\u05d1\u05ea \u05d0\u05d5\u05e0\u05d1\u05e8\u05e1\u05d9\u05d8\u05d4", "name:he": "\u05ea\u05d7\u05e0\u05ea \u05e8\u05db\u05d1\u05ea \u05d0\u05d5\u05e0\u05d1\u05e8\u05e1\u05d9\u05d8\u05d4", "ref": "216"}}, {"type": "node", "id": 1195992975, "lat": 32.1144124, "lon": 34.8411921, "tags": {"amenity": "bicycle_rental"}}, {"type": "node", "id": 1195992977, "lat": 32.1214513, "lon": 34.8348962, "tags": {"addr:city": "\u05ea\u05dc \u05d0\u05d1\u05d9\u05d1-\u05d9\u05e4\u05d5", "addr:street": "\u05e6\u05d4\"\u05dc", "amenity": "bicycle_rental", "capacity": "20", "name": "\u05e6\u05d4\"\u05dc \u05de\u05d5\u05dc \u05d1\u05d9\u05ea 76", "name:en": "Opp. 76 Tsahal St.", "name:he": "\u05e6\u05d4\"\u05dc \u05de\u05d5\u05dc \u05d1\u05d9\u05ea 76", "network": "Tel-O-Fun", "payment:credit_cards": "yes", "ref": "205"}}, {"type": "node", "id": 1195992978, "lat": 32.1066542, "lon": 34.832662, "tags": {"amenity": "bicycle_rental"}}, {"type": "node", "id": 1195992979, "lat": 32.1177748, "lon": 34.8395071, "tags": {"amenity": "bicycle_rental"}}, {"type": "node", "id": 1195992980, "lat": 32.1118411, "lon": 34.8147202, "tags": {"amenity": "bicycle_rental"}}, {"type": "node", "id": 1195992981, "lat": 32.1096878, "lon": 34.8330342, "tags": {"amenity": "bicycle_rental"}}, {"type": "node", "id": 1195993418, "lat": 32.1044256, "lon": 34.809981, "tags": {"amenity": "bicycle_rental", "capacity": "20", "name": "\u05e8\u05d5\u05e7\u05d7 \u05de\u05e8\u05db\u05d6 \u05d4\u05d9\u05e8\u05d9\u05d3\u05d9\u05dd", "name:en": "Rokach Blvd Convention Grounds", "name:he": "\u05e8\u05d5\u05e7\u05d7 \u05de\u05e8\u05db\u05d6 \u05d4\u05d9\u05e8\u05d9\u05d3\u05d9\u05dd", "payment:credit_cards": "yes", "ref": "215"}}, {"type": "node", "id": 1195994040, "lat": 32.1068515, "lon": 34.8210706, "tags": {"amenity": "bicycle_rental"}}, {"type": "node", "id": 1195994041, "lat": 32.1089638, "lon": 34.8394214, "tags": {"amenity": "bicycle_rental", "capacity": "20", "name": "\u05d0\u05e1\u05d5\u05ea\u05d0 \u05d4\u05d1\u05e8\u05d6\u05dc 23", "name:he": "\u05d0\u05e1\u05d5\u05ea\u05d0 \u05d4\u05d1\u05e8\u05d6\u05dc 23", "payment:credit_cards": "yes", "ref": "211"}}, {"type": "node", "id": 1198440857, "lat": 32.0833582, "lon": 34.7962004, "tags": {"amenity": "bicycle_rental", "capacity": "20", "name": "\u05e8\u05db\u05d1\u05ea \u05e1\u05d1\u05d9\u05d3\u05d5\u05e8/\u05de\u05e1\u05d5\u05e3 2000", "name:en": "Savidor/Masof 2000", "name:he": "\u05e8\u05db\u05d1\u05ea \u05e1\u05d1\u05d9\u05d3\u05d5\u05e8/\u05de\u05e1\u05d5\u05e3 2000", "ref": "326"}}, {"type": "node", "id": 1198441839, "lat": 32.0837819, "lon": 34.7918886, "tags": {"addr:city": "\u05ea\u05dc \u05d0\u05d1\u05d9\u05d1-\u05d9\u05e4\u05d5", "addr:housenumber": "3", "addr:street": "\u05d4\u05dc\u05e1\u05d9\u05e0\u05e7\u05d9", "amenity": "bicycle_rental", "bicycle_rental": "docking_station", "capacity": "20", "name": "\u05d4\u05dc\u05e1\u05d9\u05e0\u05e7\u05d9 3", "name:en": "3 Helsinki St.", "name:he": "\u05d4\u05dc\u05e1\u05d9\u05e0\u05e7\u05d9 3", "network": "Tel-O-Fun", "payment:credit_cards": "yes", "ref": "325", "website": "https://www.tel-o-fun.co.il/en/"}}, {"type": "node", "id": 1198442893, "lat": 32.0869129, "lon": 34.7883956, "tags": {"amenity": "bicycle_rental"}}, {"type": "node", "id": 1198447303, "lat": 32.078283, "lon": 34.7744236, "tags": {"addr:city": "\u05ea\u05dc \u05d0\u05d1\u05d9\u05d1-\u05d9\u05e4\u05d5", "addr:housenumber": "2", "addr:street": "\u05e8\u05d9\u05d9\u05e0\u05e1", "amenity": "bicycle_rental", "capacity": "23", "name": "\u05db\u05db\u05e8 \u05d3\u05d9\u05d6\u05d9\u05e0\u05d2\u05d5\u05e3", "name:en": "2 Reiness St. - Dizengoff Square", "name:he": "\u05db\u05db\u05e8 \u05d3\u05d9\u05d6\u05d9\u05e0\u05d2\u05d5\u05e3", "network": "Tel-O-Fun", "payment:credit_cards": "yes", "ref": "343"}}, {"type": "node", "id": 1232914383, "lat": 32.0505931, "lon": 34.7595276, "tags": {"addr:city": "\u05ea\u05dc \u05d0\u05d1\u05d9\u05d1-\u05d9\u05e4\u05d5", "addr:housenumber": "1", "addr:street": "\u05d1\u05df \u05e6\u05d1\u05d9", "amenity": "bicycle_rental", "capacity": "20", "name": "\u05e9\u05d3 \u05d9\u05e8\u05d5\u05e9\u05dc\u05d9\u05dd \u05e4\u05d9\u05e0\u05ea \u05d1\u05df \u05e6\u05d1\u05d9 1", "name:en": "Jerusalem Av./ 1 Ben Zvi Av.", "name:he": "\u05e9\u05d3 \u05d9\u05e8\u05d5\u05e9\u05dc\u05d9\u05dd \u05e4\u05d9\u05e0\u05ea \u05d1\u05df \u05e6\u05d1\u05d9 1", "network": "Tel-O-Fun", "payment:credit_cards": "yes", "ref": "420"}}, {"type": "node", "id": 1232914388, "lat": 32.0639453, "lon": 34.7618594, "tags": {"amenity": "bicycle_rental"}}, {"type": "node", "id": 1345595132, "lat": 32.0891139, "lon": 34.7738163, "tags": {"amenity": "bicycle_rental", "bicycle_rental": "docking_station"}}, {"type": "node", "id": 1345595133, "lat": 32.0731796, "lon": 34.7683118, "tags": {"amenity": "bicycle_rental", "capacity": "19", "name": "\u05d1\u05df \u05d9\u05d4\u05d5\u05d3\u05d4 1", "name:he": "\u05d1\u05df \u05d9\u05d4\u05d5\u05d3\u05d4 1"}}, {"type": "node", "id": 1365841444, "lat": 32.0694852, "lon": 34.7706999, "tags": {"amenity": "bicycle_rental", "bicycle_rental": "docking_station", "capacity": "20", "name": "\u05d0\u05dc\u05e0\u05d1\u05d9 53 \u05e9\u05d5\u05e7 \u05d4\u05db\u05e8\u05de\u05dc", "name:he": "\u05d0\u05dc\u05e0\u05d1\u05d9 53 \u05e9\u05d5\u05e7 \u05d4\u05db\u05e8\u05de\u05dc", "payment:credit_cards": "yes", "ref": "361"}}, {"type": "node", "id": 1368037329, "lat": 32.0796466, "lon": 34.7883765, "tags": {"addr:city": "\u05ea\u05dc \u05d0\u05d1\u05d9\u05d1-\u05d9\u05e4\u05d5", "addr:housenumber": "40", "addr:street": "\u05e9\u05d3\u05e8\u05d5\u05ea \u05d3\u05d5\u05d3 \u05d4\u05de\u05dc\u05da", "amenity": "bicycle_rental", "bicycle_rental": "docking_station", "capacity": "20", "name": "\u05d3\u05d5\u05d3 \u05d4\u05de\u05dc\u05da \u05e4\u05d9\u05e0\u05ea \u05d5\u05d9\u05e6\u05de\u05df", "name:he": "\u05d3\u05d5\u05d3 \u05d4\u05de\u05dc\u05da \u05e4\u05d9\u05e0\u05ea \u05d5\u05d9\u05e6\u05de\u05df", "payment:credit_cards": "yes", "ref": "387"}}, {"type": "node", "id": 1420803788, "lat": 32.0759011, "lon": 34.785232, "tags": {"amenity": "bicycle_rental", "bicycle_rental": "docking_station", "capacity": "20", "name": "\u05e9\u05d0\u05d5\u05dc \u05d4\u05de\u05dc\u05da 21 \u05e7\u05d0\u05de\u05e8\u05d9", "name:en": "21 Sauol Hamelekh- Hakameri", "name:he": "\u05e9\u05d0\u05d5\u05dc \u05d4\u05de\u05dc\u05da 21 \u05e7\u05d0\u05de\u05e8\u05d9", "network": "Tel-O-Fun", "payment:credit_cards": "yes", "ref": "342"}}, {"type": "node", "id": 1420803789, "lat": 32.0809085, "lon": 34.7801802, "tags": {"amenity": "bicycle_rental", "bicycle_rental": "docking_station", "capacity": "28", "name": "\u05db\u05d9\u05db\u05e8 \u05e8\u05d1\u05d9\u05df", "name:en": "Rabin Square", "name:he": "\u05db\u05d9\u05db\u05e8 \u05e8\u05d1\u05d9\u05df", "payment:credit_cards": "yes", "ref": "331", "source": "http://www.tel-o-fun.co.il"}}, {"type": "node", "id": 1420803790, "lat": 32.0748636, "lon": 34.7818951, "tags": {"amenity": "bicycle_rental", "bicycle_rental": "docking_station", "capacity": "20", "name": "\u05d0\u05d1\u05df \u05d2\u05d1\u05d9\u05e8\u05d5\u05dc 28", "name:he": "\u05d0\u05d1\u05df \u05d2\u05d1\u05d9\u05e8\u05d5\u05dc 28", "payment:credit_cards": "yes", "ref": "346"}}, {"type": "node", "id": 1538692937, "lat": 32.1046191, "lon": 34.7888021, "tags": {"amenity": "bicycle_rental", "capacity": "20", "name": "\u05dc\u05d5\u05d9 \u05d0\u05e9\u05db\u05d5\u05dc 26", "name:en": "26 Levi Eshkol St. - Sde Dov Airport", "name:he": "\u05dc\u05d5\u05d9 \u05d0\u05e9\u05db\u05d5\u05dc 26", "network": "Tel-O-Fun", "payment:credit_cards": "yes", "ref": "114"}}, {"type": "node", "id": 1585379914, "lat": 32.0696154, "lon": 34.7937823, "tags": {"amenity": "bicycle_rental", "capacity": "20", "name": "\u05d9\u05d2\u05d0\u05dc \u05d0\u05dc\u05d5\u05df 96", "name:en": "96 Yigal Allon St.", "name:he": "\u05d9\u05d2\u05d0\u05dc \u05d0\u05dc\u05d5\u05df 96", "network": "Tel-O-Fun", "payment:credit_cards": "yes", "ref": "503"}}, {"type": "node", "id": 1678949948, "lat": 32.0665663, "lon": 34.7821352, "tags": {"amenity": "bicycle_rental", "bicycle_rental": "docking_station", "capacity": "20", "name": "\u05d1\u05d9\u05ea \u05e8\u05d5\u05d1\u05d9\u05e0\u05e9\u05d8\u05d9\u05d9\u05df-\u05e6. \u05de\u05e2\u05e8\u05d9\u05d1", "name:en": "Begin/ Lincoln -Biet Rubinshtein", "name:he": "\u05d1\u05d9\u05ea \u05e8\u05d5\u05d1\u05d9\u05e0\u05e9\u05d8\u05d9\u05d9\u05df-\u05e6. \u05de\u05e2\u05e8\u05d9\u05d1", "network": "Tel-O-Fun", "payment:credit_cards": "yes", "ref": "363"}}, {"type": "node", "id": 1678949949, "lat": 32.0706581, "lon": 34.7827676, "tags": {"amenity": "bicycle_rental", "bicycle_rental": "docking_station", "capacity": "19", "compressed_air": "yes", "name": "\u05e9\u05e4\u05e8\u05d9\u05e0\u05e6\u05e7 1 - \u05e1\u05d9\u05e0\u05d9\u05de\u05d8\u05e7", "name:he": "\u05e9\u05e4\u05e8\u05d9\u05e0\u05e6\u05e7 1 - \u05e1\u05d9\u05e0\u05d9\u05de\u05d8\u05e7", "network": "Tel-O-Fun", "payment:credit_cards": "yes", "ref": "358", "source": "tel-o-fun.co.il", "toilets:wheelchair": "yes", "wheelchair": "yes"}}, {"type": "node", "id": 1707635659, "lat": 32.0728383, "lon": 34.7924545, "tags": {"amenity": "bicycle_rental", "bicycle_rental": "docking_station", "capacity": "24", "compressed_air": "yes", "name": "\u05e2\u05d6\u05e8\u05d9\u05d0\u05dc\u05d9-\u05d1\u05d9\u05e8\u05d9\u05d3\u05d4 \u05dc\u05d0\u05d9\u05d9\u05dc\u05d5\u05df \u05d3\u05e8\u05d5\u05dd", "name:en": "Opp. Azrieli Center - Ayalon South", "name:he": "\u05e2\u05d6\u05e8\u05d9\u05d0\u05dc\u05d9-\u05d1\u05d9\u05e8\u05d9\u05d3\u05d4 \u05dc\u05d0\u05d9\u05d9\u05dc\u05d5\u05df \u05d3\u05e8\u05d5\u05dd", "network": "Tel-O-Fun", "payment:credit_cards": "yes", "ref": "525"}}, {"type": "node", "id": 1707635660, "lat": 32.0732105, "lon": 34.7859368, "tags": {"amenity": "bicycle_rental", "bicycle_rental": "docking_station", "capacity": "28", "name": "\u05e7\u05e4\u05dc\u05df \u05e4\u05d9\u05e0\u05ea \u05d0\u05e8\u05e0\u05d9\u05d4", "name:en": "Kaplan St./ Aaranha St.", "name:he": "\u05e7\u05e4\u05dc\u05df \u05e4\u05d9\u05e0\u05ea \u05d0\u05e8\u05e0\u05d9\u05d4", "network": "Tel-O-Fun", "payment:credit_cards": "yes", "ref": "359"}}, {"type": "node", "id": 1718502840, "lat": 32.0374433, "lon": 34.7511173, "tags": {"addr:city": "\u05ea\u05dc \u05d0\u05d1\u05d9\u05d1-\u05d9\u05e4\u05d5", "addr:street": "\u05e9\u05d3\u05e8\u05d5\u05ea \u05d4\u05d1\u05e2\u05e9\"\u05d8", "amenity": "bicycle_rental", "capacity": "19", "name": "\u05e9\u05d3 \u05d4\u05d1\u05e2\u05dc \u05e9\u05dd \u05d8\u05d5\u05d1 \u05e0\u05d5\u05d4 \u05d0\u05d9\u05dc\u05df", "name:en": "HaBesht Ave. \u2013 Neve Golan", "name:he": "\u05e9\u05d3 \u05d4\u05d1\u05e2\u05dc \u05e9\u05dd \u05d8\u05d5\u05d1 \u05e0\u05d5\u05d4 \u05d0\u05d9\u05dc\u05df", "network": "Tel-O-Fun", "payment:credit_cards": "yes", "ref": "414"}}, {"type": "node", "id": 1718633205, "lat": 32.0536718, "lon": 34.7503057, "tags": {"amenity": "bicycle_rental", "capacity": "20", "name": "\u05ea\u05dc \u05d0\u05d5\u05e4\u05df - \u05e0\u05de\u05dc \u05d9\u05e4\u05d5 \u05de\u05d1\u05e0\u05d4 \u05d4\u05de\u05d2\u05d3\u05dc\u05d5\u05e8", "name:en": "Nemal Yaffo - Ha-migdalor (jaffa Port)", "name:he": "\u05ea\u05dc \u05d0\u05d5\u05e4\u05df - \u05e0\u05de\u05dc \u05d9\u05e4\u05d5 \u05de\u05d1\u05e0\u05d4 \u05d4\u05de\u05d2\u05d3\u05dc\u05d5\u05e8", "network": "Tel-O-Fun", "payment:credit_cards": "yes", "ref": "409"}}, {"type": "node", "id": 1773354948, "lat": 32.0884682, "lon": 34.7970019, "tags": {"addr:housenumber": "8", "addr:street": "\u05e0\u05d9\u05e1\u05d9\u05dd \u05d0\u05dc\u05d5\u05e0\u05d9", "amenity": "bicycle_rental", "capacity": "20", "name": "\u05d0\u05dc\u05d5\u05e0\u05d9 \u05e0\u05d9\u05e1\u05d9\u05dd 8", "name:en": "8 Nisim Aloni St.", "name:he": "\u05d0\u05dc\u05d5\u05e0\u05d9 \u05e0\u05d9\u05e1\u05d9\u05dd 8", "network": "Tel-O-Fun", "payment:credit_cards": "yes", "ref": "306"}}, {"type": "node", "id": 1823251365, "lat": 32.0701232, "lon": 34.7898935, "tags": {"amenity": "bicycle_rental", "bicycle_rental": "docking_station", "capacity": "20", "name": "\u05e9\u05d3 \u05d9\u05d4\u05d5\u05d3\u05d9\u05ea 11 \u05e4\u05d9\u05e0\u05ea \u05d4\u05e0\u05e6\u05d9\u05d1", "name:en": "11 Yehudit Av./Ha-Nanatsiv St.", "name:he": "\u05e9\u05d3 \u05d9\u05d4\u05d5\u05d3\u05d9\u05ea 11 \u05e4\u05d9\u05e0\u05ea \u05d4\u05e0\u05e6\u05d9\u05d1", "network": "Tel-O-Fun", "payment:credit_cards": "yes", "ref": "360"}}, {"type": "node", "id": 1933709242, "lat": 32.0417246, "lon": 34.7732938, "tags": {"amenity": "bicycle_rental", "name": "\u05e9\u05d3\u05e8\u05d5\u05ea \u05d1\u05df \u05e6\u05d1\u05d9 91", "name:en": "91 Ben-Zvi Avenue", "name:he": "\u05e9\u05d3\u05e8\u05d5\u05ea \u05d1\u05df \u05e6\u05d1\u05d9 91", "ref": "415"}}, {"type": "node", "id": 1952893958, "lat": 32.0546193, "lon": 34.752128, "tags": {"addr:city": "\u05ea\u05dc \u05d0\u05d1\u05d9\u05d1-\u05d9\u05e4\u05d5", "addr:street": "\u05db\u05d9\u05db\u05e8 \u05e7\u05d3\u05d5\u05de\u05d9\u05dd", "amenity": "bicycle_rental", "capacity": "20", "name": "\u05db\u05d9\u05db\u05e8 \u05e7\u05d3\u05d5\u05de\u05d9\u05dd -\u05d9\u05e4\u05d5 \u05d4\u05e2\u05ea\u05d9\u05e7\u05d4", "name:en": "Kedumim Square \u2013 Old jaffa", "name:he": "\u05db\u05d9\u05db\u05e8 \u05e7\u05d3\u05d5\u05de\u05d9\u05dd -\u05d9\u05e4\u05d5 \u05d4\u05e2\u05ea\u05d9\u05e7\u05d4", "network": "Tel-O-Fun", "payment:credit_cards": "yes", "ref": "405"}}, {"type": "node", "id": 1990220064, "lat": 32.0866191, "lon": 34.7693702, "tags": {"amenity": "bicycle_rental", "description": "\u05d8\u05d9\u05d9\u05dc\u05ea \u05e6\u05de\u05d5\u05d3 \u05dc\u05de\u05e8\u05e4\u05e1\u05ea \u05e6\u05e4\u05d5\u05e0\u05d9\u05ea \u05de\u05dc\u05d5\u05df \u05e7\u05e8\u05dc\u05d8\u05d5\u05df", "name": "\u05de\u05dc\u05d5\u05df \u05e7\u05e8\u05dc\u05d8\u05d5\u05df \u05d1\u05d8\u05d9\u05d9\u05dc\u05ea", "name:he": "\u05de\u05dc\u05d5\u05df \u05e7\u05e8\u05dc\u05d8\u05d5\u05df \u05d1\u05d8\u05d9\u05d9\u05dc\u05ea", "ref": "329"}}, {"type": "node", "id": 1996197302, "lat": 32.0724005, "lon": 34.7739963, "tags": {"amenity": "bicycle_rental", "bicycle_rental": "docking_station", "capacity": "20"}}, {"type": "node", "id": 1996197305, "lat": 32.0740381, "lon": 34.7756635, "tags": {"addr:city": "\u05ea\u05dc \u05d0\u05d1\u05d9\u05d1-\u05d9\u05e4\u05d5", "addr:housenumber": "1", "addr:street": "\u05e9\u05d3\u05e8\u05d5\u05ea \u05d1\u05df \u05e6\u05d9\u05d5\u05df", "amenity": "bicycle_rental", "capacity": "20", "name": "\u05e9\u05d3\u05e8\u05d5\u05ea \u05d1\u05df \u05e6\u05d9\u05d5\u05df 1", "name:en": "1 Shderot Ben Tsiyon St.", "name:he": "\u05e9\u05d3\u05e8\u05d5\u05ea \u05d1\u05df \u05e6\u05d9\u05d5\u05df 1", "network": "Tel-O-Fun", "payment:credit_cards": "yes", "ref": "348"}}, {"type": "node", "id": 2108063238, "lat": 32.0561192, "lon": 34.7696005, "tags": {"amenity": "bicycle_rental", "bicycle_rental": "docking_station", "capacity": "28", "name": "\u05e4\u05dc\u05d5\u05e8\u05e0\u05d8\u05d9\u05df \u05e9\u05d3 \u05d5\u05d5\u05e9\u05d9\u05e0\u05d2\u05d8\u05d5\u05df", "name:he": "\u05e4\u05dc\u05d5\u05e8\u05e0\u05d8\u05d9\u05df \u05e9\u05d3 \u05d5\u05d5\u05e9\u05d9\u05e0\u05d2\u05d8\u05d5\u05df", "network": "Tel-O-Fun", "payment:credit_cards": "yes", "ref": "416"}}, {"type": "node", "id": 2131481339, "lat": 32.052936, "lon": 34.8103998, "tags": {"amenity": "bicycle_rental"}}, {"type": "node", "id": 2264948129, "lat": 32.041956, "lon": 34.747242, "tags": {"amenity": "bicycle_rental", "capacity": "20", "name": "\u05de\u05e0\u05d3\u05e1 \u05e4\u05e8\u05e0\u05e1 - \u05d2\u05d9\u05e0\u05ea \u05d8\u05d5\u05dc\u05d5\u05d6", "name:en": "Mendes Parnas St. \u2013 Toulouse Gardens", "name:he": "\u05de\u05e0\u05d3\u05e1 \u05e4\u05e8\u05e0\u05e1 - \u05d2\u05d9\u05e0\u05ea \u05d8\u05d5\u05dc\u05d5\u05d6", "network": "Tel-O-Fun", "payment:credit_cards": "yes", "ref": "422"}}, {"type": "node", "id": 2266143394, "lat": 32.0475421, "lon": 34.7595891, "tags": {"addr:city": "\u05ea\u05dc \u05d0\u05d1\u05d9\u05d1-\u05d9\u05e4\u05d5", "addr:street": "\u05e2\u05d6\u05d4", "amenity": "bicycle_rental", "capacity": "20", "compressed_air": "yes", "name": "\u05de\u05db\u05dc\u05dc\u05ea \u05ea\u05d0 \u05e2\u05d6\u05d4 \u05de\u05d5\u05dc 34", "name:en": "Opp. 34 Azza St. \u2013 Tlv College", "name:he": "\u05de\u05db\u05dc\u05dc\u05ea \u05ea\u05d0 \u05e2\u05d6\u05d4 \u05de\u05d5\u05dc 34", "network": "Tel-O-Fun", "payment:credit_cards": "yes", "ref": "407"}}, {"type": "node", "id": 2322592328, "lat": 32.0652397, "lon": 34.7765549, "tags": {"amenity": "bicycle_rental", "bicycle_rental": "docking_station", "brand": "Tel-O-Fun", "brand:wikidata": "Q2915180", "capacity": "20", "fee": "yes", "name": "\u05e8\u05d5\u05d8\u05e9\u05d9\u05dc\u05d3 65", "name:en": "65 Rothschild Av./ Nachmami St.", "name:he": "\u05e8\u05d5\u05d8\u05e9\u05d9\u05dc\u05d3 65", "network": "Tel-O-Fun", "network:wikidata": "Q2915180", "operator": "FSM", "payment:credit_cards": "yes", "ref": "370"}}, {"type": "node", "id": 2322592329, "lat": 32.0716773, "lon": 34.7792171, "tags": {"amenity": "bicycle_rental", "bicycle_rental": "docking_station", "capacity": "28", "name": "\u05e8\u05d5\u05d8\u05e9\u05d9\u05dc\u05d3 140", "name:en": "140 Rothshild Av. - Habima", "name:he": "\u05e8\u05d5\u05d8\u05e9\u05d9\u05dc\u05d3 140", "network": "Tel-O-Fun", "payment:credit_cards": "yes", "ref": "357"}}, {"type": "node", "id": 2322592330, "lat": 32.0634816, "lon": 34.773166, "tags": {"addr:city": "\u05ea\u05dc \u05d0\u05d1\u05d9\u05d1-\u05d9\u05e4\u05d5", "addr:housenumber": "36", "addr:street": "\u05e9\u05d3\u05e8\u05d5\u05ea \u05e8\u05d5\u05d8\u05e9\u05d9\u05dc\u05d3", "amenity": "bicycle_rental", "bicycle_rental": "docking_station", "capacity": "20", "compressed_air": "yes", "name": "\u05e8\u05d5\u05d8\u05e9\u05d9\u05dc\u05d3 \u05e4\u05d9\u05e0\u05ea \u05d0\u05dc\u05e0\u05d1\u05d9", "name:en": "Rothshild St. / Allenby St", "name:he": "\u05e8\u05d5\u05d8\u05e9\u05d9\u05dc\u05d3 \u05e4\u05d9\u05e0\u05ea \u05d0\u05dc\u05e0\u05d1\u05d9", "network": "Tel-O-Fun", "payment:credit_cards": "yes", "ref": "395"}}, {"type": "node", "id": 2322592331, "lat": 32.0684862, "lon": 34.7781952, "tags": {"amenity": "bicycle_rental", "bicycle_rental": "docking_station", "capacity": "22", "fee": "yes"}}, {"type": "node", "id": 2384763531, "lat": 32.0692858, "lon": 34.7830285, "tags": {"addr:city": "\u05ea\u05dc \u05d0\u05d1\u05d9\u05d1-\u05d9\u05e4\u05d5", "amenity": "bicycle_rental", "bicycle_rental": "docking_station", "capacity": "20", "name": "\u05d4\u05d7\u05e9\u05de\u05d5\u05e0\u05d0\u05d9\u05dd \u05e4\u05d9\u05e0\u05ea \u05e7\u05e8\u05dc\u05d9\u05d1\u05da", "name:en": "Hashmonaim St/ Karlibach St", "name:he": "\u05d4\u05d7\u05e9\u05de\u05d5\u05e0\u05d0\u05d9\u05dd \u05e4\u05d9\u05e0\u05ea \u05e7\u05e8\u05dc\u05d9\u05d1\u05da", "network": "Tel-O-Fun", "payment:credit_cards": "yes", "ref": "394"}}, {"type": "node", "id": 2395471108, "lat": 32.049507, "lon": 34.8120746, "tags": {"amenity": "bicycle_rental"}}, {"type": "node", "id": 2611449932, "lat": 32.1139871, "lon": 34.7911303, "tags": {"amenity": "bicycle_rental"}}, {"type": "node", "id": 2666736281, "lat": 32.0659853, "lon": 34.7989783, "tags": {"amenity": "bicycle_rental", "bicycle_rental": "docking_station", "capacity": "20", "name": "\u05de\u05e9\u05d4 \u05d3\u05d9\u05d9\u05df 116", "name:he": "\u05de\u05e9\u05d4 \u05d3\u05d9\u05d9\u05df 116", "ref": "531"}}, {"type": "node", "id": 2666736286, "lat": 32.0743451, "lon": 34.7999454, "tags": {"amenity": "bicycle_rental", "capacity": "20", "name": "\u05d9\u05dc\u05e7\u05d5\u05d8 \u05d4\u05e8\u05d5\u05e2\u05d9\u05dd 2 - \u05e0\u05d7\u05dc\u05ea \u05d9\u05e6\u05d7\u05e7", "name:he": "\u05d9\u05dc\u05e7\u05d5\u05d8 \u05d4\u05e8\u05d5\u05e2\u05d9\u05dd 2 - \u05e0\u05d7\u05dc\u05ea \u05d9\u05e6\u05d7\u05e7", "ref": "519"}}, {"type": "node", "id": 2666736290, "lat": 32.0665561, "lon": 34.7960549, "tags": {"amenity": "bicycle_rental", "capacity": "20", "name": "\u05e9\u05d3\u05e8\u05d5\u05ea \u05d4\u05d4\u05e9\u05db\u05dc\u05d4 11", "name:he": "\u05e9\u05d3\u05e8\u05d5\u05ea \u05d4\u05d4\u05e9\u05db\u05dc\u05d4 11", "ref": "501"}}, {"type": "node", "id": 2666736295, "lat": 32.0713211, "lon": 34.7974545, "tags": {"amenity": "bicycle_rental", "bicycle_rental": "docking_station", "capacity": "20", "name": "\u05d4\u05e9\u05dc\u05d5\u05dd 16", "name:he": "\u05d4\u05e9\u05dc\u05d5\u05dd 16", "ref": "536"}}, {"type": "node", "id": 2666736297, "lat": 32.0645967, "lon": 34.7988791, "tags": {"amenity": "bicycle_rental", "bicycle_rental": "docking_station", "capacity": "20", "name": "\u05de\u05e9\u05d4 \u05d3\u05d9\u05d9\u05df \u05e4\u05d9\u05e0\u05ea \u05d9\u05e6\u05d7\u05e7 \u05e9\u05d3\u05d4", "name:he": "\u05de\u05e9\u05d4 \u05d3\u05d9\u05d9\u05df \u05e4\u05d9\u05e0\u05ea \u05d9\u05e6\u05d7\u05e7 \u05e9\u05d3\u05d4", "ref": "508"}}, {"type": "node", "id": 2669725301, "lat": 32.0434253, "lon": 34.8046477, "tags": {"amenity": "bicycle_rental", "capacity": "20", "fee": "yes", "name": "\u05e4\u05d0\u05e8\u05e7 \u05d3\u05e8\u05d5\u05dd \u05d1\u05db\u05e0\u05d9\u05e1\u05d4", "name:en": "Park Darom \u2013 Entrance (Biranit St.)", "name:he": "\u05e4\u05d0\u05e8\u05e7 \u05d3\u05e8\u05d5\u05dd \u05d1\u05db\u05e0\u05d9\u05e1\u05d4", "network": "Tel-O-Fun", "operator": "FSM", "payment:credit_cards": "yes", "ref": "520"}}, {"type": "node", "id": 2676543498, "lat": 32.0653746, "lon": 34.7858911, "tags": {"amenity": "bicycle_rental", "capacity": "20", "name": "\u05d9\u05e6\u05d7\u05e7 \u05e9\u05d3\u05d4 17 - \u05d1\u05d9\u05d8\u05d5\u05d7 \u05dc\u05d0\u05d5\u05de\u05d9", "name:he": "\u05d9\u05e6\u05d7\u05e7 \u05e9\u05d3\u05d4 17 - \u05d1\u05d9\u05d8\u05d5\u05d7 \u05dc\u05d0\u05d5\u05de\u05d9", "network": "Tel-O-Fun", "payment:credit_cards": "yes", "ref": "365"}}, {"type": "node", "id": 2676662946, "lat": 32.0673645, "lon": 34.7797785, "tags": {"amenity": "bicycle_rental", "bicycle_rental": "docking_station", "capacity": "20", "name": "\u05d9\u05d4\u05d5\u05d3\u05d4 \u05d4\u05dc\u05d5\u05d9 74", "name:he": "\u05d9\u05d4\u05d5\u05d3\u05d4 \u05d4\u05dc\u05d5\u05d9 74", "ref": "376"}}, {"type": "node", "id": 2676674710, "lat": 32.0646014, "lon": 34.791809, "tags": {"amenity": "bicycle_rental", "bicycle_rental": "docking_station", "capacity": "20", "designation": "530", "name": "\u05d4\u05e1\u05d9\u05e0\u05e8\u05de\u05d4", "name:he": "\u05d4\u05e1\u05d9\u05e0\u05e8\u05de\u05d4", "ref": "530", "wikidata": "Q12406821"}}, {"type": "node", "id": 2676674711, "lat": 32.0620465, "lon": 34.7904545, "tags": {"amenity": "bicycle_rental", "capacity": "20", "designation": "507", "name": "\u05d4\u05d9\u05db\u05dc \u05e0\u05d5\u05e7\u05d9\u05d4 \u05d4\u05e9\u05dc\u05d5\u05e9\u05d4 9", "name:he": "\u05d4\u05d9\u05db\u05dc \u05e0\u05d5\u05e7\u05d9\u05d4 \u05d4\u05e9\u05dc\u05d5\u05e9\u05d4 9", "ref": "507"}}, {"type": "node", "id": 2676709410, "lat": 32.0591548, "lon": 34.7898519, "tags": {"amenity": "bicycle_rental", "capacity": "20", "designation": "526", "name": "\u05dc\u05d4 \u05d2\u05d5\u05d5\u05d0\u05e8\u05d3\u05d9\u05d4 24", "name:he": "\u05dc\u05d4 \u05d2\u05d5\u05d5\u05d0\u05e8\u05d3\u05d9\u05d4 24", "ref": "526"}}, {"type": "node", "id": 2676728444, "lat": 32.0543016, "lon": 34.7849715, "tags": {"amenity": "bicycle_rental", "capacity": "28", "name": "\u05ea\u05d7\u05e0\u05ea \u05e8\u05db\u05d1\u05ea \u05d4\u05d4\u05d2\u05e0\u05d4", "name:he": "\u05ea\u05d7\u05e0\u05ea \u05e8\u05db\u05d1\u05ea \u05d4\u05d4\u05d2\u05e0\u05d4", "ref": "522"}}, {"type": "node", "id": 2676728448, "lat": 32.0542777, "lon": 34.7865151, "tags": {"amenity": "bicycle_rental", "capacity": "18", "designation": "511", "name": "\u05d4\u05d4\u05d2\u05e0\u05d4 31 - \u05ea\u05d7\u05e0\u05ea \u05e8\u05db\u05d1\u05ea \u05d4\u05d4\u05d2\u05e0\u05d4", "name:he": "\u05d4\u05d4\u05d2\u05e0\u05d4 31 - \u05ea\u05d7\u05e0\u05ea \u05e8\u05db\u05d1\u05ea \u05d4\u05d4\u05d2\u05e0\u05d4", "ref": "511"}}, {"type": "node", "id": 2676738736, "lat": 32.0590387, "lon": 34.7972983, "tags": {"amenity": "bicycle_rental", "capacity": "20", "designation": "533", "name": "\u05dc\u05d4 \u05d2\u05e8\u05d3\u05d9\u05d4 60", "name:he": "\u05dc\u05d4 \u05d2\u05e8\u05d3\u05d9\u05d4 60", "ref": "533"}}, {"type": "node", "id": 2676747630, "lat": 32.0580519, "lon": 34.8006301, "tags": {"addr:city": "\u05ea\u05dc \u05d0\u05d1\u05d9\u05d1-\u05d9\u05e4\u05d5", "addr:street": "\u05de\u05e9\u05d4 \u05d3\u05d9\u05d9\u05df", "amenity": "bicycle_rental", "capacity": "20", "compressed_air": "yes", "designation": "504", "name": "\u05de\u05e9\u05d4 \u05d3\u05d9\u05d9\u05df \u05e4\u05d9\u05e0\u05ea \u05dc\u05d4 \u05d2\u05e8\u05d3\u05d9\u05d4", "name:en": "Moshe Dayan St./ La Guardia St.", "name:he": "\u05de\u05e9\u05d4 \u05d3\u05d9\u05d9\u05df \u05e4\u05d9\u05e0\u05ea \u05dc\u05d4 \u05d2\u05e8\u05d3\u05d9\u05d4", "network": "Tel-O-Fun", "payment:credit_cards": "yes", "ref": "504"}}, {"type": "node", "id": 2676747631, "lat": 32.0527146, "lon": 34.7998354, "tags": {"amenity": "bicycle_rental", "bicycle_rental": "docking_station", "capacity": "20", "designation": "513", "name": "\u05de\u05e9\u05d4 \u05d3\u05d9\u05d9\u05df 45", "name:he": "\u05de\u05e9\u05d4 \u05d3\u05d9\u05d9\u05df 45", "ref": "513"}}, {"type": "node", "id": 2676747632, "lat": 32.0567743, "lon": 34.7917515, "tags": {"amenity": "bicycle_rental", "bicycle_rental": "docking_station", "capacity": "20", "designation": "512", "name": "\u05d9\u05d2\u05d0\u05dc \u05d0\u05dc\u05d5\u05df 33 \u05e4\u05d9\u05e0\u05ea \u05e9\u05d3\u05e8\u05d5\u05ea \u05d4\u05d7\u05d9\"\u05dc", "name:he": "\u05d9\u05d2\u05d0\u05dc \u05d0\u05dc\u05d5\u05df 33 \u05e4\u05d9\u05e0\u05ea \u05e9\u05d3\u05e8\u05d5\u05ea \u05d4\u05d7\u05d9\"\u05dc", "ref": "512"}}, {"type": "node", "id": 2696091146, "lat": 32.042614, "lon": 34.78046, "tags": {"amenity": "bicycle_rental", "capacity": "20"}}, {"type": "node", "id": 2821371254, "lat": 32.0709583, "lon": 34.7638936, "tags": {"amenity": "bicycle_rental", "ref": "355"}}, {"type": "node", "id": 2821371256, "lat": 32.0553697, "lon": 34.7600702, "tags": {"amenity": "bicycle_rental", "name": "\u05e4\u05d5\u05e8\u05d9\u05d4 2", "name:he": "\u05e4\u05d5\u05e8\u05d9\u05d4 2", "ref": "434"}}, {"type": "node", "id": 2902720103, "lat": 32.1137844, "lon": 34.804737, "tags": {"amenity": "bicycle_rental", "bicycle_rental": "dropoff_point", "capacity": "20", "name": "\u05d4\u05d0\u05d5\u05e0\u05d9\u05d1\u05e8\u05e1\u05d9\u05d8\u05d4 - \u05e1\u05e4\u05e8\u05d9\u05d4", "name:en": "University - library", "name:he": "\u05d4\u05d0\u05d5\u05e0\u05d9\u05d1\u05e8\u05e1\u05d9\u05d8\u05d4 - \u05e1\u05e4\u05e8\u05d9\u05d4", "network": "Tel-O-Fun", "payment:credit_cards": "yes", "ref": "123"}}, {"type": "node", "id": 2904570796, "lat": 32.1107566, "lon": 34.8039991, "tags": {"amenity": "bicycle_rental", "capacity": "20", "name": "\u05d0\u05d5\u05e0\u05d9\u05d1\u05e8\u05e1\u05d9\u05d8\u05d4 \u05e9\u05e2\u05e8 4", "name:en": "University Gate 4", "name:he": "\u05d0\u05d5\u05e0\u05d9\u05d1\u05e8\u05e1\u05d9\u05d8\u05d4 \u05e9\u05e2\u05e8 4", "network": "Tel-O-Fun", "payment:credit_cards": "yes", "ref": "122"}}, {"type": "node", "id": 2904593464, "lat": 32.1069265, "lon": 34.8049217, "tags": {"amenity": "bicycle_rental", "capacity": "20", "name": "\u05db\u05d9\u05db\u05e8 \u05d2\u05d5\u05e8\u05d2 \u05d5\u05d5\u05d9\u05d6", "name:en": "George Wise Square", "name:he": "\u05db\u05d9\u05db\u05e8 \u05d2\u05d5\u05e8\u05d2 \u05d5\u05d5\u05d9\u05d6", "network": "Tel-O-Fun", "payment:credit_cards": "yes", "ref": "124"}}, {"type": "node", "id": 2946147140, "lat": 32.0319058, "lon": 34.7474845, "tags": {"addr:city": "\u05ea\u05dc \u05d0\u05d1\u05d9\u05d1-\u05d9\u05e4\u05d5", "addr:street": "\u05d0\u05d9\u05d9\u05d6\u05e7 \u05d7\u05e8\u05d9\u05e3", "amenity": "bicycle_rental", "capacity": "19", "name": "\u05d0\u05d9\u05d9\u05d6\u05d9\u05e7 \u05d7\u05e8\u05d9\u05e3 \u05de\u05d5\u05dc 36", "name:en": "Opp. 36 Isaac Harif St.", "name:he": "\u05d0\u05d9\u05d9\u05d6\u05d9\u05e7 \u05d7\u05e8\u05d9\u05e3 \u05de\u05d5\u05dc 36", "network": "Tel-O-Fun", "payment:credit_cards": "yes", "ref": "424"}}, {"type": "node", "id": 2946156632, "lat": 32.0338617, "lon": 34.7532273, "tags": {"addr:city": "\u05ea\u05dc \u05d0\u05d1\u05d9\u05d1-\u05d9\u05e4\u05d5", "addr:housenumber": "9", "addr:street": "\u05de\u05d7\u05e8\u05d5\u05d6\u05ea", "amenity": "bicycle_rental", "capacity": "20", "name": "\u05d4\u05de\u05d7\u05e8\u05d5\u05d6\u05ea 9", "name:en": "9 Machrozet St.", "name:he": "\u05d4\u05de\u05d7\u05e8\u05d5\u05d6\u05ea 9", "network": "Tel-O-Fun", "payment:credit_cards": "yes", "ref": "425"}}, {"type": "node", "id": 3418493696, "lat": 32.0469052, "lon": 34.8000301, "tags": {"amenity": "bicycle_rental", "capacity": "20", "name": "\u05d3\u05e8\u05da \u05d1\u05e8 \u05dc\u05d1 111", "name:he": "\u05d3\u05e8\u05da \u05d1\u05e8 \u05dc\u05d1 111", "ref": "518"}}, {"type": "node", "id": 3418493697, "lat": 32.0480025, "lon": 34.7935419, "tags": {"amenity": "bicycle_rental", "capacity": "18", "name": "\u05d0\u05e6\u05dc 93", "name:he": "\u05d0\u05e6\u05dc 93", "ref": "523"}}, {"type": "node", "id": 3418493698, "lat": 32.0503214, "lon": 34.7978446, "tags": {"amenity": "bicycle_rental", "capacity": "20", "name": "\u05e7\u05e8\u05d9\u05d9\u05ea\u05d9 \u05de\u05d5\u05dc 28", "name:he": "\u05e7\u05e8\u05d9\u05d9\u05ea\u05d9 \u05de\u05d5\u05dc 28", "ref": "510"}}, {"type": "node", "id": 3420287057, "lat": 32.0618622, "lon": 34.7729207, "tags": {"capacity": "20", "name": "\u05d9\u05d4\u05d5\u05d3\u05d4 \u05d4\u05dc\u05d5\u05d9 43 \u05e4\u05d9\u05e0\u05ea \u05d0\u05dc\u05e0\u05d1\u05d9", "name:he": "\u05d9\u05d4\u05d5\u05d3\u05d4 \u05d4\u05dc\u05d5\u05d9 43 \u05e4\u05d9\u05e0\u05ea \u05d0\u05dc\u05e0\u05d1\u05d9", "ref": "375", "service:bicycle:rental": "yes", "shop": "bicycle"}}, {"type": "node", "id": 3451158815, "lat": 32.0993113, "lon": 34.7771803, "tags": {"amenity": "bicycle_rental"}}, {"type": "node", "id": 3493130420, "lat": 32.1007545, "lon": 34.7758003, "tags": {"amenity": "bicycle_rental"}}, {"type": "node", "id": 3564373594, "lat": 32.0729445, "lon": 34.7898511, "tags": {"amenity": "bicycle_rental", "capacity": "20", "name": "\u05d1\u05d2\u05d9\u05df 125", "name:en": "Menachem Begin Road 125", "name:he": "\u05d1\u05d2\u05d9\u05df 125", "network": "Tel-O-Fun", "payment:credit_cards": "yes", "ref": "350"}}, {"type": "node", "id": 3593580064, "lat": 32.0595521, "lon": 34.7669697, "tags": {"amenity": "bicycle_rental", "capacity": "20", "name": "\u05de\u05d2\u05d3\u05dc \u05e6\u05d3\u05e7", "name:he": "\u05de\u05d2\u05d3\u05dc \u05e6\u05d3\u05e7", "ref": "350"}}, {"type": "node", "id": 3593580065, "lat": 32.0621603, "lon": 34.7647223, "tags": {"amenity": "bicycle_rental", "capacity": "18", "name": "\u05e9\u05d1\u05d6\u05d9 19 -\u05e0\u05d5\u05d5\u05d4 \u05e6\u05d3\u05e7", "name:he": "\u05e9\u05d1\u05d6\u05d9 19 -\u05e0\u05d5\u05d5\u05d4 \u05e6\u05d3\u05e7", "ref": "379"}}, {"type": "node", "id": 3593580067, "lat": 32.05971, "lon": 34.7616985, "tags": {"amenity": "bicycle_rental", "capacity": "20", "name": "\u05de\u05ea\u05d7\u05dd \u05d4\u05ea\u05d7\u05e0\u05d4", "name:he": "\u05de\u05ea\u05d7\u05dd \u05d4\u05ea\u05d7\u05e0\u05d4", "ref": "377"}}, {"type": "node", "id": 3594348651, "lat": 32.0796191, "lon": 34.7796391, "tags": {"amenity": "bicycle_rental", "bicycle_rental": "docking_station", "capacity": "20", "name": "\u05e4\u05e8\u05d9\u05e9\u05de\u05df 77", "name:he": "\u05e4\u05e8\u05d9\u05e9\u05de\u05df 77", "ref": "381"}}, {"type": "node", "id": 3594348672, "lat": 32.0778538, "lon": 34.7785719, "tags": {"amenity": "bicycle_rental", "capacity": "20", "name": "\u05e0\u05e6\u05d7 \u05d9\u05e9\u05e8\u05d0\u05dc 4 \u05e4\u05d9\u05e0\u05ea \u05de\u05e1\u05e8\u05d9\u05e7", "name:he": "\u05e0\u05e6\u05d7 \u05d9\u05e9\u05e8\u05d0\u05dc 4 \u05e4\u05d9\u05e0\u05ea \u05de\u05e1\u05e8\u05d9\u05e7", "payment:credit_cards": "yes", "ref": "344"}}, {"type": "node", "id": 3595293057, "lat": 32.0667363, "lon": 34.7714663, "tags": {"amenity": "bicycle_rental", "bicycle_rental": "docking_station", "capacity": "20", "name": "\u05d0\u05dc\u05e0\u05d1\u05d9 90 \u05e4\u05d9\u05e0\u05ea \u05de\u05d0\u05d6\u05d4", "name:he": "\u05d0\u05dc\u05e0\u05d1\u05d9 90 \u05e4\u05d9\u05e0\u05ea \u05de\u05d0\u05d6\u05d4", "payment:credit_cards": "yes", "ref": "368"}}, {"type": "node", "id": 3595293064, "lat": 32.0695449, "lon": 34.7725129, "tags": {"amenity": "bicycle_rental", "capacity": "20", "name": "\u05d2\u05d9\u05e0\u05ea \u05e9\u05d9\u05e0\u05e7\u05d9\u05df - \u05e0\u05e4\u05d7\u05d0", "name:he": "\u05d2\u05d9\u05e0\u05ea \u05e9\u05d9\u05e0\u05e7\u05d9\u05df - \u05e0\u05e4\u05d7\u05d0", "payment:credit_cards": "yes", "ref": "364"}}, {"type": "node", "id": 3598313164, "lat": 32.0740958, "lon": 34.7799112, "tags": {"amenity": "bicycle_rental", "capacity": "20", "name": "\u05e9\u05d3 \u05d7\u05df \u05e4\u05d9\u05e0\u05ea \u05d3\u05d9\u05d6\u05e0\u05d2\u05d5\u05e3", "name:he": "\u05e9\u05d3 \u05d7\u05df \u05e4\u05d9\u05e0\u05ea \u05d3\u05d9\u05d6\u05e0\u05d2\u05d5\u05e3", "payment:credit_cards": "yes", "ref": "388"}}, {"type": "node", "id": 3609549952, "lat": 32.1056346, "lon": 34.8194183, "tags": {"amenity": "bicycle_rental", "capacity": "20", "name": "\u05de\u05e8\u05db\u05d6 \u05d4\u05e1\u05e4\u05d5\u05e8\u05d8", "name:he": "\u05de\u05e8\u05db\u05d6 \u05d4\u05e1\u05e4\u05d5\u05e8\u05d8", "network": "Tel-O-Fun", "payment:credit_cards": "yes", "ref": "232"}}, {"type": "node", "id": 3668915407, "lat": 32.0498854, "lon": 34.756034, "tags": {"addr:city": "\u05ea\u05dc \u05d0\u05d1\u05d9\u05d1-\u05d9\u05e4\u05d5", "addr:housenumber": "23", "addr:street": "\u05d3\u05e8\u05d5\u05e8", "amenity": "bicycle_rental", "bicycle_rental": "docking_station", "capacity": "20", "name": "\u05d3\u05e8\u05d5\u05e8 23 - \u05d2\u05dc\u05d9 \u05e6\u05d4\u05dc", "name:en": "23 Dror St. - GALAZ", "name:he": "\u05d3\u05e8\u05d5\u05e8 23 - \u05d2\u05dc\u05d9 \u05e6\u05d4\u05dc", "network": "Tel-O-Fun", "payment:credit_cards": "yes", "ref": "433"}}, {"type": "node", "id": 3687352754, "lat": 32.0584947, "lon": 34.7759121, "tags": {"amenity": "bicycle_rental", "capacity": "20", "name": "\u05dc\u05d5\u05d9\u05e0\u05e1\u05e7\u05d9 83\u05d0", "name:he": "\u05dc\u05d5\u05d9\u05e0\u05e1\u05e7\u05d9 83\u05d0", "network": "Tel-O-Fun", "payment:credit_cards": "yes", "ref": "402"}}, {"type": "node", "id": 3687352755, "lat": 32.0563472, "lon": 34.7811849, "tags": {"amenity": "bicycle_rental", "capacity": "20", "name": "\u05d9\u05e1\u05d5\u05d3 \u05d4\u05de\u05e2\u05dc\u05d4 64 - \u05ea. \u05de\u05e8\u05db\u05d6\u05d9\u05ea", "name:he": "\u05d9\u05e1\u05d5\u05d3 \u05d4\u05de\u05e2\u05dc\u05d4 64 - \u05ea. \u05de\u05e8\u05db\u05d6\u05d9\u05ea", "network": "Tel-O-Fun", "payment:credit_cards": "yes", "ref": "401"}}, {"type": "node", "id": 3687352758, "lat": 32.0557945, "lon": 34.7727223, "tags": {"amenity": "bicycle_rental", "bicycle_rental": "docking_station", "capacity": "28", "name": "\u05d4\u05e2\u05dc\u05d9\u05d4 49", "name:he": "\u05d4\u05e2\u05dc\u05d9\u05d4 49", "network": "Tel-O-Fun", "payment:credit_cards": "yes", "ref": "430"}}, {"type": "node", "id": 3687383941, "lat": 32.0578201, "lon": 34.7831714, "tags": {"amenity": "bicycle_rental", "capacity": "20", "name": "\u05dc\u05d1\u05e0\u05d3\u05d4 43", "name:he": "\u05dc\u05d1\u05e0\u05d3\u05d4 43", "network": "Tel-O-Fun", "payment:credit_cards": "yes", "ref": "436"}}, {"type": "node", "id": 3687383944, "lat": 32.0617822, "lon": 34.7845304, "tags": {"amenity": "bicycle_rental", "capacity": "18", "name": "\u05d9\u05d3 \u05d7\u05e8\u05d5\u05e6\u05d9\u05dd 17 - \u05d4\u05de\u05e1\u05d2\u05e8", "name:he": "\u05d9\u05d3 \u05d7\u05e8\u05d5\u05e6\u05d9\u05dd 17 - \u05d4\u05de\u05e1\u05d2\u05e8", "network": "Tel-O-Fun", "payment:credit_cards": "yes", "ref": "372"}}, {"type": "node", "id": 3711111242, "lat": 32.0784847, "lon": 34.7975879, "tags": {"addr:city": "\u05ea\u05dc \u05d0\u05d1\u05d9\u05d1-\u05d9\u05e4\u05d5", "addr:housenumber": "157", "addr:street": "\u05d9\u05d2\u05d0\u05dc \u05d0\u05dc\u05d5\u05df", "amenity": "bicycle_rental", "bicycle_rental": "docking_station", "capacity": "20", "compressed_air": "yes", "name": "\u05d9\u05d2\u05d0\u05dc \u05d0\u05dc\u05d5\u05df 157", "name:en": "157 Yigal Alon St.", "name:he": "\u05d9\u05d2\u05d0\u05dc \u05d0\u05dc\u05d5\u05df 157", "network": "Tel-O-Fun", "payment:credit_cards": "yes", "ref": "532"}}, {"type": "node", "id": 3739715009, "lat": 32.0807203, "lon": 34.7674531, "tags": {"amenity": "bicycle_rental", "capacity": "20", "name": "\u05d7\u05d5\u05e3 \u05e4\u05e8\u05d9\u05e9\u05de\u05df", "name:en": "Frishman Beach", "name:he": "\u05d7\u05d5\u05e3 \u05e4\u05e8\u05d9\u05e9\u05de\u05df", "network": "Tel-O-Fun", "payment:credit_cards": "yes", "ref": "386"}}, {"type": "node", "id": 3752532387, "lat": 32.1089982, "lon": 34.8049492, "tags": {"amenity": "bicycle_rental", "capacity": "20", "name": "\u05d4\u05e4\u05e7\u05d5\u05dc\u05d8\u05d4 \u05dc\u05d4\u05e0\u05d3\u05e1\u05d4 \u05ea\u05dc \u05d0\u05d1\u05d9\u05d1", "name:he": "\u05d4\u05e4\u05e7\u05d5\u05dc\u05d8\u05d4 \u05dc\u05d4\u05e0\u05d3\u05e1\u05d4 \u05ea\u05dc \u05d0\u05d1\u05d9\u05d1", "network": "Tel-O-Fun", "payment:credit_cards": "yes", "ref": "125"}}, {"type": "node", "id": 3774173493, "lat": 32.0533585, "lon": 34.7554316, "tags": {"addr:city": "\u05ea\u05dc \u05d0\u05d1\u05d9\u05d1-\u05d9\u05e4\u05d5", "addr:street": "\u05e8\u05d1\u05d9 \u05d0\u05d7\u05d0", "amenity": "bicycle_rental", "capacity": "20", "name": "\u05e9\u05d5\u05e7 \u05e4\u05e9\u05e4\u05e9\u05d9\u05dd - \u05e8\u05d1\u05d9 \u05d0\u05d7\u05d0", "name:en": "Flea market \u2013 Rabbi Aha St.", "name:he": "\u05e9\u05d5\u05e7 \u05e4\u05e9\u05e4\u05e9\u05d9\u05dd - \u05e8\u05d1\u05d9 \u05d0\u05d7\u05d0", "network": "Tel-O-Fun", "payment:credit_cards": "yes", "ref": "411"}}, {"type": "node", "id": 3816270213, "lat": 32.0666947, "lon": 34.8089143, "tags": {"addr:city": "\u05d2\u05d1\u05e2\u05ea\u05d9\u05d9\u05dd", "addr:street": "\u05d9\u05e6\u05d7\u05e7 \u05e8\u05d1\u05d9\u05df", "amenity": "bicycle_rental", "capacity": "20", "name": "\u05e7\u05e0\u05d9\u05d5\u05df \u05d2\u05d1\u05e2\u05ea\u05d9\u05d9\u05dd", "name:en": "Givataim Mall", "name:he": "\u05e7\u05e0\u05d9\u05d5\u05df \u05d2\u05d1\u05e2\u05ea\u05d9\u05d9\u05dd", "network": "Tel-O-Fun", "payment:credit_cards": "yes", "ref": "607"}}, {"type": "node", "id": 3816280471, "lat": 32.075259, "lon": 34.8089564, "tags": {"addr:city": "\u05d2\u05d1\u05e2\u05ea\u05d9\u05d9\u05dd", "addr:street": "\u05db\u05e6\u05e0\u05dc\u05e1\u05d5\u05df", "amenity": "bicycle_rental", "capacity": "20", "name": "\u05db\u05d9\u05db\u05e8 \u05e0\u05d2\u05d4", "name:en": "Noga Square", "name:he": "\u05db\u05d9\u05db\u05e8 \u05e0\u05d2\u05d4", "network": "Tel-O-Fun", "payment:credit_cards": "yes", "ref": "601"}}, {"type": "node", "id": 3817028553, "lat": 32.035829, "lon": 34.7591117, "tags": {"addr:city": "\u05ea\u05dc \u05d0\u05d1\u05d9\u05d1-\u05d9\u05e4\u05d5", "addr:housenumber": "38", "addr:street": "\u05e1\u05d5\u05de\u05e7\u05df", "amenity": "bicycle_rental", "capacity": "20", "name": "\u05ea\u05d7\u05e0\u05ea \u05e8\u05db\u05d1\u05ea \u05d5\u05d5\u05dc\u05e4\u05e1\u05d5\u05df", "name:en": "Wolfson Train Station", "name:he": "\u05ea\u05d7\u05e0\u05ea \u05e8\u05db\u05d1\u05ea \u05d5\u05d5\u05dc\u05e4\u05e1\u05d5\u05df", "network": "Tel-O-Fun", "payment:credit_cards": "yes", "ref": "431"}}, {"type": "node", "id": 3817028554, "lat": 32.0390405, "lon": 34.7563037, "tags": {"amenity": "bicycle_rental", "capacity": "20", "name": "\u05e0\u05d7\u05dc \u05d4\u05d1\u05e9\u05d5\u05e8 \u05e4\u05d9\u05e0\u05ea \u05e9\u05d3\u05e8\u05d5\u05ea \u05d9\u05e8\u05d5\u05e9\u05dc\u05d9\u05dd", "name:en": "Yerushalayim Av. Nahal Habsor", "name:he": "\u05e0\u05d7\u05dc \u05d4\u05d1\u05e9\u05d5\u05e8 \u05e4\u05d9\u05e0\u05ea \u05e9\u05d3\u05e8\u05d5\u05ea \u05d9\u05e8\u05d5\u05e9\u05dc\u05d9\u05dd", "network": "Tel-O-Fun", "payment:credit_cards": "yes", "ref": "417"}}, {"type": "node", "id": 3817373278, "lat": 32.0409873, "lon": 34.765653, "tags": {"amenity": "bicycle_rental", "capacity": "19", "name": "\u05d2\u05e8\u05d9\u05e0\u05d1\u05d5\u05d9\u05dd 37 - \u05e0\u05d5\u05d5\u05d4 \u05e2\u05d5\u05e4\u05e8", "name:en": "37 Greenbaum St.", "name:he": "\u05d2\u05e8\u05d9\u05e0\u05d1\u05d5\u05d9\u05dd 37 - \u05e0\u05d5\u05d5\u05d4 \u05e2\u05d5\u05e4\u05e8", "network": "Tel-O-Fun", "payment:credit_cards": "yes", "ref": "408"}}, {"type": "node", "id": 3873177171, "lat": 32.0765819, "lon": 34.774652, "tags": {"addr:city": "\u05ea\u05dc \u05d0\u05d1\u05d9\u05d1-\u05d9\u05e4\u05d5", "addr:housenumber": "72", "addr:street": "\u05d3\u05d9\u05d6\u05e0\u05d2\u05d5\u05e3", "amenity": "bicycle_rental", "capacity": "20", "compressed_air": "yes", "name": "\u05d3\u05d9\u05d6\u05e0\u05d2\u05d5\u05e3 \u05e1\u05e0\u05d8\u05e8 \u05e6\u05e4\u05d5\u05df", "name:en": "Dizengoff Center North", "name:he": "\u05d3\u05d9\u05d6\u05e0\u05d2\u05d5\u05e3 \u05e1\u05e0\u05d8\u05e8 \u05e6\u05e4\u05d5\u05df", "network": "Tel-O-Fun", "payment:credit_cards": "yes", "ref": "390"}}, {"type": "node", "id": 3873177172, "lat": 32.0671156, "lon": 34.7625843, "tags": {"addr:city": "\u05ea\u05dc \u05d0\u05d1\u05d9\u05d1-\u05d9\u05e4\u05d5", "addr:street": "\u05d4\u05e8\u05d1\u05e8\u05d8 \u05e1\u05de\u05d5\u05d0\u05dc", "amenity": "bicycle_rental", "capacity": "20", "compressed_air": "yes", "name": "\u05d4\u05d3\u05d5\u05dc\u05e4\u05d9\u05e0\u05e8\u05d9\u05d5\u05dd", "name:en": "Hadolfinarium", "name:he": "\u05d4\u05d3\u05d5\u05dc\u05e4\u05d9\u05e0\u05e8\u05d9\u05d5\u05dd", "network": "Tel-O-Fun", "payment:credit_cards": "yes", "ref": "392"}}, {"type": "node", "id": 3985298608, "lat": 32.0651752, "lon": 34.7646844, "tags": {"addr:city": "\u05ea\u05dc \u05d0\u05d1\u05d9\u05d1-\u05d9\u05e4\u05d5", "addr:street": "\u05d4\u05de\u05e8\u05d3", "amenity": "bicycle_rental", "capacity": "20", "name": "\u05de\u05dc\u05d5\u05df \u05d0\u05d9\u05e0\u05d8\u05e8\u05e7\u05d5\u05e0\u05d8\u05d9\u05e0\u05e0\u05d8\u05dc", "name:en": "David Intercontinental Hotel", "name:he": "\u05de\u05dc\u05d5\u05df \u05d0\u05d9\u05e0\u05d8\u05e8\u05e7\u05d5\u05e0\u05d8\u05d9\u05e0\u05e0\u05d8\u05dc", "network": "Tel-O-Fun", "payment:credit_cards": "yes", "ref": "393"}}, {"type": "node", "id": 3987152345, "lat": 32.0740078, "lon": 34.7652105, "tags": {"addr:city": "\u05ea\u05dc \u05d0\u05d1\u05d9\u05d1-\u05d9\u05e4\u05d5", "addr:housenumber": "1", "addr:street": "\u05d0\u05dc\u05e0\u05d1\u05d9", "amenity": "bicycle_rental", "capacity": "20", "name": "\u05d7\u05d5\u05e3 \u05d9\u05e8\u05d5\u05e9\u05dc\u05d9\u05dd", "name:en": "1 Allenby St.", "name:he": "\u05d7\u05d5\u05e3 \u05d9\u05e8\u05d5\u05e9\u05dc\u05d9\u05dd", "network": "Tel-O-Fun", "payment:credit_cards": "yes", "ref": "391"}}, {"type": "node", "id": 3992078741, "lat": 32.0475287, "lon": 34.7526129, "tags": {"addr:city": "\u05ea\u05dc \u05d0\u05d1\u05d9\u05d1-\u05d9\u05e4\u05d5", "addr:housenumber": "66", "addr:street": "\u05d9\u05e4\u05ea", "amenity": "bicycle_rental", "capacity": "19", "name": "\u05d9\u05e4\u05ea 66 - \u05d2\u05df \u05d4\u05e9\u05e0\u05d9\u05d9\u05dd", "name:en": "66 Yefet St.", "name:he": "\u05d9\u05e4\u05ea 66 - \u05d2\u05df \u05d4\u05e9\u05e0\u05d9\u05d9\u05dd", "network": "Tel-O-Fun", "payment:credit_cards": "yes", "ref": "410"}}, {"type": "node", "id": 3992078742, "lat": 32.0463949, "lon": 34.7488061, "tags": {"addr:city": "\u05ea\u05dc \u05d0\u05d1\u05d9\u05d1-\u05d9\u05e4\u05d5", "addr:street": "\u05e7\u05d3\u05dd", "amenity": "bicycle_rental", "capacity": "20", "name": "\u05e7\u05d3\u05dd 49", "name:en": "49 Kedem St.", "name:he": "\u05e7\u05d3\u05dd 49", "network": "Tel-O-Fun", "payment:credit_cards": "yes", "ref": "423"}}, {"type": "node", "id": 3992078750, "lat": 32.0517594, "lon": 34.7642582, "tags": {"addr:city": "\u05ea\u05dc \u05d0\u05d1\u05d9\u05d1-\u05d9\u05e4\u05d5", "addr:street": "\u05e9\u05d0\u05e8\u05d9\u05ea \u05d9\u05e9\u05e8\u05d0\u05dc", "amenity": "bicycle_rental", "bicycle_rental": "docking_station", "capacity": "20", "name": "\u05e9\u05d0\u05e8\u05d9\u05ea \u05d9\u05e9\u05e8\u05d0\u05dc 37", "name:he": "\u05e9\u05d0\u05e8\u05d9\u05ea \u05d9\u05e9\u05e8\u05d0\u05dc 37", "network": "Tel-O-Fun", "payment:credit_cards": "yes", "ref": "404"}}, {"type": "node", "id": 3996264757, "lat": 32.0700074, "lon": 34.8086511, "tags": {"addr:city": "\u05d2\u05d1\u05e2\u05ea\u05d9\u05d9\u05dd", "addr:housenumber": "57", "addr:street": "\u05d5\u05d9\u05e6\u05de\u05df", "amenity": "bicycle_rental", "capacity": "20", "name": "\u05d5\u05d9\u05d9\u05e6\u05de\u05df 57 \u05d2\u05d1\u05e2\u05ea\u05d9\u05d9\u05dd", "name:en": "57 Weizman St.", "name:he": "\u05d5\u05d9\u05d9\u05e6\u05de\u05df 57 \u05d2\u05d1\u05e2\u05ea\u05d9\u05d9\u05dd", "network": "Tel-O-Fun", "payment:credit_cards": "yes", "ref": "611"}}, {"type": "node", "id": 3996264758, "lat": 32.0739786, "lon": 34.8124269}, {"type": "node", "id": 3996264759, "lat": 32.0672275, "lon": 34.8137754, "tags": {"addr:city": "\u05d2\u05d1\u05e2\u05ea\u05d9\u05d9\u05dd", "addr:street": "\u05e9\u05de\u05e2\u05d5\u05df \u05d1\u05df \u05e6\u05d1\u05d9", "amenity": "bicycle_rental", "capacity": "20", "name": "\u05d2\u05df \u05e7\u05d5\u05e9\u05e0\u05d9\u05e8 \u05d2\u05d1\u05e2\u05ea\u05d9\u05d9\u05dd", "name:en": "Kushnir Garden", "name:he": "\u05d2\u05df \u05e7\u05d5\u05e9\u05e0\u05d9\u05e8 \u05d2\u05d1\u05e2\u05ea\u05d9\u05d9\u05dd", "network": "Tel-O-Fun", "payment:credit_cards": "yes", "ref": "606"}}, {"type": "node", "id": 3996264760, "lat": 32.0638469, "lon": 34.8128357, "tags": {"addr:city": "\u05d2\u05d1\u05e2\u05ea\u05d9\u05d9\u05dd", "addr:street": "\u05e6\u05d1\u05d9\u05d4 \u05dc\u05d5\u05d1\u05d8\u05e7\u05d9\u05df", "amenity": "bicycle_rental", "capacity": "20", "name": "\u05d2\u05df \u05e8\u05d1\u05e7\u05d4 \u05d2\u05d1\u05e2\u05ea\u05d9\u05d9\u05dd", "name:en": "Rivka Garden", "name:he": "\u05d2\u05df \u05e8\u05d1\u05e7\u05d4 \u05d2\u05d1\u05e2\u05ea\u05d9\u05d9\u05dd", "network": "Tel-O-Fun", "payment:credit_cards": "yes", "ref": "612"}}, {"type": "node", "id": 3996264763, "lat": 32.0772778, "lon": 34.814179, "tags": {"addr:city": "\u05d2\u05d1\u05e2\u05ea\u05d9\u05d9\u05dd", "amenity": "bicycle_rental", "capacity": "20", "name": "\u05db\u05d9\u05db\u05e8 \u05e0\u05d5\u05d7 \u05d2\u05d1\u05e2\u05ea\u05d9\u05d9\u05dd", "name:en": "Noa'ch Square", "name:he": "\u05db\u05d9\u05db\u05e8 \u05e0\u05d5\u05d7 \u05d2\u05d1\u05e2\u05ea\u05d9\u05d9\u05dd", "network": "Tel-O-Fun", "payment:credit_cards": "yes", "ref": "603"}}, {"type": "node", "id": 3996264773, "lat": 32.075486, "lon": 34.8176158, "tags": {"addr:city": "\u05d2\u05d1\u05e2\u05ea\u05d9\u05d9\u05dd", "addr:housenumber": "147", "addr:street": "\u05db\u05e6\u05e0\u05dc\u05e1\u05d5\u05df", "amenity": "bicycle_rental", "capacity": "20", "name": "\u05db\u05e6\u05e0\u05dc\u05e1\u05d5\u05df \u05d2\u05d1\u05e2\u05ea\u05d9\u05d9\u05dd- \u05d4\u05de\u05e2\u05dc\u05d5\u05ea", "name:en": "Kazenelson St./ HaMaa'lot St.", "name:he": "\u05db\u05e6\u05e0\u05dc\u05e1\u05d5\u05df \u05d2\u05d1\u05e2\u05ea\u05d9\u05d9\u05dd- \u05d4\u05de\u05e2\u05dc\u05d5\u05ea", "network": "Tel-O-Fun", "payment:credit_cards": "yes", "ref": "609"}}, {"type": "node", "id": 3996264774, "lat": 32.0600228, "lon": 34.8166809}, {"type": "node", "id": 3996291957, "lat": 32.0563792, "lon": 34.8066145, "tags": {"addr:city": "\u05ea\u05dc \u05d0\u05d1\u05d9\u05d1-\u05d9\u05e4\u05d5", "addr:housenumber": "40", "addr:street": "\u05d4\u05d8\u05d9\u05d9\u05e1\u05d9\u05dd", "amenity": "bicycle_rental", "capacity": "20", "name": "\u05d4\u05d8\u05d9\u05d9\u05e1\u05d9\u05dd 40", "name:en": "40 HaTayassim Rd.", "name:he": "\u05d4\u05d8\u05d9\u05d9\u05e1\u05d9\u05dd 40", "network": "Tel-O-Fun", "payment:credit_cards": "yes", "ref": "509"}}, {"type": "node", "id": 3997197420, "lat": 32.0488431, "lon": 34.7812729, "tags": {"addr:street": "\u05d9\u05e9\u05e8\u05d0\u05dc \u05de\u05e1\u05dc\u05e0\u05d8", "amenity": "bicycle_rental", "capacity": "20", "name": "\u05d9\u05e9\u05e8\u05d0\u05dc \u05de\u05e1\u05dc\u05e0\u05d8 \u05de\u05d5\u05dc 13", "name:en": "opp.13 Israel Misalant St.", "name:he": "\u05d9\u05e9\u05e8\u05d0\u05dc \u05de\u05e1\u05dc\u05e0\u05d8 \u05de\u05d5\u05dc 13", "network": "Tel-O-Fun", "payment:credit_cards": "yes", "ref": "418"}}, {"type": "node", "id": 3997197421, "lat": 32.0515745, "lon": 34.7743262, "tags": {"addr:housenumber": "1", "addr:street": "\u05e9\u05d3\u05e8\u05d5\u05ea \u05d7\u05db\u05de\u05d9 \u05d9\u05e9\u05e8\u05d0\u05dc", "amenity": "bicycle_rental", "bicycle_rental": "docking_station", "capacity": "20", "name": "\u05d7\u05db\u05de\u05d9 \u05d9\u05e9\u05e8\u05d0\u05dc 1", "name:en": "1 Hachme Israel St.", "name:he": "\u05d7\u05db\u05de\u05d9 \u05d9\u05e9\u05e8\u05d0\u05dc 1", "network": "Tel-O-Fun", "payment:credit_cards": "yes", "ref": "432"}}, {"type": "node", "id": 4003454690, "lat": 32.0810984, "lon": 34.7886969, "tags": {"addr:city": "\u05ea\u05dc \u05d0\u05d1\u05d9\u05d1-\u05d9\u05e4\u05d5", "addr:housenumber": "15", "addr:street": "\u05d5\u05d9\u05e6\u05de\u05df", "amenity": "bicycle_rental", "bicycle_rental": "docking_station", "capacity": "20", "name": "\u05d5\u05d9\u05e6\u05de\u05df 15-\u05d0\u05d9\u05db\u05d9\u05dc\u05d5\u05d1", "name:en": "15 weizman st. Ichilov Hospital", "name:he": "\u05d5\u05d9\u05e6\u05de\u05df 15-\u05d0\u05d9\u05db\u05d9\u05dc\u05d5\u05d1", "network": "Tel-O-Fun", "payment:credit_cards": "yes", "ref": "333"}}, {"type": "node", "id": 4003454691, "lat": 32.0847355, "lon": 34.7867388, "tags": {"addr:housenumber": "2", "addr:street": "\u05ea\u05e9\"\u05d7", "amenity": "bicycle_rental", "bicycle_rental": "docking_station", "capacity": "20", "fee": "yes", "name": "\u05ea\u05e9\u05d7 2", "name:en": "2 Tashah St.", "name:he": "\u05ea\u05e9\u05d7 2", "network": "Tel-O-Fun", "payment:credit_cards": "yes", "ref": "323"}}, {"type": "node", "id": 4003454696, "lat": 32.0864718, "lon": 34.7927278, "tags": {"addr:housenumber": "1", "addr:street": "\u05e9\u05d3\u05e8\u05d5\u05ea \u05d4\u05e6\u05d9\u05d5\u05e0\u05d5\u05ea", "amenity": "bicycle_rental", "bicycle_rental": "docking_station", "capacity": "20", "name": "\u05e9\u05d3\u05e8\u05d5\u05ea \u05d4\u05e6\u05d9\u05d5\u05e0\u05d5\u05ea 1", "name:en": "1 Tsiyonut Av", "name:he": "\u05e9\u05d3\u05e8\u05d5\u05ea \u05d4\u05e6\u05d9\u05d5\u05e0\u05d5\u05ea 1", "network": "Tel-O-Fun", "payment:credit_cards": "yes", "ref": "322"}}, {"type": "node", "id": 4009558140, "lat": 32.0694309, "lon": 34.7865283, "tags": {"addr:city": "\u05ea\u05dc \u05d0\u05d1\u05d9\u05d1-\u05d9\u05e4\u05d5", "addr:housenumber": "121", "addr:street": "\u05d4\u05d7\u05e9\u05de\u05d5\u05e0\u05d0\u05d9\u05dd", "amenity": "bicycle_rental", "bicycle_rental": "docking_station", "capacity": "20", "name": "\u05d2\u05d9\u05e0\u05d3\u05d9 \u05ea\u05dc \u05d0\u05d1\u05d9\u05d1", "name:en": "Gindi Tel-Aviv", "name:he": "\u05d2\u05d9\u05e0\u05d3\u05d9 \u05ea\u05dc \u05d0\u05d1\u05d9\u05d1", "network": "Tel-O-Fun", "payment:credit_cards": "yes", "ref": "352"}}, {"type": "node", "id": 4009558141, "lat": 32.0702607, "lon": 34.7846905, "tags": {"addr:city": "\u05ea\u05dc \u05d0\u05d1\u05d9\u05d1-\u05d9\u05e4\u05d5", "amenity": "bicycle_rental", "bicycle_rental": "docking_station", "capacity": "20", "name": "\u05de\u05ea\u05d7\u05dd \u05d2\u05d1\u05e2\u05d5\u05df", "name:en": "Givon Compound", "name:he": "\u05de\u05ea\u05d7\u05dd \u05d2\u05d1\u05e2\u05d5\u05df", "network": "Tel-O-Fun", "payment:credit_cards": "yes", "ref": "353"}}, {"type": "node", "id": 4082010273, "lat": 32.0713789, "lon": 34.793999, "tags": {"addr:street": "\u05d9\u05d2\u05d0\u05dc \u05d0\u05dc\u05d5\u05df", "amenity": "bicycle_rental", "capacity": "20", "name": "\u05d9\u05d2\u05d0\u05dc \u05d0\u05dc\u05d5\u05df \u05d3\u05e8\u05da \u05d4\u05e9\u05dc\u05d5\u05dd", "name:en": "Yigal Alon St. / HaShalom Road", "name:he": "\u05d9\u05d2\u05d0\u05dc \u05d0\u05dc\u05d5\u05df \u05d3\u05e8\u05da \u05d4\u05e9\u05dc\u05d5\u05dd", "network": "Tel-O-Fun", "payment:credit_cards": "yes", "ref": "537"}}, {"type": "node", "id": 4083898512, "lat": 32.0773755, "lon": 34.7662986, "tags": {"addr:city": "\u05ea\u05dc \u05d0\u05d1\u05d9\u05d1-\u05d9\u05e4\u05d5", "addr:housenumber": "90", "addr:street": "\u05d4\u05e8\u05d1\u05e8\u05d8 \u05e1\u05de\u05d5\u05d0\u05dc", "amenity": "bicycle_rental", "bicycle_rental": "docking_station", "capacity": "28", "name": "\u05d4\u05e8\u05d1\u05e8\u05d8 \u05e1\u05de\u05d5\u05d0\u05dc 90", "name:en": "90 Herbert Samuel St.", "name:he": "\u05d4\u05e8\u05d1\u05e8\u05d8 \u05e1\u05de\u05d5\u05d0\u05dc 90", "network": "Tel-O-Fun", "payment:credit_cards": "yes", "ref": "341"}}, {"type": "node", "id": 4694178990, "lat": 32.0926882, "lon": 34.7737783, "tags": {"amenity": "bicycle_rental", "website": "https://tel-o-fun.co.il/"}}, {"type": "node", "id": 5442467297, "lat": 32.0739701, "lon": 34.7754027, "tags": {"crossing": "marked", "crossing:markings": "yes", "highway": "crossing"}}, {"type": "node", "id": 5594780130, "lat": 32.063833, "lon": 34.7766544, "tags": {"amenity": "bicycle_rental", "brand": "Tel-O-Fun", "brand:wikidata": "Q2915180", "capacity": "20", "fee": "yes", "name": "\u05d4\u05e8\u05db\u05d1\u05ea \u05e4\u05d9\u05e0\u05ea \u05dc\u05d1\u05d5\u05e0\u05d8\u05d9\u05df", "name:en": "HaRakevet corner Levontin", "name:he": "\u05d4\u05e8\u05db\u05d1\u05ea \u05e4\u05d9\u05e0\u05ea \u05dc\u05d1\u05d5\u05e0\u05d8\u05d9\u05df", "network": "Tel-O-Fun", "network:wikidata": "Q2915180", "operator": "FSM", "payment:credit_cards": "yes", "phone": "*6070", "ref": "373"}}, {"type": "node", "id": 5613875512, "lat": 32.0756745, "lon": 34.7716373, "tags": {"amenity": "fast_food", "diet:vegan": "yes", "diet:vegetarian": "yes", "name": "Hummus Mshawashe", "name:en": "Hummus Mshawashe"}}, {"type": "node", "id": 5648224324, "lat": 32.0756656, "lon": 34.7716396, "tags": {"amenity": "fast_food", "name:en": "Humus", "name:ru": "\u0425\u0443\u043c\u0443\u0441"}}, {"type": "node", "id": 6300638485, "lat": 32.0869162, "lon": 34.7822126, "tags": {"addr:city": "\u05ea\u05dc \u05d0\u05d1\u05d9\u05d1-\u05d9\u05e4\u05d5", "addr:housenumber": "124", "addr:street": "\u05d0\u05d1\u05df \u05d2\u05d1\u05d9\u05e8\u05d5\u05dc", "amenity": "bicycle_rental", "brand": "Tel-O-Fun", "brand:wikidata": "Q2915180", "capacity": "20", "fee": "yes", "name": "\u05d0\u05d1\u05df \u05d2\u05d1\u05d9\u05e8\u05d5\u05dc 124", "name:en": "124 Ibn Gvirol St.", "name:he": "\u05d0\u05d1\u05df \u05d2\u05d1\u05d9\u05e8\u05d5\u05dc 124", "network": "Tel-O-Fun", "network:wikidata": "Q2915180", "operator": "FSM", "operator:type": "private", "payment:credit_cards": "yes", "ref": "319"}}, {"type": "node", "id": 6300638486, "lat": 32.0885971, "lon": 34.7800299, "tags": {"addr:city": "\u05ea\u05dc \u05d0\u05d1\u05d9\u05d1-\u05d9\u05e4\u05d5", "addr:housenumber": "65", "addr:street": "\u05d6'\u05d1\u05d5\u05d8\u05d9\u05e0\u05e1\u05e7\u05d9", "amenity": "bicycle_rental", "bicycle_rental": "docking_station", "brand": "Tel-O-Fun", "brand:wikidata": "Q2915180", "capacity": "20", "fee": "yes", "name": "\u05d6\u05d1\u05d5\u05d8\u05d9\u05e0\u05e1\u05e7\u05d9-\u05d9\u05d4\u05d5\u05e9\u05d5\u05e2 \u05d1\u05df \u05e0\u05d5\u05df", "name:en": "Jabutinsky St. / Yeushua Ben Nun St.", "name:he": "\u05d6\u05d1\u05d5\u05d8\u05d9\u05e0\u05e1\u05e7\u05d9-\u05d9\u05d4\u05d5\u05e9\u05d5\u05e2 \u05d1\u05df \u05e0\u05d5\u05df", "network": "Tel-O-Fun", "network:wikidata": "Q2915180", "operator": "FSM", "payment:credit_cards": "yes", "ref": "383"}}, {"type": "node", "id": 6332795968, "lat": 32.0449648, "lon": 34.8096663, "tags": {"amenity": "bicycle_rental", "capacity": "20", "fee": "yes", "name": "\u05d3\u05e8\u05da \u05d1\u05e8 \u05dc\u05d1 186", "name:en": "186 Bar-Lev Rd.", "name:he": "\u05d3\u05e8\u05da \u05d1\u05e8 \u05dc\u05d1 186", "network": "Tel-O-Fun", "operator": "FSM", "payment:credit_cards": "yes", "ref": "517"}}, {"type": "node", "id": 6879485160, "lat": 32.1105162, "lon": 34.8376966, "tags": {"addr:city": "\u05ea\u05dc \u05d0\u05d1\u05d9\u05d1-\u05d9\u05e4\u05d5", "addr:housenumber": "20", "addr:street": "\u05e8\u05d0\u05d5\u05dc \u05d5\u05dc\u05e0\u05d1\u05e8\u05d2", "amenity": "bicycle_rental", "capacity": "20", "fee": "yes", "name": "\u05e8\u05d0\u05d5\u05dc \u05d5\u05dc\u05e0\u05d1\u05e8\u05d2 \u05e4\u05d9\u05e0\u05ea \u05d4\u05e0\u05d7\u05d5\u05e9\u05ea", "name:en": "Raoul Wallenberg St/ Hanechoshet St.", "name:he": "\u05e8\u05d0\u05d5\u05dc \u05d5\u05dc\u05e0\u05d1\u05e8\u05d2 \u05e4\u05d9\u05e0\u05ea \u05d4\u05e0\u05d7\u05d5\u05e9\u05ea", "network": "Tel-O-Fun", "operator": "FSM", "operator:type": "public", "payment:credit_cards": "yes", "ref": "231"}}, {"type": "node", "id": 6879485161, "lat": 32.1175735, "lon": 34.8245964, "tags": {"addr:city": "\u05ea\u05dc \u05d0\u05d1\u05d9\u05d1-\u05d9\u05e4\u05d5", "addr:housenumber": "7", "addr:street": "\u05de\u05e8\u05e1\u05dc \u05d9\u05e0\u05e7\u05d5", "amenity": "bicycle_rental", "capacity": "14", "fee": "yes", "name": "\u05d2\u05d1\u05e2\u05ea \u05d4\u05e4\u05e8\u05d7\u05d9\u05dd", "name:en": "7 Marcel Yanko St.", "name:he": "\u05d2\u05d1\u05e2\u05ea \u05d4\u05e4\u05e8\u05d7\u05d9\u05dd", "network": "Tel-O-Fun", "operator": "FSM", "operator:type": "public", "payment:credit_cards": "yes", "ref": "217"}}, {"type": "node", "id": 7769962616, "lat": 32.0775892, "lon": 34.7737879}, {"type": "node", "id": 7769962617, "lat": 32.0761214, "lon": 34.7720676}, {"type": "node", "id": 7769962618, "lat": 32.075938, "lon": 34.7718589}, {"type": "node", "id": 7769962619, "lat": 32.0764039, "lon": 34.7723872}, {"type": "node", "id": 7769962620, "lat": 32.0766261, "lon": 34.7726425}, {"type": "node", "id": 7769962621, "lat": 32.0770386, "lon": 34.7731358}, {"type": "node", "id": 7769962622, "lat": 32.077251, "lon": 34.7733919}, {"type": "node", "id": 7769962623, "lat": 32.0774035, "lon": 34.7735686}, {"type": "node", "id": 8564167001, "lat": 32.0739847, "lon": 34.7753665, "tags": {"crossing": "traffic_signals", "highway": "crossing"}}, {"type": "node", "id": 8564167002, "lat": 32.0743036, "lon": 34.7747649, "tags": {"crossing": "marked", "crossing:markings": "yes", "highway": "crossing"}}, {"type": "node", "id": 8564167003, "lat": 32.0746294, "lon": 34.7741527, "tags": {"crossing": "marked", "highway": "crossing"}}, {"type": "node", "id": 8564167004, "lat": 32.0749539, "lon": 34.7734977, "tags": {"crossing": "traffic_signals", "highway": "crossing"}}, {"type": "node", "id": 8564167005, "lat": 32.0751577, "lon": 34.773124}, {"type": "node", "id": 8564167006, "lat": 32.0755039, "lon": 34.7724471, "tags": {"crossing": "marked", "crossing:markings": "yes", "highway": "crossing"}}, {"type": "node", "id": 8564167007, "lat": 32.0758683, "lon": 34.771735, "tags": {"crossing": "traffic_signals", "highway": "crossing"}}, {"type": "node", "id": 8564167008, "lat": 32.0764127, "lon": 34.7707082, "tags": {"crossing": "traffic_signals", "crossing:markings": "yes", "highway": "crossing"}}, {"type": "node", "id": 8564167009, "lat": 32.0767483, "lon": 34.7700246, "tags": {"crossing": "traffic_signals", "highway": "crossing"}}, {"type": "node", "id": 8564167010, "lat": 32.077014, "lon": 34.7695537, "tags": {"crossing": "traffic_signals", "highway": "crossing"}}, {"type": "node", "id": 8564167013, "lat": 32.0740068, "lon": 34.7753092, "tags": {"crossing": "traffic_signals", "highway": "crossing"}}, {"type": "node", "id": 8564167016, "lat": 32.075872, "lon": 34.7718035, "tags": {"crossing": "traffic_signals", "highway": "crossing"}}, {"type": "node", "id": 8564174117, "lat": 32.0758443, "lon": 34.7717834}, {"type": "node", "id": 8569721097, "lat": 32.0749808, "lon": 34.7734781}, {"type": "node", "id": 8569721098, "lat": 32.0749509, "lon": 34.7735369}, {"type": "node", "id": 8569721099, "lat": 32.075876, "lon": 34.7717219}, {"type": "node", "id": 8678298619, "lat": 32.0775868, "lon": 34.7684363, "tags": {"crossing": "traffic_signals", "highway": "crossing"}}, {"type": "node", "id": 9399435768, "lat": 32.077658, "lon": 34.7738691}, {"type": "node", "id": 9399435769, "lat": 32.0776672, "lon": 34.7738893}, {"type": "node", "id": 10238157233, "lat": 32.0756163, "lon": 34.7714695}, {"type": "node", "id": 10238157236, "lat": 32.0740202, "lon": 34.7752778}, {"type": "node", "id": 11168836292, "lat": 32.0751012, "lon": 34.7710209}, {"type": "node", "id": 12172573714, "lat": 32.075513, "lon": 34.771524, "tags": {"bus": "yes", "gtfs:stop_code:IL-MOT": "20853", "gtfs:stop_id:IL-MOT": "50637", "gtfs:stop_name:IL-MOT": "\u05e4\u05d9\u05e0\u05e1\u05e7\u05e8/\u05d1\u05d5\u05d2\u05e8\u05e9\u05d5\u05d1", "highway": "bus_stop", "name": "\u05e4\u05d9\u05e0\u05e1\u05e7\u05e8/\u05d1\u05d5\u05d2\u05e8\u05e9\u05d5\u05d1", "name:ar": "\u0628\u064a\u0646\u0633\u0643\u0627\u0631/\u0628\u0648\u062c\u0631\u0634\u0648\u0641", "name:en": "Pinsker/Bograshov", "name:he": "\u05e4\u05d9\u05e0\u05e1\u05e7\u05e8/\u05d1\u05d5\u05d2\u05e8\u05e9\u05d5\u05d1", "object:city": "\u05ea\u05dc \u05d0\u05d1\u05d9\u05d1 \u05d9\u05e4\u05d5", "object:housenumber": "38", "object:street": "\u05e4\u05d9\u05e0\u05e1\u05e7\u05e8", "public_transport": "platform", "ref": "20853", "route_ref": "18;61;230;231"}}, {"type": "way", "id": 31950429, "nodes": [334712025, 8564167007, 10238157233, 11168836292, 384690640], "tags": {"highway": "residential", "lanes": "2", "lit": "yes", "name": "\u05e4\u05d9\u05e0\u05e1\u05e7\u05e8", "name:ar": "\u067e\u064a\u0646\u0633\u0643\u064a\u0631", "name:en": "Pinsker", "name:en1": "Y. L. Pinsker", "name:he": "\u05e4\u05d9\u05e0\u05e1\u05e7\u05e8", "name:ru": "\u041f\u0438\u043d\u0441\u043a\u0435\u0440", "smoothness": "good", "surface": "asphalt"}}, {"type": "way", "id": 35160116, "nodes": [412404411, 412404413], "tags": {"highway": "residential", "maxspeed": "30", "name": "\u05e6\u05e4\u05ea", "name:en": "Safed", "name:en1": "Tsfat", "name:en2": "Zfat", "name:he": "\u05e6\u05e4\u05ea", "oneway": "yes", "surface": "asphalt"}}, {"type": "way", "id": 505976706, "nodes": [334712025, 8564167016, 384691747], "tags": {"highway": "tertiary", "lanes": "2", "lanes:forward": "1", "lanes:psv:forward": "1", "name": "\u05d1\u05d5\u05d2\u05e8\u05e9\u05d5\u05d1", "name:ar": "\u0628\u0648\u0686\u0631\u0634\u0648\u06a4", "name:en": "Bograshov", "name:he": "\u05d1\u05d5\u05d2\u05e8\u05e9\u05d5\u05d1", "name:ro": "Bogra\u0219ov", "oneway": "no", "psv": "opposite_lane", "surface": "asphalt"}}, {"type": "way", "id": 621282566, "nodes": [412404375, 334712025], "tags": {"highway": "tertiary", "lanes": "2", "lit": "yes", "name": "\u05e4\u05d9\u05e0\u05e1\u05e7\u05e8", "name:ar": "\u067e\u064a\u0646\u0633\u0643\u064a\u0631", "name:en": "Pinsker", "name:en1": "Y. L. Pinsker", "name:he": "\u05e4\u05d9\u05e0\u05e1\u05e7\u05e8", "name:ru": "\u041f\u0438\u043d\u0441\u043a\u0435\u0440", "oneway": "yes", "surface": "asphalt"}}, {"type": "way", "id": 832223036, "nodes": [9399435769, 9399435768, 7769962616, 7769962623, 7769962622, 7769962621, 7769962620, 7769962619, 7769962617, 7769962618, 8564167016, 8564174117], "tags": {"highway": "cycleway", "surface": "asphalt"}}, {"type": "way", "id": 922507098, "nodes": [5442467297, 8564167001, 8564167013, 10238157236, 8564167002, 8564167003, 8569721098, 8564167004, 8569721097, 8564167005, 8564167006, 8564174117, 8564167007, 8569721099, 8564167008, 8564167009, 8564167010, 8678298619], "tags": {"highway": "cycleway", "name": "\u05d1\u05d5\u05d2\u05e8\u05e9\u05d5\u05d1", "name:ar": "\u0628\u0648\u0686\u0631\u0634\u0648\u06a4", "name:en": "Bograshov", "name:he": "\u05d1\u05d5\u05d2\u05e8\u05e9\u05d5\u05d1", "oneway": "no", "surface": "asphalt"}}, {"type": "way", "id": 1008122872, "nodes": [412404418, 412404411, 334712025], "tags": {"highway": "tertiary", "lanes": "1", "name": "\u05d1\u05d5\u05d2\u05e8\u05e9\u05d5\u05d1", "name:ar": "\u0628\u0648\u0686\u0631\u0634\u0648\u06a4", "name:en": "Bograshov", "name:he": "\u05d1\u05d5\u05d2\u05e8\u05e9\u05d5\u05d1", "name:ro": "Bogra\u0219ov", "oneway": "yes", "surface": "asphalt", "wikidata": "Q6990148"}}, {"type": "relation", "id": 1435552, "members": [{"type": "node", "ref": 1161224266, "role": "rental_station"}, {"type": "node", "ref": 1153441817, "role": "rental_station"}, {"type": "node", "ref": 1153443532, "role": "rental_station"}, {"type": "node", "ref": 1153443526, "role": "rental_station"}, {"type": "node", "ref": 1156126871, "role": "rental_station"}, {"type": "node", "ref": 1157393954, "role": "rental_station"}, {"type": "node", "ref": 1157394642, "role": "rental_station"}, {"type": "node", "ref": 1171882556, "role": "rental_station"}, {"type": "node", "ref": 1171883569, "role": "rental_station"}, {"type": "node", "ref": 1171885036, "role": "rental_station"}, {"type": "node", "ref": 1171885266, "role": "rental_station"}, {"type": "node", "ref": 1171886214, "role": "rental_station"}, {"type": "node", "ref": 1171886311, "role": "rental_station"}, {"type": "node", "ref": 1171889386, "role": "rental_station"}, {"type": "node", "ref": 1156079710, "role": "rental_station"}, {"type": "node", "ref": 1157396127, "role": "rental_station"}, {"type": "node", "ref": 1157400314, "role": "rental_station"}, {"type": "node", "ref": 1157401075, "role": "rental_station"}, {"type": "node", "ref": 1157396376, "role": "rental_station"}, {"type": "node", "ref": 1172162547, "role": "rental_station"}, {"type": "node", "ref": 1179532546, "role": "rental_station"}, {"type": "node", "ref": 1184017367, "role": "rental_station"}, {"type": "node", "ref": 1184017987, "role": "rental_station"}, {"type": "node", "ref": 1184019738, "role": "rental_station"}, {"type": "node", "ref": 1184840368, "role": "rental_station"}, {"type": "node", "ref": 1185647914, "role": "rental_station"}, {"type": "node", "ref": 1185648094, "role": "rental_station"}, {"type": "node", "ref": 1187812125, "role": "rental_station"}, {"type": "node", "ref": 1187820821, "role": "rental_station"}, {"type": "node", "ref": 1187828917, "role": "rental_station"}, {"type": "node", "ref": 1187833758, "role": "rental_station"}, {"type": "node", "ref": 1189621393, "role": "rental_station"}, {"type": "node", "ref": 1191726832, "role": "rental_station"}, {"type": "node", "ref": 1194305940, "role": "rental_station"}, {"type": "node", "ref": 1194309590, "role": "rental_station"}, {"type": "node", "ref": 1198440857, "role": "rental_station"}, {"type": "node", "ref": 1198441839, "role": "rental_station"}, {"type": "node", "ref": 1198442893, "role": "rental_station"}, {"type": "node", "ref": 1198447303, "role": "rental_station"}, {"type": "node", "ref": 1195981671, "role": "rental_station"}, {"type": "node", "ref": 1195969100, "role": "rental_station"}, {"type": "node", "ref": 1195981666, "role": "rental_station"}, {"type": "node", "ref": 1195988365, "role": "rental_station"}, {"type": "node", "ref": 1195994040, "role": "rental_station"}, {"type": "node", "ref": 1195987769, "role": "rental_station"}, {"type": "node", "ref": 1195992981, "role": "rental_station"}, {"type": "node", "ref": 1195994041, "role": "rental_station"}, {"type": "node", "ref": 1195992975, "role": "rental_station"}, {"type": "node", "ref": 1195992979, "role": "rental_station"}, {"type": "node", "ref": 1195992977, "role": "rental_station"}, {"type": "node", "ref": 1195987772, "role": "rental_station"}, {"type": "node", "ref": 1195987773, "role": "rental_station"}, {"type": "node", "ref": 1195987770, "role": "rental_station"}, {"type": "node", "ref": 1195992980, "role": "rental_station"}, {"type": "node", "ref": 1195987766, "role": "rental_station"}, {"type": "node", "ref": 1157399238, "role": "rental_station"}, {"type": "node", "ref": 1195972074, "role": "rental_station"}, {"type": "node", "ref": 1195972066, "role": "rental_station"}, {"type": "node", "ref": 1195987767, "role": "rental_station"}, {"type": "node", "ref": 1195969103, "role": "rental_station"}, {"type": "node", "ref": 1195975174, "role": "rental_station"}, {"type": "node", "ref": 1195981669, "role": "rental_station"}, {"type": "node", "ref": 1195987771, "role": "rental_station"}, {"type": "node", "ref": 1195987774, "role": "rental_station"}, {"type": "node", "ref": 1195992978, "role": "rental_station"}, {"type": "node", "ref": 1195993418, "role": "rental_station"}, {"type": "node", "ref": 1232914388, "role": "rental_station"}, {"type": "node", "ref": 1232914383, "role": "rental_station"}, {"type": "node", "ref": 1345595133, "role": "rental_station"}, {"type": "node", "ref": 1345595132, "role": "rental_station"}, {"type": "node", "ref": 1365841444, "role": "rental_station"}, {"type": "node", "ref": 1420803790, "role": "rental_station"}, {"type": "node", "ref": 1420803788, "role": "rental_station"}, {"type": "node", "ref": 1420803789, "role": "rental_station"}, {"type": "node", "ref": 1678949948, "role": "rental_station"}, {"type": "node", "ref": 1585379914, "role": "rental_station"}, {"type": "node", "ref": 1678949949, "role": "rental_station"}, {"type": "node", "ref": 1707635660, "role": "rental_station"}, {"type": "node", "ref": 1707635659, "role": "rental_station"}, {"type": "node", "ref": 1718502840, "role": "rental_station"}, {"type": "node", "ref": 1718633205, "role": "rental_station"}, {"type": "node", "ref": 1823251365, "role": "rental_station"}, {"type": "node", "ref": 1933709242, "role": "rental_station"}, {"type": "node", "ref": 1952893958, "role": "rental_station"}, {"type": "node", "ref": 1990220064, "role": "rental_station"}, {"type": "node", "ref": 1996197302, "role": "rental_station"}, {"type": "node", "ref": 1996197305, "role": "rental_station"}, {"type": "node", "ref": 2108063238, "role": "rental_station"}, {"type": "node", "ref": 2131481339, "role": "rental_station"}, {"type": "node", "ref": 2264948129, "role": "rental_station"}, {"type": "node", "ref": 2266143394, "role": "rental_station"}, {"type": "node", "ref": 2322592330, "role": "rental_station"}, {"type": "node", "ref": 2322592328, "role": "rental_station"}, {"type": "node", "ref": 2322592331, "role": "rental_station"}, {"type": "node", "ref": 2322592329, "role": "rental_station"}, {"type": "node", "ref": 2395471108, "role": "rental_station"}, {"type": "node", "ref": 2611449932, "role": "rental_station"}, {"type": "node", "ref": 2666736295, "role": "rental_station"}, {"type": "node", "ref": 2666736290, "role": "rental_station"}, {"type": "node", "ref": 2666736297, "role": "rental_station"}, {"type": "node", "ref": 2666736281, "role": "rental_station"}, {"type": "node", "ref": 2666736286, "role": "rental_station"}, {"type": "node", "ref": 2669725301, "role": "rental_station"}, {"type": "node", "ref": 2676543498, "role": "rental_station"}, {"type": "node", "ref": 2676662946, "role": "rental_station"}, {"type": "node", "ref": 2676674710, "role": "rental_station"}, {"type": "node", "ref": 2676674711, "role": "rental_station"}, {"type": "node", "ref": 2676709410, "role": "rental_station"}, {"type": "node", "ref": 2676728444, "role": "rental_station"}, {"type": "node", "ref": 2676728448, "role": "rental_station"}, {"type": "node", "ref": 2676738736, "role": "rental_station"}, {"type": "node", "ref": 2676747632, "role": "rental_station"}, {"type": "node", "ref": 2676747630, "role": "rental_station"}, {"type": "node", "ref": 2676747631, "role": "rental_station"}, {"type": "node", "ref": 2696091146, "role": "rental_station"}, {"type": "node", "ref": 2821371256, "role": "rental_station"}, {"type": "node", "ref": 2821371254, "role": "rental_station"}, {"type": "node", "ref": 3418493696, "role": "rental_station"}, {"type": "node", "ref": 3418493697, "role": "rental_station"}, {"type": "node", "ref": 3418493698, "role": "rental_station"}, {"type": "node", "ref": 3420287057, "role": "rental_station"}, {"type": "node", "ref": 3451158815, "role": "bicycle_rental"}, {"type": "node", "ref": 3493130420, "role": "bicycle_rental"}, {"type": "node", "ref": 3564373594, "role": "rental_station"}, {"type": "node", "ref": 2384763531, "role": "rental_station"}, {"type": "node", "ref": 3593580064, "role": "rental_station"}, {"type": "node", "ref": 3593580065, "role": "rental_station"}, {"type": "node", "ref": 3593580067, "role": "rental_station"}, {"type": "node", "ref": 3594348651, "role": "rental_station"}, {"type": "node", "ref": 3594348672, "role": "rental_station"}, {"type": "node", "ref": 3595293057, "role": "rental_station"}, {"type": "node", "ref": 3595293064, "role": "rental_station"}, {"type": "node", "ref": 3598313164, "role": "rental_station"}, {"type": "node", "ref": 1368037329, "role": "rental_station"}, {"type": "node", "ref": 2904593464, "role": "rental_station"}, {"type": "node", "ref": 2904570796, "role": "rental_station"}, {"type": "node", "ref": 2902720103, "role": "rental_station"}, {"type": "node", "ref": 3609549952, "role": "rental_station"}, {"type": "node", "ref": 3668915407, "role": "rental_station"}, {"type": "node", "ref": 3687352758, "role": "rental_station"}, {"type": "node", "ref": 3687352754, "role": "rental_station"}, {"type": "node", "ref": 3687352755, "role": "rental_station"}, {"type": "node", "ref": 3687383944, "role": "rental_station"}, {"type": "node", "ref": 3687383941, "role": "rental_station"}, {"type": "node", "ref": 3711111242, "role": "rental_station"}, {"type": "node", "ref": 3739715009, "role": "rental_station"}, {"type": "node", "ref": 3752532387, "role": "rental_station"}, {"type": "node", "ref": 3774173493, "role": "rental_station"}, {"type": "node", "ref": 3816280471, "role": "rental_station"}, {"type": "node", "ref": 3816270213, "role": "rental_station"}, {"type": "node", "ref": 3817028554, "role": "rental_station"}, {"type": "node", "ref": 3817028553, "role": "rental_station"}, {"type": "node", "ref": 2946156632, "role": "rental_station"}, {"type": "node", "ref": 2946147140, "role": "rental_station"}, {"type": "node", "ref": 1538692937, "role": "rental_station"}, {"type": "node", "ref": 3817373278, "role": "rental_station"}, {"type": "node", "ref": 3873177171, "role": "rental_station"}, {"type": "node", "ref": 3873177172, "role": "rental_station"}, {"type": "node", "ref": 3985298608, "role": "rental_station"}, {"type": "node", "ref": 3987152345, "role": "rental_station"}, {"type": "node", "ref": 3992078741, "role": "rental_station"}, {"type": "node", "ref": 3992078742, "role": "rental_station"}, {"type": "node", "ref": 3992078750, "role": "rental_station"}, {"type": "node", "ref": 3996264757, "role": "rental_station"}, {"type": "node", "ref": 3996264758, "role": "rental_station"}, {"type": "node", "ref": 3996264759, "role": "rental_station"}, {"type": "node", "ref": 3996264760, "role": "rental_station"}, {"type": "node", "ref": 3996264763, "role": "rental_station"}, {"type": "node", "ref": 3996264773, "role": "rental_station"}, {"type": "node", "ref": 3996264774, "role": "rental_station"}, {"type": "node", "ref": 3996291957, "role": "rental_station"}, {"type": "node", "ref": 3997197420, "role": "rental_station"}, {"type": "node", "ref": 3997197421, "role": "rental_station"}, {"type": "node", "ref": 4003454690, "role": "rental_station"}, {"type": "node", "ref": 4003454691, "role": "rental_station"}, {"type": "node", "ref": 4003454696, "role": "rental_station"}, {"type": "node", "ref": 1773354948, "role": "rental_station"}, {"type": "node", "ref": 4009558140, "role": "rental_station"}, {"type": "node", "ref": 4009558141, "role": "rental_station"}, {"type": "node", "ref": 4082010273, "role": "rental_station"}, {"type": "node", "ref": 4083898512, "role": "rental_station"}, {"type": "node", "ref": 6300638485, "role": "rental_station"}, {"type": "node", "ref": 6300638486, "role": "rental_station"}, {"type": "node", "ref": 4694178990, "role": "rental_station"}, {"type": "node", "ref": 5594780130, "role": "rental_station"}, {"type": "node", "ref": 6332795968, "role": "rental_station"}, {"type": "node", "ref": 6879485160, "role": "rental_station"}, {"type": "node", "ref": 6879485161, "role": "rental_station"}], "tags": {"amenity": "bicycle_rental", "name": "\u05ea\u05dc-\u05d0\u05d5\u05e4\u05df (\u05d0\u05d5\u05e4\u05e0\u05d9\u05d9\u05dd \u05dc\u05d4\u05e9\u05db\u05e8\u05d4 \u05ea\u05dc \u05d0\u05d1\u05d9\u05d1)", "name:en": "Tel-O-Fun (Tel Aviv Bicycle Rental)", "name:he": "\u05ea\u05dc-\u05d0\u05d5\u05e4\u05df (\u05d0\u05d5\u05e4\u05e0\u05d9\u05d9\u05dd \u05dc\u05d4\u05e9\u05db\u05e8\u05d4 \u05ea\u05dc \u05d0\u05d1\u05d9\u05d1)", "name:ru": "\u0422\u0435\u043b\u044c-\u041e\u0444\u0430\u043d", "phone": "*6070", "type": "network", "website": "https://www.tel-o-fun.co.il/"}}]}