{"version": 0.6, "generator": "Overpass API 0.7.62.5 1bd436f1", "osm3s": {"timestamp_osm_base": "2025-05-29T17:07:48Z", "copyright": "The data included in this document is from www.openstreetmap.org. The data is made available under ODbL."}, "elements": [{"type": "node", "id": 34132755, "lat": 32.0714067, "lon": 34.7808185}, {"type": "node", "id": 311001058, "lat": 32.0705524, "lon": 34.7786441}, {"type": "node", "id": 345574764, "lat": 32.0705147, "lon": 34.7788346, "tags": {"bicycle": "designated", "button_operated": "yes", "crossing": "traffic_signals", "highway": "crossing", "traffic_signals:sound": "yes"}}, {"type": "node", "id": 384613392, "lat": 32.0701269, "lon": 34.7802817}, {"type": "node", "id": 384613399, "lat": 32.0678701, "lon": 34.7793786}, {"type": "node", "id": 384613775, "lat": 32.069805, "lon": 34.7801512}, {"type": "node", "id": 387493707, "lat": 32.0719251, "lon": 34.7810438}, {"type": "node", "id": 476376316, "lat": 32.0705554, "lon": 34.7804615}, {"type": "node", "id": 476376664, "lat": 32.0709549, "lon": 34.7806291}, {"type": "node", "id": 1312216095, "lat": 32.0714561, "lon": 34.7808393, "tags": {"bicycle": "designated", "crossing": "marked", "crossing:markings": "yes", "foot": "designated", "highway": "crossing", "segregated": "yes"}}, {"type": "node", "id": 1672351151, "lat": 32.0704972, "lon": 34.778926, "tags": {"highway": "traffic_signals"}}, {"type": "node", "id": 1672351169, "lat": 32.0698781, "lon": 34.7811784, "tags": {"highway": "traffic_signals"}}, {"type": "node", "id": 1803022161, "lat": 32.06998, "lon": 34.780607, "tags": {"bench": "no", "bin": "no", "bus": "yes", "gtfs:stop_code:IL-MOT": "21316", "gtfs:stop_id:IL-MOT": "12998", "gtfs:stop_name:IL-MOT": "\u05d4\u05d7\u05e9\u05de\u05d5\u05e0\u05d0\u05d9\u05dd/\u05d9\u05d4\u05d5\u05d3\u05d4 \u05d4\u05dc\u05d5\u05d9", "highway": "bus_stop", "lit": "no", "name": "\u05d4\u05d7\u05e9\u05de\u05d5\u05e0\u05d0\u05d9\u05dd/\u05d9\u05d4\u05d5\u05d3\u05d4 \u05d4\u05dc\u05d5\u05d9", "name:ar": "\u0647\u062d\u0634\u0645\u0648\u0646\u064e\u0626\u064a\u0645/\u064a\u0647\u0648\u062f\u0627 \u0647\u0644\u064a\u06a4\u064a", "name:en": "Hahashmona'im/Yehuda Halevi", "name:he": "\u05d4\u05d7\u05e9\u05de\u05d5\u05e0\u05d0\u05d9\u05dd/\u05d9\u05d4\u05d5\u05d3\u05d4 \u05d4\u05dc\u05d5\u05d9", "object:city": "\u05ea\u05dc \u05d0\u05d1\u05d9\u05d1 \u05d9\u05e4\u05d5", "object:housenumber": "70", "object:street": "\u05d4\u05d7\u05e9\u05de\u05d5\u05e0\u05d0\u05d9\u05dd", "public_transport": "platform", "ref": "21316", "route_ref": "23;39;63;238;425;502", "shelter": "no"}}, {"type": "node", "id": 1995998503, "lat": 32.0705344, "lon": 34.7787446, "tags": {"button_operated": "no", "crossing": "traffic_signals", "highway": "crossing", "traffic_signals:sound": "no"}}, {"type": "node", "id": 4413855649, "lat": 32.0701096, "lon": 34.7788023}, {"type": "node", "id": 4413855650, "lat": 32.0696044, "lon": 34.7810194}, {"type": "node", "id": 4730179667, "lat": 32.0701048, "lon": 34.780361}, {"type": "node", "id": 4730179668, "lat": 32.0703887, "lon": 34.7804767}, {"type": "node", "id": 4730179669, "lat": 32.070264, "lon": 34.7804418, "tags": {"access": "yes", "barrier": "gate"}}, {"type": "node", "id": 4730179670, "lat": 32.0703926, "lon": 34.7806796}, {"type": "node", "id": 4730179671, "lat": 32.0705355, "lon": 34.7805364}, {"type": "node", "id": 4730179672, "lat": 32.0702446, "lon": 34.7804338}, {"type": "node", "id": 4730179673, "lat": 32.0702472, "lon": 34.7804193}, {"type": "node", "id": 4730179674, "lat": 32.0703851, "lon": 34.7804922, "tags": {"access": "yes", "barrier": "gate"}}, {"type": "node", "id": 4730179675, "lat": 32.0704416, "lon": 34.7805157}, {"type": "node", "id": 4730179676, "lat": 32.0704439, "lon": 34.7804991}, {"type": "node", "id": 4730179677, "lat": 32.0702664, "lon": 34.7804271}, {"type": "node", "id": 4730179678, "lat": 32.0701957, "lon": 34.7805977}, {"type": "node", "id": 4730188485, "lat": 32.0704816, "lon": 34.7807395}, {"type": "node", "id": 4730188486, "lat": 32.0701837, "lon": 34.7804093, "tags": {"amenity": "bicycle_parking", "bicycle_parking": "stands", "capacity": "8", "covered": "no"}}, {"type": "node", "id": 4730188487, "lat": 32.0704748, "lon": 34.7805117}, {"type": "node", "id": 4730188488, "lat": 32.0701503, "lon": 34.7806166}, {"type": "node", "id": 4730188890, "lat": 32.0700447, "lon": 34.7805775}, {"type": "node", "id": 4730188891, "lat": 32.070417, "lon": 34.7807155}, {"type": "node", "id": 4730188892, "lat": 32.0702023, "lon": 34.7804009}, {"type": "node", "id": 6801850948, "lat": 32.0704728, "lon": 34.7790153, "tags": {"button_operated": "yes", "crossing": "traffic_signals", "crossing_ref": "zebra", "highway": "crossing", "traffic_signals:sound": "yes"}}, {"type": "node", "id": 7768335038, "lat": 32.0679177, "lon": 34.7793926}, {"type": "node", "id": 10238264151, "lat": 32.0698989, "lon": 34.7811032, "tags": {"crossing": "traffic_signals", "highway": "crossing"}}, {"type": "node", "id": 10949089870, "lat": 32.0696201, "lon": 34.7809516, "tags": {"crossing": "uncontrolled", "crossing:markings": "yes", "highway": "crossing"}}, {"type": "way", "id": 33625874, "nodes": [384613392, 384613775, 7768335038, 384613399], "tags": {"highway": "residential", "lit": "yes", "name": "\u05d1\u05d9\u05dc\"\u05d5", "name:ar": "\u0628\u064a\u0644\u0648", "name:en": "Bilu", "name:en1": "Biloo", "name:he": "\u05d1\u05d9\u05dc\"\u05d5", "name:ru": "\u0411\u0438\u043b\u0443", "oneway": "yes", "sidewalk": "both", "surface": "asphalt"}}, {"type": "way", "id": 40434576, "nodes": [384613392, 476376316, 476376664, 34132755, 1312216095, 387493707], "tags": {"highway": "residential", "lit": "yes", "name": "\u05d1\u05d9\u05dc\"\u05d5", "name:ar": "\u0628\u064a\u0644\u0648", "name:en": "Bilu", "name:en1": "Biloo", "name:he": "\u05d1\u05d9\u05dc\"\u05d5", "name:ru": "\u0411\u0438\u043b\u0443", "oneway": "yes", "sidewalk": "both", "surface": "asphalt"}}, {"type": "way", "id": 154741777, "nodes": [311001058, 1995998503, 345574764, 1672351151, 6801850948, 384613392, 4730179667, 4730188890, 10238264151, 1672351169], "tags": {"alt_name:en": "HaHeshmonaiim;Ha'Chashmonaim;HaHashmona'im;Ha'Hashmonaim", "highway": "tertiary", "lanes": "2", "name": "\u05d4\u05d7\u05e9\u05de\u05d5\u05e0\u05d0\u05d9\u05dd", "name:ar": "\u0647\u062d\u0634\u0645\u0648\u0646\u0627\u0626\u064a\u0645", "name:en": "HaHashmonaim", "name:he": "\u05d4\u05d7\u05e9\u05de\u05d5\u05e0\u05d0\u05d9\u05dd", "oneway": "yes", "surface": "asphalt", "wikidata": "Q6590995", "wikipedia": "he:\u05e8\u05d7\u05d5\u05d1 \u05d4\u05d7\u05e9\u05de\u05d5\u05e0\u05d0\u05d9\u05dd", "wikipedia:he": "\u05e8\u05d7\u05d5\u05d1 \u05d4\u05d7\u05e9\u05de\u05d5\u05e0\u05d0\u05d9\u05dd"}}, {"type": "way", "id": 154741789, "nodes": [4413855650, 10949089870, 384613775, 4413855649], "tags": {"highway": "residential", "lit": "yes", "name": "\u05dc\u05d5\u05e0\u05e5", "name:en": "Lunz", "name:he": "\u05dc\u05d5\u05e0\u05e5", "oneway": "yes", "sidewalk": "both", "surface": "asphalt"}}, {"type": "way", "id": 479989520, "nodes": [4730179675, 4730179670, 4730179678, 4730179672, 4730179669, 4730179674, 4730179675], "tags": {"access": "yes", "barrier": "fence", "covered": "yes", "leisure": "playground", "surface": "tartan"}}, {"type": "way", "id": 479989521, "nodes": [4730179671, 4730188487, 4730179676, 4730179668, 4730179677, 4730179673, 4730188892, 4730179667], "tags": {"highway": "footway", "surface": "wood"}}, {"type": "way", "id": 479990673, "nodes": [4730188488, 4730188892], "tags": {"highway": "footway", "surface": "paving_stones"}}, {"type": "way", "id": 479990674, "nodes": [4730188485, 4730188891, 4730188488, 4730188890], "tags": {"highway": "footway", "surface": "paving_stones"}}]}