{"version": 0.6, "generator": "Overpass API 0.7.62.5 1bd436f1", "osm3s": {"timestamp_osm_base": "2025-05-29T17:07:48Z", "copyright": "The data included in this document is from www.openstreetmap.org. The data is made available under ODbL."}, "elements": [{"type": "node", "id": 311001058, "lat": 32.0705524, "lon": 34.7786441}, {"type": "node", "id": 339475877, "lat": 32.0688252, "lon": 34.7805589}, {"type": "node", "id": 339476005, "lat": 32.069691, "lon": 34.7819302}, {"type": "node", "id": 345574764, "lat": 32.0705147, "lon": 34.7788346, "tags": {"bicycle": "designated", "button_operated": "yes", "crossing": "traffic_signals", "highway": "crossing", "traffic_signals:sound": "yes"}}, {"type": "node", "id": 384604491, "lat": 32.0706704, "lon": 34.7816314}, {"type": "node", "id": 384604871, "lat": 32.0702992, "lon": 34.7814275}, {"type": "node", "id": 384604872, "lat": 32.0709236, "lon": 34.7790817}, {"type": "node", "id": 384613392, "lat": 32.0701269, "lon": 34.7802817}, {"type": "node", "id": 384613775, "lat": 32.069805, "lon": 34.7801512}, {"type": "node", "id": 476376316, "lat": 32.0705554, "lon": 34.7804615}, {"type": "node", "id": 1672351151, "lat": 32.0704972, "lon": 34.778926, "tags": {"highway": "traffic_signals"}}, {"type": "node", "id": 1672351169, "lat": 32.0698781, "lon": 34.7811784, "tags": {"highway": "traffic_signals"}}, {"type": "node", "id": 1683209667, "lat": 32.0677234, "lon": 34.7799387, "tags": {"highway": "traffic_signals"}}, {"type": "node", "id": 1995998503, "lat": 32.0705344, "lon": 34.7787446, "tags": {"button_operated": "no", "crossing": "traffic_signals", "highway": "crossing", "traffic_signals:sound": "no"}}, {"type": "node", "id": 2365353778, "lat": 32.0709842, "lon": 34.7818269, "tags": {"highway": "traffic_signals", "traffic_signals": "signal"}}, {"type": "node", "id": 2384763532, "lat": 32.0696177, "lon": 34.7823403}, {"type": "node", "id": 3853300846, "lat": 32.0685608, "lon": 34.7804069}, {"type": "node", "id": 4413855649, "lat": 32.0701096, "lon": 34.7788023}, {"type": "node", "id": 4413855650, "lat": 32.0696044, "lon": 34.7810194}, {"type": "node", "id": 4413855651, "lat": 32.0698022, "lon": 34.7814584}, {"type": "node", "id": 4413855652, "lat": 32.0697593, "lon": 34.7816334}, {"type": "node", "id": 4730179667, "lat": 32.0701048, "lon": 34.780361}, {"type": "node", "id": 4730179669, "lat": 32.070264, "lon": 34.7804418, "tags": {"access": "yes", "barrier": "gate"}}, {"type": "node", "id": 4730179670, "lat": 32.0703926, "lon": 34.7806796}, {"type": "node", "id": 4730179671, "lat": 32.0705355, "lon": 34.7805364}, {"type": "node", "id": 4730179672, "lat": 32.0702446, "lon": 34.7804338}, {"type": "node", "id": 4730179674, "lat": 32.0703851, "lon": 34.7804922, "tags": {"access": "yes", "barrier": "gate"}}, {"type": "node", "id": 4730179675, "lat": 32.0704416, "lon": 34.7805157}, {"type": "node", "id": 4730179678, "lat": 32.0701957, "lon": 34.7805977}, {"type": "node", "id": 4730188485, "lat": 32.0704816, "lon": 34.7807395}, {"type": "node", "id": 4730188488, "lat": 32.0701503, "lon": 34.7806166}, {"type": "node", "id": 4730188890, "lat": 32.0700447, "lon": 34.7805775}, {"type": "node", "id": 4730188891, "lat": 32.070417, "lon": 34.7807155}, {"type": "node", "id": 6801850947, "lat": 32.0709047, "lon": 34.7791525, "tags": {"crossing": "uncontrolled", "crossing_ref": "zebra", "highway": "crossing"}}, {"type": "node", "id": 6801850948, "lat": 32.0704728, "lon": 34.7790153, "tags": {"button_operated": "yes", "crossing": "traffic_signals", "crossing_ref": "zebra", "highway": "crossing", "traffic_signals:sound": "yes"}}, {"type": "node", "id": 7768335028, "lat": 32.067846, "lon": 34.7800077, "tags": {"button_operated": "no", "crossing": "traffic_signals", "highway": "crossing", "traffic_signals:sound": "yes", "traffic_signals:vibration": "yes"}}, {"type": "node", "id": 8446112895, "lat": 32.0686196, "lon": 34.7804407}, {"type": "node", "id": 10238264150, "lat": 32.069932, "lon": 34.7812103, "tags": {"crossing": "traffic_signals", "highway": "crossing"}}, {"type": "node", "id": 10238264151, "lat": 32.0698989, "lon": 34.7811032, "tags": {"crossing": "traffic_signals", "highway": "crossing"}}, {"type": "node", "id": 10238264152, "lat": 32.0698158, "lon": 34.7811429, "tags": {"crossing": "traffic_signals", "highway": "crossing"}}, {"type": "node", "id": 10238264153, "lat": 32.0698552, "lon": 34.7812628, "tags": {"crossing": "traffic_signals", "highway": "crossing"}}, {"type": "node", "id": 10948715138, "lat": 32.0697202, "lon": 34.7811184, "tags": {"amenity": "bicycle_parking"}}, {"type": "node", "id": 10949089867, "lat": 32.0687952, "lon": 34.7805416, "tags": {"crossing": "uncontrolled", "crossing:markings": "yes", "highway": "crossing"}}, {"type": "node", "id": 10949089869, "lat": 32.0688644, "lon": 34.7805821, "tags": {"crossing": "uncontrolled", "crossing:markings": "yes", "highway": "crossing"}}, {"type": "node", "id": 10949089870, "lat": 32.0696201, "lon": 34.7809516, "tags": {"crossing": "uncontrolled", "crossing:markings": "yes", "highway": "crossing"}}, {"type": "way", "id": 33625490, "nodes": [384604871, 4730188485, 4730179671, 476376316, 6801850947, 384604872], "tags": {"highway": "residential", "name": "\u05db\u05e8\u05de\u05d9\u05d4", "name:ar": "\u0643\u0652\u0631\u064a\u0645\u064a\u0647", "name:en": "Cremyeh", "name:en1": "Carmie", "name:en2": "Cremieux", "name:he": "\u05db\u05e8\u05de\u05d9\u05d4", "oneway": "yes", "surface": "asphalt"}}, {"type": "way", "id": 154741777, "nodes": [311001058, 1995998503, 345574764, 1672351151, 6801850948, 384613392, 4730179667, 4730188890, 10238264151, 1672351169], "tags": {"alt_name:en": "HaHeshmonaiim;Ha'Chashmonaim;HaHashmona'im;Ha'Hashmonaim", "highway": "tertiary", "lanes": "2", "name": "\u05d4\u05d7\u05e9\u05de\u05d5\u05e0\u05d0\u05d9\u05dd", "name:ar": "\u0647\u062d\u0634\u0645\u0648\u0646\u0627\u0626\u064a\u0645", "name:en": "HaHashmonaim", "name:he": "\u05d4\u05d7\u05e9\u05de\u05d5\u05e0\u05d0\u05d9\u05dd", "oneway": "yes", "surface": "asphalt", "wikidata": "Q6590995", "wikipedia": "he:\u05e8\u05d7\u05d5\u05d1 \u05d4\u05d7\u05e9\u05de\u05d5\u05e0\u05d0\u05d9\u05dd", "wikipedia:he": "\u05e8\u05d7\u05d5\u05d1 \u05d4\u05d7\u05e9\u05de\u05d5\u05e0\u05d0\u05d9\u05dd"}}, {"type": "way", "id": 154741789, "nodes": [4413855650, 10949089870, 384613775, 4413855649], "tags": {"highway": "residential", "lit": "yes", "name": "\u05dc\u05d5\u05e0\u05e5", "name:en": "Lunz", "name:he": "\u05dc\u05d5\u05e0\u05e5", "oneway": "yes", "sidewalk": "both", "surface": "asphalt"}}, {"type": "way", "id": 479989520, "nodes": [4730179675, 4730179670, 4730179678, 4730179672, 4730179669, 4730179674, 4730179675], "tags": {"access": "yes", "barrier": "fence", "covered": "yes", "leisure": "playground", "surface": "tartan"}}, {"type": "way", "id": 479990674, "nodes": [4730188485, 4730188891, 4730188488, 4730188890], "tags": {"highway": "footway", "surface": "paving_stones"}}, {"type": "way", "id": 912680018, "nodes": [4413855650, 10949089869, 339475877, 10949089867, 8446112895, 3853300846, 7768335028, 1683209667], "tags": {"highway": "tertiary", "lanes": "3", "name": "\u05d9\u05d4\u05d5\u05d3\u05d4 \u05d4\u05dc\u05d5\u05d9", "name:ar": "\u064a\u0650\u0647\u0648\u062f\u0627 \u0647\u0627\u0644\u064a\u06a8\u064a", "name:en": "Yehuda HaLevi", "name:en1": "Yehuda Ha'Levi", "name:en2": "Yehuda HaLevy", "name:en3": "Jehuda HaLevi", "name:en4": "Jehuda Ha'Levi", "name:he": "\u05d9\u05d4\u05d5\u05d3\u05d4 \u05d4\u05dc\u05d5\u05d9", "name:ru": "\u0418\u0435\u0433\u0443\u0434\u0430 \u0425\u0430\u041b\u0435\u0432\u0438", "oneway": "yes", "sidewalk": "both", "surface": "asphalt"}}, {"type": "way", "id": 1178549296, "nodes": [1672351169, 10238264153, 4413855651, 4413855652, 339476005, 2384763532], "tags": {"alt_name:en": "HaHeshmonaiim;Ha'Chashmonaim;HaHashmona'im;Ha'Hashmonaim", "highway": "tertiary", "lanes": "2", "name": "\u05d4\u05d7\u05e9\u05de\u05d5\u05e0\u05d0\u05d9\u05dd", "name:ar": "\u0647\u062d\u0634\u0645\u0648\u0646\u0627\u0626\u064a\u0645", "name:en": "HaHashmonaim", "name:he": "\u05d4\u05d7\u05e9\u05de\u05d5\u05e0\u05d0\u05d9\u05dd", "oneway": "yes", "sidewalk": "both", "surface": "asphalt", "wikidata": "Q6590995", "wikipedia": "he:\u05e8\u05d7\u05d5\u05d1 \u05d4\u05d7\u05e9\u05de\u05d5\u05e0\u05d0\u05d9\u05dd", "wikipedia:he": "\u05e8\u05d7\u05d5\u05d1 \u05d4\u05d7\u05e9\u05de\u05d5\u05e0\u05d0\u05d9\u05dd"}}, {"type": "way", "id": 1178549618, "nodes": [2365353778, 384604491, 384604871, 10238264150, 1672351169], "tags": {"highway": "tertiary", "lanes": "3", "name": "\u05d9\u05d4\u05d5\u05d3\u05d4 \u05d4\u05dc\u05d5\u05d9", "name:ar": "\u064a\u0650\u0647\u0648\u062f\u0627 \u0647\u0627\u0644\u064a\u06a8\u064a", "name:en": "Yehuda HaLevi", "name:en1": "Yehuda Ha'Levi", "name:en2": "Yehuda HaLevy", "name:en3": "Jehuda HaLevi", "name:en4": "Jehuda Ha'Levi", "name:he": "\u05d9\u05d4\u05d5\u05d3\u05d4 \u05d4\u05dc\u05d5\u05d9", "name:ru": "\u0418\u0435\u0433\u0443\u0434\u0430 \u0425\u0430\u041b\u0435\u0432\u0438", "oneway": "yes", "surface": "asphalt"}}, {"type": "way", "id": 1178549619, "nodes": [1672351169, 10238264152, 4413855650], "tags": {"highway": "tertiary", "lanes": "3", "name": "\u05d9\u05d4\u05d5\u05d3\u05d4 \u05d4\u05dc\u05d5\u05d9", "name:ar": "\u064a\u0650\u0647\u0648\u062f\u0627 \u0647\u0627\u0644\u064a\u06a8\u064a", "name:en": "Yehuda HaLevi", "name:en1": "Yehuda Ha'Levi", "name:en2": "Yehuda HaLevy", "name:en3": "Jehuda HaLevi", "name:en4": "Jehuda Ha'Levi", "name:he": "\u05d9\u05d4\u05d5\u05d3\u05d4 \u05d4\u05dc\u05d5\u05d9", "name:ru": "\u0418\u0435\u0433\u0443\u0434\u0430 \u0425\u0430\u041b\u0435\u0432\u0438", "oneway": "yes", "sidewalk": "both", "surface": "asphalt"}}]}