{"version": 0.6, "generator": "Overpass API 0.7.62.5 1bd436f1", "osm3s": {"timestamp_osm_base": "2025-05-29T17:05:51Z", "copyright": "The data included in this document is from www.openstreetmap.org. The data is made available under ODbL."}, "elements": [{"type": "node", "id": 357506422, "lat": 32.0732828, "lon": 34.7769064}, {"type": "node", "id": 357506443, "lat": 32.0738301, "lon": 34.777312}, {"type": "node", "id": 357507801, "lat": 32.0730766, "lon": 34.7769943}, {"type": "node", "id": 384653020, "lat": 32.0687042, "lon": 34.7758153}, {"type": "node", "id": 384654737, "lat": 32.069267, "lon": 34.7759583}, {"type": "node", "id": 384661655, "lat": 32.06991, "lon": 34.7761249}, {"type": "node", "id": 384662704, "lat": 32.0734893, "lon": 34.7761801}, {"type": "node", "id": 384664613, "lat": 32.0715643, "lon": 34.7765421}, {"type": "node", "id": 384664614, "lat": 32.0711556, "lon": 34.7764046}, {"type": "node", "id": 384664913, "lat": 32.0720467, "lon": 34.7767145}, {"type": "node", "id": 384665045, "lat": 32.0726795, "lon": 34.7777775}, {"type": "node", "id": 384741724, "lat": 32.0706907, "lon": 34.7762838}, {"type": "node", "id": 476379062, "lat": 32.0702427, "lon": 34.7762024}, {"type": "node", "id": 476383277, "lat": 32.0731339, "lon": 34.7770296, "tags": {"crossing": "marked", "crossing:island": "no", "crossing:markings": "yes", "highway": "crossing"}}, {"type": "node", "id": 1209000963, "lat": 32.0731004, "lon": 34.7769473}, {"type": "node", "id": 1209000995, "lat": 32.0731974, "lon": 34.7770707}, {"type": "node", "id": 1312216182, "lat": 32.0724014, "lon": 34.7786683, "tags": {"crossing": "traffic_signals", "highway": "crossing"}}, {"type": "node", "id": 2144017081, "lat": 32.073921, "lon": 34.7753283, "tags": {"highway": "traffic_signals"}}, {"type": "node", "id": 2384763539, "lat": 32.0739035, "lon": 34.7753631, "tags": {"button_operated": "no", "crossing": "traffic_signals", "highway": "crossing", "traffic_signals:sound": "no"}}, {"type": "node", "id": 2384763540, "lat": 32.0739853, "lon": 34.7754117}, {"type": "node", "id": 4014778605, "lat": 32.0724267, "lon": 34.7786865}, {"type": "node", "id": 4166597202, "lat": 32.0724791, "lon": 34.7785027, "tags": {"highway": "traffic_signals"}}, {"type": "node", "id": 4587267139, "lat": 32.0718552, "lon": 34.7766461}, {"type": "node", "id": 5442467297, "lat": 32.0739701, "lon": 34.7754027, "tags": {"crossing": "marked", "crossing:markings": "yes", "highway": "crossing"}}, {"type": "node", "id": 5442467298, "lat": 32.0731173, "lon": 34.7770194, "tags": {"crossing": "marked", "crossing:island": "no", "crossing:markings": "yes", "highway": "crossing"}}, {"type": "node", "id": 5931142273, "lat": 32.0737008, "lon": 34.775763, "tags": {"crossing": "uncontrolled", "highway": "crossing"}}, {"type": "node", "id": 5931142275, "lat": 32.0737741, "lon": 34.775813}, {"type": "node", "id": 5931142276, "lat": 32.0737591, "lon": 34.7758028}, {"type": "node", "id": 5931142277, "lat": 32.0734142, "lon": 34.7763283}, {"type": "node", "id": 5931142278, "lat": 32.0735368, "lon": 34.7764177}, {"type": "node", "id": 5931142279, "lat": 32.0734783, "lon": 34.7763751}, {"type": "node", "id": 5931142280, "lat": 32.073463, "lon": 34.776364}, {"type": "node", "id": 5931142281, "lat": 32.0728229, "lon": 34.7778173}, {"type": "node", "id": 5931142282, "lat": 32.0726997, "lon": 34.7777376}, {"type": "node", "id": 5931142283, "lat": 32.0727601, "lon": 34.7777766, "tags": {"crossing": "marked", "crossing:island": "no", "crossing:markings": "yes", "highway": "crossing"}}, {"type": "node", "id": 5931142284, "lat": 32.0727428, "lon": 34.7777654, "tags": {"crossing": "marked", "crossing:island": "no", "crossing:markings": "yes", "highway": "crossing"}}, {"type": "node", "id": 6153617598, "lat": 32.0688001, "lon": 34.7758395, "tags": {"highway": "stop"}}, {"type": "node", "id": 6153617601, "lat": 32.0687797, "lon": 34.7758343, "tags": {"crossing": "uncontrolled", "crossing_ref": "zebra", "highway": "crossing"}}, {"type": "node", "id": 6153617602, "lat": 32.0692161, "lon": 34.7759454, "tags": {"crossing": "uncontrolled", "crossing_ref": "zebra", "highway": "crossing"}}, {"type": "node", "id": 6153617606, "lat": 32.069949, "lon": 34.776134, "tags": {"crossing": "uncontrolled", "crossing_ref": "zebra", "highway": "crossing"}}, {"type": "node", "id": 6153617608, "lat": 32.0706558, "lon": 34.7762775, "tags": {"crossing": "uncontrolled", "crossing_ref": "zebra", "highway": "crossing"}}, {"type": "node", "id": 6153617611, "lat": 32.0707296, "lon": 34.7762939, "tags": {"crossing": "uncontrolled", "crossing_ref": "zebra", "highway": "crossing"}}, {"type": "node", "id": 6153617613, "lat": 32.0711965, "lon": 34.7764183, "tags": {"crossing": "uncontrolled", "crossing_ref": "zebra", "highway": "crossing"}}, {"type": "node", "id": 6153617616, "lat": 32.0711158, "lon": 34.7763943, "tags": {"crossing": "uncontrolled", "crossing_ref": "zebra", "highway": "crossing"}}, {"type": "node", "id": 6153617619, "lat": 32.0715233, "lon": 34.7765283, "tags": {"crossing": "uncontrolled", "crossing_ref": "zebra", "highway": "crossing"}}, {"type": "node", "id": 6153617620, "lat": 32.0715979, "lon": 34.7765541, "tags": {"crossing": "uncontrolled", "crossing_ref": "zebra", "highway": "crossing"}}, {"type": "node", "id": 6153617622, "lat": 32.0730255, "lon": 34.7769804, "tags": {"crossing": "uncontrolled", "crossing_ref": "zebra", "highway": "crossing"}}, {"type": "node", "id": 7768335034, "lat": 32.0687403, "lon": 34.7758233}, {"type": "node", "id": 9923871051, "lat": 32.0724503, "lon": 34.7783957}, {"type": "node", "id": 9923871052, "lat": 32.072493, "lon": 34.7783105}, {"type": "node", "id": 10186147102, "lat": 32.0724196, "lon": 34.7784921, "tags": {"crossing": "traffic_signals", "highway": "crossing"}}, {"type": "node", "id": 10186147104, "lat": 32.0724259, "lon": 34.7784155}, {"type": "node", "id": 10186147105, "lat": 32.072437, "lon": 34.7784237, "tags": {"crossing": "marked", "crossing:markings": "yes", "highway": "crossing"}}, {"type": "node", "id": 10186147106, "lat": 32.0724499, "lon": 34.7784312}, {"type": "node", "id": 10186147107, "lat": 32.0724061, "lon": 34.7785409, "tags": {"crossing": "traffic_signals", "highway": "crossing"}}, {"type": "node", "id": 10186147109, "lat": 32.0723768, "lon": 34.7786497}, {"type": "node", "id": 10186147113, "lat": 32.0724895, "lon": 34.7787315}, {"type": "node", "id": 10186164727, "lat": 32.0724446, "lon": 34.778443, "tags": {"crossing": "marked", "crossing:markings": "yes", "highway": "crossing"}}, {"type": "node", "id": 10186164728, "lat": 32.0724964, "lon": 34.7784649, "tags": {"crossing": "traffic_signals", "highway": "crossing"}}, {"type": "node", "id": 10238157232, "lat": 32.0724117, "lon": 34.7783059}, {"type": "node", "id": 10238157234, "lat": 32.0738016, "lon": 34.7759082}, {"type": "node", "id": 12075053154, "lat": 32.0732676, "lon": 34.7768355, "tags": {"access": "yes", "amenity": "drinking_water", "fee": "no", "wheelchair": "yes"}}, {"type": "way", "id": 30146324, "nodes": [2384763540, 5931142275, 5931142279, 476383277, 5931142283, 9923871052, 9923871051, 10186147105], "tags": {"bicycle": "no", "foot": "designated", "footway:surface": "concrete", "highway": "footway", "segregated": "yes", "surface": "asphalt"}}, {"type": "way", "id": 30146341, "nodes": [4166597202, 10186164728, 5931142281, 1209000995, 357506422, 5931142278, 10238157234], "tags": {"highway": "tertiary", "lane_markings": "no", "lanes": "1", "name": "\u05e9\u05d3\u05e8\u05d5\u05ea \u05d1\u05df \u05e6\u05d9\u05d5\u05df", "name:en": "Sderot Ben Zion", "name:en1": "Ben Zion Avenue", "name:he": "\u05e9\u05d3\u05e8\u05d5\u05ea \u05d1\u05df \u05e6\u05d9\u05d5\u05df", "name:ro": "Bulevardul Ben Zion", "oneway": "yes", "surface": "asphalt"}}, {"type": "way", "id": 31917799, "nodes": [357507801, 5442467298, 476383277, 1209000995], "tags": {"highway": "residential", "lanes": "2", "name": "\u05de\u05dc\u05e6'\u05d8", "name:en": "Melchet", "name:he": "\u05de\u05dc\u05e6'\u05d8", "note": "keep it simple. Only two separate ways if they are physicaly separated.", "oneway": "no", "surface": "asphalt"}}, {"type": "way", "id": 31917903, "nodes": [357506422, 357506443], "tags": {"highway": "path", "name": "\u05dc\u05d1 \u05d0\u05d1\u05e8\u05d4\u05dd", "name:en": "Lev Avraham", "name:he": "\u05dc\u05d1 \u05d0\u05d1\u05e8\u05d4\u05dd", "surface": "paved"}}, {"type": "way", "id": 33627384, "nodes": [357507801, 6153617622, 384664913, 4587267139, 6153617620, 384664613, 6153617619, 6153617613, 384664614, 6153617616, 6153617611, 384741724, 6153617608, 476379062, 6153617606, 384661655, 384654737, 6153617602, 6153617598, 6153617601, 7768335034, 384653020], "tags": {"highway": "residential", "lit": "yes", "maxspeed": "30", "name": "\u05de\u05dc\u05e6'\u05d8", "name:en": "Melchet", "name:en1": "Melchett", "name:he": "\u05de\u05dc\u05e6'\u05d8", "note": "Cycle path is part of the road", "oneway": "yes", "surface": "asphalt"}}, {"type": "way", "id": 255761065, "nodes": [2144017081, 2384763539, 5931142273, 384662704, 5931142277, 1209000963, 357507801, 5931142282, 384665045, 10238157232], "tags": {"highway": "tertiary", "lanes": "1", "name": "\u05e9\u05d3\u05e8\u05d5\u05ea \u05d1\u05df \u05e6\u05d9\u05d5\u05df", "name:en": "Sderot Ben Zion", "name:en1": "Ben Zion Avenue", "name:he": "\u05e9\u05d3\u05e8\u05d5\u05ea \u05d1\u05df \u05e6\u05d9\u05d5\u05df", "name:ro": "Bulevardul Ben Zion", "oneway": "yes", "surface": "asphalt"}}, {"type": "way", "id": 564997030, "nodes": [5442467297, 5931142276, 5931142280, 5442467298, 5931142284, 10186147104, 10186147105, 10186147106, 10186164727, 10186147102, 10186147107, 10186147109, 1312216182, 4014778605, 10186147113], "tags": {"bicycle": "designated", "highway": "cycleway", "lit": "yes", "mtb:name:en": "Ben Zion Cycle Path", "mtb:name:hr": "\u05e9\u05d1\u05d9\u05dc \u05d1\u05df \u05e6\u05d9\u05d5\u05df", "oneway": "no", "surface": "asphalt"}}]}