{"version": 0.6, "generator": "Overpass API 0.7.62.5 1bd436f1", "osm3s": {"timestamp_osm_base": "2025-05-29T17:06:50Z", "copyright": "The data included in this document is from www.openstreetmap.org. The data is made available under ODbL."}, "elements": [{"type": "node", "id": 357515625, "lat": 32.0734366, "lon": 34.7741521}, {"type": "node", "id": 357515631, "lat": 32.0737502, "lon": 34.7735258, "tags": {"highway": "crossing"}}, {"type": "node", "id": 357515920, "lat": 32.0743304, "lon": 34.7747838}, {"type": "node", "id": 539592993, "lat": 32.0734559, "lon": 34.7733601}, {"type": "node", "id": 539593080, "lat": 32.0734238, "lon": 34.7734879}, {"type": "node", "id": 539593084, "lat": 32.0733673, "lon": 34.7735859}, {"type": "node", "id": 539593086, "lat": 32.07325, "lon": 34.7736708}, {"type": "node", "id": 539593089, "lat": 32.0728433, "lon": 34.7735032}, {"type": "node", "id": 2469848057, "lat": 32.072899, "lon": 34.7745654}, {"type": "node", "id": 2683019657, "lat": 32.0746565, "lon": 34.774172}, {"type": "node", "id": 3307421768, "lat": 32.0731285, "lon": 34.7747749}, {"type": "node", "id": 6815316667, "lat": 32.0729474, "lon": 34.7736625}, {"type": "node", "id": 6815316668, "lat": 32.0728769, "lon": 34.7736359}, {"type": "node", "id": 6815316669, "lat": 32.0731013, "lon": 34.7736836}, {"type": "node", "id": 6815316683, "lat": 32.0728374, "lon": 34.7735884}, {"type": "node", "id": 6815333793, "lat": 32.0730411, "lon": 34.7736754}, {"type": "node", "id": 6815333794, "lat": 32.0729826, "lon": 34.7737836}, {"type": "node", "id": 6815333795, "lat": 32.0731445, "lon": 34.7739075}, {"type": "node", "id": 6815333796, "lat": 32.073176, "lon": 34.7738455}, {"type": "node", "id": 6815333797, "lat": 32.0732645, "lon": 34.7739128}, {"type": "node", "id": 6815333798, "lat": 32.0732255, "lon": 34.7739907}, {"type": "node", "id": 8564167002, "lat": 32.0743036, "lon": 34.7747649, "tags": {"crossing": "marked", "crossing:markings": "yes", "highway": "crossing"}}, {"type": "node", "id": 8564167003, "lat": 32.0746294, "lon": 34.7741527, "tags": {"crossing": "marked", "highway": "crossing"}}, {"type": "way", "id": 31920033, "nodes": [357515625, 357515631], "tags": {"highway": "residential", "lit": "yes", "maxspeed": "30", "name": "\u05de\u05e9\u05e2\u05d5\u05dc \u05d9\u05e2\u05e7\u05d1", "name:en": "Mishol Yaakov", "name:he": "\u05de\u05e9\u05e2\u05d5\u05dc \u05d9\u05e2\u05e7\u05d1", "oneway": "yes", "surface": "asphalt"}}, {"type": "way", "id": 31920043, "nodes": [357515631, 8564167003, 2683019657], "tags": {"highway": "residential", "lit": "yes", "maxspeed": "30", "name": "\u05d4\u05de\u05dc\u05d9\u05e5", "name:en": "Hamelitz", "name:en1": "Ha'Melitz", "name:en2": "HaMelits", "name:en3": "HaMliz", "name:he": "\u05d4\u05de\u05dc\u05d9\u05e5", "oneway": "yes", "surface": "asphalt"}}, {"type": "way", "id": 31920264, "nodes": [357515625, 3307421768], "tags": {"highway": "living_street", "lit": "yes", "name": "\u05de\u05e9\u05e2\u05d5\u05dc \u05d9\u05e2\u05e7\u05d1", "name:en": "Mishol Yaakov", "name:he": "\u05de\u05e9\u05e2\u05d5\u05dc \u05d9\u05e2\u05e7\u05d1", "surface": "paving_stones"}}, {"type": "way", "id": 43075091, "nodes": [539592993, 539593080, 539593084, 539593086, 6815316669, 6815333793, 6815316667, 6815316668, 6815316683, 539593089], "tags": {"highway": "footway", "lit": "yes", "surface": "concrete"}}, {"type": "way", "id": 505976703, "nodes": [357515920, 8564167002, 357515625], "tags": {"highway": "residential", "lit": "yes", "maxspeed": "30", "name": "\u05d1\u05d5\u05e7\u05d9 \u05d1\u05df \u05d9\u05d2\u05dc\u05d9", "name:en": "Buki Ben Yagli", "name:he": "\u05d1\u05d5\u05e7\u05d9 \u05d1\u05df \u05d9\u05d2\u05dc\u05d9", "oneway": "yes", "surface": "asphalt"}}, {"type": "way", "id": 727231349, "nodes": [6815333793, 6815333794, 6815333795, 6815333796, 6815333797, 6815333798, 357515625], "tags": {"highway": "footway", "lit": "yes", "surface": "paving_stones"}}, {"type": "way", "id": 1134725807, "nodes": [3307421768, 2469848057], "tags": {"alt_name:en": "HaMelech George", "highway": "service", "lanes": "1", "lit": "yes", "motor_vehicle": "yes", "motor_vehicle:conditional": "no @ (Su-Th 10:00-19:00; Fr 10:00-16:00)", "name": "\u05d4\u05de\u05dc\u05da \u05d2\u05f3\u05d5\u05e8\u05d2\u05f3", "name:ar": "\u0647\u0645\u064a\u0644\u062e \u062c\u0648\u0631\u062c", "name:en": "HaMelekh George", "name:en1": "King George", "name:he": "\u05d4\u05de\u05dc\u05da \u05d2\u05f3\u05d5\u05e8\u05d2\u05f3", "oneway": "yes", "psv": "yes", "service": "bus", "sidewalk": "both", "surface": "asphalt", "wikidata": "Q2905705"}}]}